<?xml version="1.0" encoding="UTF-8"?>
<gpx xmlns="http://www.topografix.com/GPX/1/1" xmlns:gpxtpx="http://www.garmin.com/xmlschemas/TrackPointExtension/v1" xmlns:xsi="http://www.w3.org/2001/XMLSchema-instance" xsi:schemaLocation="http://www.topografix.com/GPX/1/1 http://www.topografix.com/GPX/1/1/gpx.xsd" version="1.1" creator="gpx.py -- https://github.com/tkrajina/gpxpy">
  <trk>
    <name>gpx from keep</name>
    <type>Run</type>
    <trkseg>
      <trkpt lat="26.823496568918383" lon="100.22006353679767">
        <ele>2354.722218981944</ele>
        <time>2026-09-02T06:06:26.162000Z</time>
      </trkpt>
      <trkpt lat="26.823547649635454" lon="100.22014963319955">
        <ele>2353.4198601073986</ele>
        <time>2026-09-02T06:06:32.162000Z</time>
      </trkpt>
      <trkpt lat="26.82370759995871" lon="100.22012359964603">
        <ele>2353.2757809770014</ele>
        <time>2026-09-02T06:06:38.262000Z</time>
      </trkpt>
      <trkpt lat="26.823978557749026" lon="100.22012058938513">
        <ele>2351.6900824539107</ele>
        <time>2026-09-02T06:06:50.262000Z</time>
      </trkpt>
      <trkpt lat="26.824229534742916" lon="100.22013359779402">
        <ele>2349.0628643792575</ele>
        <time>2026-09-02T06:07:02.262000Z</time>
      </trkpt>
      <trkpt lat="26.824302501654124" lon="100.22011157096918">
        <ele>2349.4923793041467</ele>
        <time>2026-09-02T06:07:05.262000Z</time>
      </trkpt>
      <trkpt lat="26.82446550055043" lon="100.2201335918245">
        <ele>2349.1717397460984</ele>
        <time>2026-09-02T06:07:14.262000Z</time>
      </trkpt>
      <trkpt lat="26.824731536557746" lon="100.22020666785328">
        <ele>2348.6720020835423</ele>
        <time>2026-09-02T06:07:26.262000Z</time>
      </trkpt>
      <trkpt lat="26.824795527261024" lon="100.22020666623445">
        <ele>2349.8313426069135</ele>
        <time>2026-09-02T06:07:29.262000Z</time>
      </trkpt>
      <trkpt lat="26.824941560098818" lon="100.22025972250432">
        <ele>2351.441015657698</ele>
        <time>2026-09-02T06:07:35.262000Z</time>
      </trkpt>
      <trkpt lat="26.82495461726503" lon="100.22031778767828">
        <ele>2350.02056633694</ele>
        <time>2026-09-02T06:07:38.262000Z</time>
      </trkpt>
      <trkpt lat="26.82493768274776" lon="100.22037985799322">
        <ele>2349.6656699346677</ele>
        <time>2026-09-02T06:07:41.262000Z</time>
      </trkpt>
      <trkpt lat="26.824931062246566" lon="100.22075527787636">
        <ele>2348.638901050971</ele>
        <time>2026-09-02T06:07:56.262000Z</time>
      </trkpt>
      <trkpt lat="26.824930387737563" lon="100.22108163859019">
        <ele>2348.6753373150163</ele>
        <time>2026-09-02T06:08:11.262000Z</time>
      </trkpt>
      <trkpt lat="26.824954657006586" lon="100.22135794030324">
        <ele>2352.590524819502</ele>
        <time>2026-09-02T06:08:23.262000Z</time>
      </trkpt>
      <trkpt lat="26.82494500954474" lon="100.22171732959241">
        <ele>2351.8310770079975</ele>
        <time>2026-09-02T06:08:41.262000Z</time>
      </trkpt>
      <trkpt lat="26.824943319238567" lon="100.22203767239925">
        <ele>2350.448363845786</ele>
        <time>2026-09-02T06:08:56.262000Z</time>
      </trkpt>
      <trkpt lat="26.82494663816767" lon="100.22237202602085">
        <ele>2352.764577360962</ele>
        <time>2026-09-02T06:09:11.262000Z</time>
      </trkpt>
      <trkpt lat="26.82493882409352" lon="100.22256723080208">
        <ele>2348.7688619926807</ele>
        <time>2026-09-02T06:09:20.262000Z</time>
      </trkpt>
      <trkpt lat="26.824946935067658" lon="100.22268635474798">
        <ele>2347.9204633527156</ele>
        <time>2026-09-02T06:09:26.262000Z</time>
      </trkpt>
      <trkpt lat="26.824933005662814" lon="100.22275943099784">
        <ele>2347.0935956176804</ele>
        <time>2026-09-02T06:09:32.262000Z</time>
      </trkpt>
      <trkpt lat="26.824947200802168" lon="100.22297064889274">
        <ele>2345.0283583217856</ele>
        <time>2026-09-02T06:09:50.262000Z</time>
      </trkpt>
      <trkpt lat="26.824924250655094" lon="100.22302070094702">
        <ele>2345.3512545728013</ele>
        <time>2026-09-02T06:09:56.262000Z</time>
      </trkpt>
      <trkpt lat="26.824937538024862" lon="100.22333402070517">
        <ele>2344.4894098032337</ele>
        <time>2026-09-02T06:10:11.262000Z</time>
      </trkpt>
      <trkpt lat="26.824934656730832" lon="100.22346315162851">
        <ele>2341.2659449562425</ele>
        <time>2026-09-02T06:10:17.262000Z</time>
      </trkpt>
      <trkpt lat="26.82497277984279" lon="100.22360429296974">
        <ele>2342.0060635936584</ele>
        <time>2026-09-02T06:10:23.262000Z</time>
      </trkpt>
      <trkpt lat="26.824954948429465" lon="100.22378747699332">
        <ele>2343.189797424375</ele>
        <time>2026-09-02T06:10:32.262000Z</time>
      </trkpt>
      <trkpt lat="26.824984222809064" lon="100.22409778433031">
        <ele>2341.9421314385254</ele>
        <time>2026-09-02T06:10:47.262000Z</time>
      </trkpt>
      <trkpt lat="26.824968279578584" lon="100.22415884492527">
        <ele>2341.469868587915</ele>
        <time>2026-09-02T06:10:50.262000Z</time>
      </trkpt>
      <trkpt lat="26.82497756094283" lon="100.22447815716055">
        <ele>2340.357356247532</ele>
        <time>2026-09-02T06:11:05.262000Z</time>
      </trkpt>
      <trkpt lat="26.824979743997268" lon="100.22468735972377">
        <ele>2338.394553008835</ele>
        <time>2026-09-02T06:11:14.262000Z</time>
      </trkpt>
      <trkpt lat="26.825005904748156" lon="100.22487654085481">
        <ele>2339.459983582623</ele>
        <time>2026-09-02T06:11:23.262000Z</time>
      </trkpt>
      <trkpt lat="26.825013213787905" lon="100.22523688315457">
        <ele>2339.5057854297033</ele>
        <time>2026-09-02T06:11:38.262000Z</time>
      </trkpt>
      <trkpt lat="26.825013325525685" lon="100.22536800654306">
        <ele>2340.5998961790733</ele>
        <time>2026-09-02T06:11:44.262000Z</time>
      </trkpt>
      <trkpt lat="26.82499837020243" lon="100.22541805384263">
        <ele>2340.239793702426</ele>
        <time>2026-09-02T06:11:47.262000Z</time>
      </trkpt>
      <trkpt lat="26.824998557852545" lon="100.22564026100788">
        <ele>2341.5187537415122</ele>
        <time>2026-09-02T06:11:56.262000Z</time>
      </trkpt>
      <trkpt lat="26.825012617154403" lon="100.22571332836107">
        <ele>2340.9503829642426</ele>
        <time>2026-09-02T06:11:59.262000Z</time>
      </trkpt>
      <trkpt lat="26.824995691656706" lon="100.22579940829037">
        <ele>2338.123332832528</ele>
        <time>2026-09-02T06:12:02.262000Z</time>
      </trkpt>
      <trkpt lat="26.82500996284515" lon="100.22612870943078">
        <ele>2340.3418411144385</ele>
        <time>2026-09-02T06:12:17.262000Z</time>
      </trkpt>
      <trkpt lat="26.825004013147748" lon="100.22618876411396">
        <ele>2339.1372861928967</ele>
        <time>2026-09-02T06:12:20.262000Z</time>
      </trkpt>
      <trkpt lat="26.82497706391955" lon="100.22624581647138">
        <ele>2338.504520539775</ele>
        <time>2026-09-02T06:12:23.262000Z</time>
      </trkpt>
      <trkpt lat="26.824990116948797" lon="100.22631287672365">
        <ele>2338.899696013158</ele>
        <time>2026-09-02T06:12:26.262000Z</time>
      </trkpt>
      <trkpt lat="26.82498523844751" lon="100.22646101005142">
        <ele>2340.0214139209775</ele>
        <time>2026-09-02T06:12:32.262000Z</time>
      </trkpt>
      <trkpt lat="26.824911509372217" lon="100.22678329877853">
        <ele>2339.8733599299535</ele>
        <time>2026-09-02T06:12:50.262000Z</time>
      </trkpt>
      <trkpt lat="26.8249285653858" lon="100.22685636282074">
        <ele>2339.530618423966</ele>
        <time>2026-09-02T06:12:53.262000Z</time>
      </trkpt>
      <trkpt lat="26.824923708745782" lon="100.2270355201536">
        <ele>2344.531585717546</ele>
        <time>2026-09-02T06:13:02.262000Z</time>
      </trkpt>
      <trkpt lat="26.824828964609686" lon="100.2273427892562">
        <ele>2342.4283170700364</ele>
        <time>2026-09-02T06:13:17.262000Z</time>
      </trkpt>
      <trkpt lat="26.824776062143755" lon="100.22745788954875">
        <ele>2342.4421856849817</ele>
        <time>2026-09-02T06:13:23.262000Z</time>
      </trkpt>
      <trkpt lat="26.824740306482397" lon="100.22776715377235">
        <ele>2342.068258477704</ele>
        <time>2026-09-02T06:13:38.262000Z</time>
      </trkpt>
      <trkpt lat="26.82471336104629" lon="100.22783321020911">
        <ele>2344.174382473978</ele>
        <time>2026-09-02T06:13:41.262000Z</time>
      </trkpt>
      <trkpt lat="26.82471440069483" lon="100.22788525399157">
        <ele>2343.841753180419</ele>
        <time>2026-09-02T06:13:44.262000Z</time>
      </trkpt>
      <trkpt lat="26.824655691948276" lon="100.2282585665909">
        <ele>2345.945895182127</ele>
        <time>2026-09-02T06:13:59.262000Z</time>
      </trkpt>
      <trkpt lat="26.824634734021185" lon="100.22831061005644">
        <ele>2345.9257124631276</ele>
        <time>2026-09-02T06:14:02.262000Z</time>
      </trkpt>
      <trkpt lat="26.82466679968125" lon="100.22840468659211">
        <ele>2345.7229197455013</ele>
        <time>2026-09-02T06:14:08.262000Z</time>
      </trkpt>
      <trkpt lat="26.824571064598032" lon="100.22874396503687">
        <ele>2345.3105260419466</ele>
        <time>2026-09-02T06:14:32.262000Z</time>
      </trkpt>
      <trkpt lat="26.824499262636053" lon="100.22900117307077">
        <ele>2344.0973290557026</ele>
        <time>2026-09-02T06:14:44.262000Z</time>
      </trkpt>
      <trkpt lat="26.82447130581861" lon="100.2290552167731">
        <ele>2343.8101986510633</ele>
        <time>2026-09-02T06:14:47.262000Z</time>
      </trkpt>
      <trkpt lat="26.824449433655147" lon="100.22922835429294">
        <ele>2342.876122977585</ele>
        <time>2026-09-02T06:14:53.262000Z</time>
      </trkpt>
      <trkpt lat="26.82434965402653" lon="100.22951758295727">
        <ele>2341.244010456151</ele>
        <time>2026-09-02T06:15:05.262000Z</time>
      </trkpt>
      <trkpt lat="26.824258877809505" lon="100.22981781647336">
        <ele>2342.556852528345</ele>
        <time>2026-09-02T06:15:20.262000Z</time>
      </trkpt>
      <trkpt lat="26.824202966498362" lon="100.22993390632571">
        <ele>2341.908185611349</ele>
        <time>2026-09-02T06:15:26.262000Z</time>
      </trkpt>
      <trkpt lat="26.824092218046946" lon="100.23027716747691">
        <ele>2331.274681791819</ele>
        <time>2026-09-02T06:15:41.262000Z</time>
      </trkpt>
      <trkpt lat="26.823941447114507" lon="100.23058439851295">
        <ele>2334.7523527372555</ele>
        <time>2026-09-02T06:15:56.362000Z</time>
      </trkpt>
      <trkpt lat="26.823866663813938" lon="100.23089462600149">
        <ele>2334.4447383925017</ele>
        <time>2026-09-02T06:16:11.362000Z</time>
      </trkpt>
      <trkpt lat="26.823767872130972" lon="100.23119184099654">
        <ele>2340.1543823148304</ele>
        <time>2026-09-02T06:16:26.362000Z</time>
      </trkpt>
      <trkpt lat="26.823633113037133" lon="100.23153708676226">
        <ele>2339.0468058146157</ele>
        <time>2026-09-02T06:16:44.362000Z</time>
      </trkpt>
      <trkpt lat="26.823533320913597" lon="100.23184430089249">
        <ele>2338.9087094691163</ele>
        <time>2026-09-02T06:17:02.362000Z</time>
      </trkpt>
      <trkpt lat="26.823507356471875" lon="100.23189533633051">
        <ele>2339.548088471915</ele>
        <time>2026-09-02T06:17:08.362000Z</time>
      </trkpt>
      <trkpt lat="26.823507356471875" lon="100.23189533633051">
        <ele>2339.548088471915</ele>
        <time>2026-09-02T06:17:10.762000Z</time>
      </trkpt>
    </trkseg>
  </trk>
</gpx>