<?xml version="1.0" encoding="UTF-8"?>
<gpx xmlns="http://www.topografix.com/GPX/1/1" xmlns:gpxtpx="http://www.garmin.com/xmlschemas/TrackPointExtension/v1" xmlns:xsi="http://www.w3.org/2001/XMLSchema-instance" xsi:schemaLocation="http://www.topografix.com/GPX/1/1 http://www.topografix.com/GPX/1/1/gpx.xsd" version="1.1" creator="gpx.py -- https://github.com/tkrajina/gpxpy">
  <trk>
    <name>gpx from keep</name>
    <type>Run</type>
    <trkseg>
      <trkpt lat="26.823611582063535" lon="100.22009256686141">
        <ele>2360.996003413573</ele>
        <time>2026-09-05T12:47:58.187000Z</time>
      </trkpt>
      <trkpt lat="26.823764595825814" lon="100.22012760274534">
        <ele>2349.001302636248</ele>
        <time>2026-09-05T12:48:04.187000Z</time>
      </trkpt>
      <trkpt lat="26.823946559303156" lon="100.22011758678804">
        <ele>2348.8672377971575</ele>
        <time>2026-09-05T12:48:10.287000Z</time>
      </trkpt>
      <trkpt lat="26.824116560304148" lon="100.22014261086561">
        <ele>2350.740429028116</ele>
        <time>2026-09-05T12:48:19.287000Z</time>
      </trkpt>
      <trkpt lat="26.824238527300235" lon="100.22012759075584">
        <ele>2353.799432181068</ele>
        <time>2026-09-05T12:48:25.287000Z</time>
      </trkpt>
      <trkpt lat="26.824565515705615" lon="100.22016262219428">
        <ele>2355.0282676229235</ele>
        <time>2026-09-05T12:48:40.287000Z</time>
      </trkpt>
      <trkpt lat="26.824823547683614" lon="100.2202306926918">
        <ele>2353.0884714035587</ele>
        <time>2026-09-05T12:48:52.287000Z</time>
      </trkpt>
      <trkpt lat="26.824881541293863" lon="100.2202326934876">
        <ele>2353.1605498718404</ele>
        <time>2026-09-05T12:48:55.287000Z</time>
      </trkpt>
      <trkpt lat="26.82497949438659" lon="100.22020065478561">
        <ele>2352.3251467472774</ele>
        <time>2026-09-05T12:49:01.287000Z</time>
      </trkpt>
      <trkpt lat="26.825019435430388" lon="100.2201485948319">
        <ele>2350.8875629944023</ele>
        <time>2026-09-05T12:49:04.287000Z</time>
      </trkpt>
      <trkpt lat="26.825028097990963" lon="100.21982122170463">
        <ele>2350.407586826788</ele>
        <time>2026-09-05T12:49:19.287000Z</time>
      </trkpt>
      <trkpt lat="26.82502474428087" lon="100.2194798288014">
        <ele>2350.3117428162723</ele>
        <time>2026-09-05T12:49:31.287000Z</time>
      </trkpt>
      <trkpt lat="26.825031405464834" lon="100.2191574537017">
        <ele>2350.444530670742</ele>
        <time>2026-09-05T12:49:43.287000Z</time>
      </trkpt>
      <trkpt lat="26.82506134518509" lon="100.21910439087534">
        <ele>2349.100842136933</ele>
        <time>2026-09-05T12:49:46.287000Z</time>
      </trkpt>
      <trkpt lat="26.825105299693877" lon="100.2190673463724">
        <ele>2349.797640736642</ele>
        <time>2026-09-05T12:49:49.287000Z</time>
      </trkpt>
      <trkpt lat="26.82530430768249" lon="100.21910238238222">
        <ele>2349.3672131008366</ele>
        <time>2026-09-05T12:49:58.287000Z</time>
      </trkpt>
      <trkpt lat="26.825612353437336" lon="100.21918847525697">
        <ele>2350.018869329136</ele>
        <time>2026-09-05T12:50:13.287000Z</time>
      </trkpt>
      <trkpt lat="26.825891387354996" lon="100.21925955110774">
        <ele>2349.097864709184</ele>
        <time>2026-09-05T12:50:28.287000Z</time>
      </trkpt>
      <trkpt lat="26.82601939068584" lon="100.21928057235712">
        <ele>2349.111778353372</ele>
        <time>2026-09-05T12:50:34.287000Z</time>
      </trkpt>
      <trkpt lat="26.826093368295044" lon="100.21926955765943">
        <ele>2348.0579477344</ele>
        <time>2026-09-05T12:50:37.287000Z</time>
      </trkpt>
      <trkpt lat="26.826355413837653" lon="100.21934964420527">
        <ele>2348.2691529311232</ele>
        <time>2026-09-05T12:50:49.287000Z</time>
      </trkpt>
      <trkpt lat="26.826618457923246" lon="100.21942872933592">
        <ele>2348.0048128097897</ele>
        <time>2026-09-05T12:51:01.287000Z</time>
      </trkpt>
      <trkpt lat="26.826920478271262" lon="100.21949079357168">
        <ele>2348.6659389802207</ele>
        <time>2026-09-05T12:51:16.287000Z</time>
      </trkpt>
      <trkpt lat="26.827214504802885" lon="100.21955786365122">
        <ele>2348.44010823426</ele>
        <time>2026-09-05T12:51:31.287000Z</time>
      </trkpt>
      <trkpt lat="26.82749853674879" lon="100.21962893843563">
        <ele>2346.638903261801</ele>
        <time>2026-09-05T12:51:46.287000Z</time>
      </trkpt>
      <trkpt lat="26.827791552609266" lon="100.21968599669802">
        <ele>2348.6246714128897</ele>
        <time>2026-09-05T12:52:01.287000Z</time>
      </trkpt>
      <trkpt lat="26.828082571692516" lon="100.21974605834127">
        <ele>2347.8213754421367</ele>
        <time>2026-09-05T12:52:16.287000Z</time>
      </trkpt>
      <trkpt lat="26.82836859752886" lon="100.21981212686183">
        <ele>2348.14855743047</ele>
        <time>2026-09-05T12:52:31.287000Z</time>
      </trkpt>
      <trkpt lat="26.828633631433306" lon="100.21988320147739">
        <ele>2348.4378431078126</ele>
        <time>2026-09-05T12:52:46.287000Z</time>
      </trkpt>
      <trkpt lat="26.8287226614712" lon="100.21992524724487">
        <ele>2348.156213345742</ele>
        <time>2026-09-05T12:52:52.287000Z</time>
      </trkpt>
      <trkpt lat="26.8287647035856" lon="100.21997229984238">
        <ele>2348.447973311834</ele>
        <time>2026-09-05T12:52:58.287000Z</time>
      </trkpt>
      <trkpt lat="26.829054714831752" lon="100.22002535292006">
        <ele>2345.123866943644</ele>
        <time>2026-09-05T12:53:13.287000Z</time>
      </trkpt>
      <trkpt lat="26.82933474380163" lon="100.22009442433685">
        <ele>2346.660929770326</ele>
        <time>2026-09-05T12:53:28.287000Z</time>
      </trkpt>
      <trkpt lat="26.8295958193178" lon="100.22020654478781">
        <ele>2346.546164041114</ele>
        <time>2026-09-05T12:53:43.287000Z</time>
      </trkpt>
      <trkpt lat="26.829854921109185" lon="100.22034469415821">
        <ele>2347.341629325197</ele>
        <time>2026-09-05T12:53:55.387000Z</time>
      </trkpt>
      <trkpt lat="26.830115002846497" lon="100.22046382148017">
        <ele>2345.748079564771</ele>
        <time>2026-09-05T12:54:07.387000Z</time>
      </trkpt>
      <trkpt lat="26.830372102672673" lon="100.22060096849339">
        <ele>2345.0988680293863</ele>
        <time>2026-09-05T12:54:22.387000Z</time>
      </trkpt>
      <trkpt lat="26.8306311914958" lon="100.2207281036395">
        <ele>2343.9515196839807</ele>
        <time>2026-09-05T12:54:34.387000Z</time>
      </trkpt>
      <trkpt lat="26.83084729722014" lon="100.22086625147857">
        <ele>2344.3865444063067</ele>
        <time>2026-09-05T12:54:46.387000Z</time>
      </trkpt>
      <trkpt lat="26.831137376186156" lon="100.22098938019558">
        <ele>2345.811729210053</ele>
        <time>2026-09-05T12:55:01.387000Z</time>
      </trkpt>
      <trkpt lat="26.831397473006334" lon="100.22112652450453">
        <ele>2346.132293612246</ele>
        <time>2026-09-05T12:55:16.387000Z</time>
      </trkpt>
      <trkpt lat="26.831656574244132" lon="100.22126867361862">
        <ele>2346.524058742317</ele>
        <time>2026-09-05T12:55:28.387000Z</time>
      </trkpt>
      <trkpt lat="26.83167259746316" lon="100.22129470163566">
        <ele>2347.5441202475367</ele>
        <time>2026-09-05T12:55:31.387000Z</time>
      </trkpt>
    </trkseg>
  </trk>
</gpx>