<?xml version="1.0" encoding="UTF-8"?>
<gpx xmlns="http://www.topografix.com/GPX/1/1" xmlns:gpxtpx="http://www.garmin.com/xmlschemas/TrackPointExtension/v1" xmlns:xsi="http://www.w3.org/2001/XMLSchema-instance" xsi:schemaLocation="http://www.topografix.com/GPX/1/1 http://www.topografix.com/GPX/1/1/gpx.xsd" version="1.1" creator="gpx.py -- https://github.com/tkrajina/gpxpy">
  <trk>
    <name>gpx from keep</name>
    <type>Run</type>
    <trkseg>
      <trkpt lat="25.59978285477629" lon="100.2574632349948">
        <ele>1945.9393646446988</ele>
        <time>2026-08-27T23:34:21.009000Z</time>
      </trkpt>
      <trkpt lat="25.599742874941757" lon="100.25734928108896">
        <ele>1939.644301241136</ele>
        <time>2026-08-27T23:34:30.009000Z</time>
      </trkpt>
      <trkpt lat="25.59974389306679" lon="100.25729530224794">
        <ele>1938.3730908015714</ele>
        <time>2026-08-27T23:34:33.009000Z</time>
      </trkpt>
      <trkpt lat="25.5997109139722" lon="100.25718634543395">
        <ele>1938.1960745416768</ele>
        <time>2026-08-27T23:34:36.009000Z</time>
      </trkpt>
      <trkpt lat="25.599715935121747" lon="100.25712736804626">
        <ele>1938.1908209494466</ele>
        <time>2026-08-27T23:34:39.009000Z</time>
      </trkpt>
      <trkpt lat="25.59968995904117" lon="100.25701641105023">
        <ele>1938.5020996030964</ele>
        <time>2026-08-27T23:34:45.009000Z</time>
      </trkpt>
      <trkpt lat="25.599586012385565" lon="100.25669753245933">
        <ele>1941.3286226311166</ele>
        <time>2026-08-27T23:35:03.009000Z</time>
      </trkpt>
      <trkpt lat="25.599572022315968" lon="100.25664455213561">
        <ele>1941.2828727663366</ele>
        <time>2026-08-27T23:35:06.009000Z</time>
      </trkpt>
      <trkpt lat="25.599601081689887" lon="100.25648860765914">
        <ele>1940.5989544452068</ele>
        <time>2026-08-27T23:35:15.009000Z</time>
      </trkpt>
      <trkpt lat="25.599559124669728" lon="100.25627868274793">
        <ele>1938.9886704525215</ele>
        <time>2026-08-27T23:35:27.009000Z</time>
      </trkpt>
      <trkpt lat="25.59950611496428" lon="100.2562317003568">
        <ele>1936.2857975490128</ele>
        <time>2026-08-27T23:35:33.009000Z</time>
      </trkpt>
      <trkpt lat="25.599476151398218" lon="100.25605676104007">
        <ele>1934.9836623256163</ele>
        <time>2026-08-27T23:35:42.009000Z</time>
      </trkpt>
      <trkpt lat="25.59934816416828" lon="100.25580684755266">
        <ele>1941.2872710338922</ele>
        <time>2026-08-27T23:35:54.009000Z</time>
      </trkpt>
      <trkpt lat="25.5992702123493" lon="100.25549594951529">
        <ele>1941.3368510947287</ele>
        <time>2026-08-27T23:36:12.009000Z</time>
      </trkpt>
      <trkpt lat="25.59926322551855" lon="100.25543296945827">
        <ele>1941.0070792875056</ele>
        <time>2026-08-27T23:36:15.009000Z</time>
      </trkpt>
      <trkpt lat="25.599282251950683" lon="100.25536199107992">
        <ele>1940.8394239268016</ele>
        <time>2026-08-27T23:36:21.009000Z</time>
      </trkpt>
      <trkpt lat="25.599277263916115" lon="100.25530600846815">
        <ele>1939.7074432538918</ele>
        <time>2026-08-27T23:36:24.009000Z</time>
      </trkpt>
      <trkpt lat="25.599235264303587" lon="100.25523103240475">
        <ele>1939.5133637628303</ele>
        <time>2026-08-27T23:36:27.009000Z</time>
      </trkpt>
      <trkpt lat="25.599146303534415" lon="100.25490913025041">
        <ele>1935.9546442709836</ele>
        <time>2026-08-27T23:36:45.009000Z</time>
      </trkpt>
      <trkpt lat="25.599133335007295" lon="100.25475017619488">
        <ele>1933.6190837111392</ele>
        <time>2026-08-27T23:36:54.109000Z</time>
      </trkpt>
      <trkpt lat="25.59904135435001" lon="100.25448625182233">
        <ele>1929.972137540078</ele>
        <time>2026-08-27T23:37:09.109000Z</time>
      </trkpt>
      <trkpt lat="25.59898437791641" lon="100.25426231316267">
        <ele>1931.1446760697204</ele>
        <time>2026-08-27T23:37:21.109000Z</time>
      </trkpt>
      <trkpt lat="25.59887238770009" lon="100.25397838883733">
        <ele>1933.15067040428</ele>
        <time>2026-08-27T23:37:39.109000Z</time>
      </trkpt>
      <trkpt lat="25.598837388002334" lon="100.2539004091249">
        <ele>1932.9927451850335</ele>
        <time>2026-08-27T23:37:45.109000Z</time>
      </trkpt>
      <trkpt lat="25.598824401014447" lon="100.25380543276646">
        <ele>1931.5039817121624</ele>
        <time>2026-08-27T23:37:51.109000Z</time>
      </trkpt>
      <trkpt lat="25.598690399237935" lon="100.25350550716311">
        <ele>1936.2693035332754</ele>
        <time>2026-08-27T23:38:06.109000Z</time>
      </trkpt>
      <trkpt lat="25.598650408166375" lon="100.25335954137482">
        <ele>1937.3504464116809</ele>
        <time>2026-08-27T23:38:12.109000Z</time>
      </trkpt>
      <trkpt lat="25.598649417820738" lon="100.25330255413103">
        <ele>1939.2570268449267</ele>
        <time>2026-08-27T23:38:15.109000Z</time>
      </trkpt>
      <trkpt lat="25.59860741099914" lon="100.25323656971972">
        <ele>1939.0899386348842</ele>
        <time>2026-08-27T23:38:21.109000Z</time>
      </trkpt>
      <trkpt lat="25.59859441445932" lon="100.25318358160105">
        <ele>1940.189816171853</ele>
        <time>2026-08-27T23:38:24.109000Z</time>
      </trkpt>
      <trkpt lat="25.598592445970908" lon="100.25299062275806">
        <ele>1939.4654508654169</ele>
        <time>2026-08-27T23:38:33.109000Z</time>
      </trkpt>
      <trkpt lat="25.598479425065932" lon="100.25281366180774">
        <ele>1939.5701107607174</ele>
        <time>2026-08-27T23:38:45.109000Z</time>
      </trkpt>
      <trkpt lat="25.598473464013207" lon="100.2525407153421">
        <ele>1937.4039042498293</ele>
        <time>2026-08-27T23:39:00.109000Z</time>
      </trkpt>
      <trkpt lat="25.598336450794054" lon="100.25220977914421">
        <ele>1936.5876309458577</ele>
        <time>2026-08-27T23:39:18.109000Z</time>
      </trkpt>
      <trkpt lat="25.598255452357563" lon="100.25192382961058">
        <ele>1935.5553480681654</ele>
        <time>2026-08-27T23:39:33.109000Z</time>
      </trkpt>
      <trkpt lat="25.598186454705694" lon="100.2516498744845">
        <ele>1935.9666228462413</ele>
        <time>2026-08-27T23:39:48.109000Z</time>
      </trkpt>
      <trkpt lat="25.59809443992348" lon="100.25141691093664">
        <ele>1936.307930844871</ele>
        <time>2026-08-27T23:40:03.109000Z</time>
      </trkpt>
      <trkpt lat="25.59805743872282" lon="100.25126993223422">
        <ele>1935.5194549478165</ele>
        <time>2026-08-27T23:40:15.109000Z</time>
      </trkpt>
      <trkpt lat="25.598012427356906" lon="100.25118494470166">
        <ele>1933.9270723035715</ele>
        <time>2026-08-27T23:40:21.109000Z</time>
      </trkpt>
      <trkpt lat="25.59799442915373" lon="100.25108195851075">
        <ele>1933.7816508105957</ele>
        <time>2026-08-27T23:40:24.109000Z</time>
      </trkpt>
      <trkpt lat="25.597897411363764" lon="100.25079799539358">
        <ele>1933.191043116866</ele>
        <time>2026-08-27T23:40:39.109000Z</time>
      </trkpt>
      <trkpt lat="25.597839402522283" lon="100.25058402054867">
        <ele>1932.915605650145</ele>
        <time>2026-08-27T23:40:51.209000Z</time>
      </trkpt>
      <trkpt lat="25.597818405061272" lon="100.25041603833395">
        <ele>1933.6129803601518</ele>
        <time>2026-08-27T23:41:00.209000Z</time>
      </trkpt>
      <trkpt lat="25.59769936693601" lon="100.25019506211385">
        <ele>1934.052921024106</ele>
        <time>2026-08-27T23:41:15.209000Z</time>
      </trkpt>
      <trkpt lat="25.59762734829044" lon="100.24995708403252">
        <ele>1932.680074506981</ele>
        <time>2026-08-27T23:41:30.209000Z</time>
      </trkpt>
      <trkpt lat="25.597643358968256" lon="100.24987908973023">
        <ele>1932.0738950336565</ele>
        <time>2026-08-27T23:41:36.209000Z</time>
      </trkpt>
      <trkpt lat="25.597667372382418" lon="100.24981309409507">
        <ele>1925.8467792756855</ele>
        <time>2026-08-27T23:42:09.209000Z</time>
      </trkpt>
      <trkpt lat="25.597629360534718" lon="100.24969910312379">
        <ele>1928.8715604105964</ele>
        <time>2026-08-27T23:42:21.209000Z</time>
      </trkpt>
      <trkpt lat="25.597624363501982" lon="100.24955811250582">
        <ele>1931.3875663205981</ele>
        <time>2026-08-27T23:42:33.209000Z</time>
      </trkpt>
      <trkpt lat="25.59753132975194" lon="100.24932812804819">
        <ele>1935.1820347306057</ele>
        <time>2026-08-27T23:42:51.209000Z</time>
      </trkpt>
      <trkpt lat="25.597521327213418" lon="100.24925113223499">
        <ele>1936.2384645447285</ele>
        <time>2026-08-27T23:42:57.209000Z</time>
      </trkpt>
      <trkpt lat="25.597453300728205" lon="100.24908614148474">
        <ele>1934.736713195004</ele>
        <time>2026-08-27T23:43:09.209000Z</time>
      </trkpt>
      <trkpt lat="25.597417285580395" lon="100.2490511438208">
        <ele>1933.02497372468</ele>
        <time>2026-08-27T23:43:15.209000Z</time>
      </trkpt>
      <trkpt lat="25.597353259950815" lon="100.24883715318211">
        <ele>1936.3710324368128</ele>
        <time>2026-08-27T23:43:33.209000Z</time>
      </trkpt>
      <trkpt lat="25.597359262919355" lon="100.24876715516722">
        <ele>1936.9853159752925</ele>
        <time>2026-08-27T23:43:39.209000Z</time>
      </trkpt>
      <trkpt lat="25.597263220672854" lon="100.24848616394527">
        <ele>1937.5569876442391</ele>
        <time>2026-08-27T23:44:00.209000Z</time>
      </trkpt>
      <trkpt lat="25.5972071941774" lon="100.2482881678262">
        <ele>1936.9996440383673</ele>
        <time>2026-08-27T23:44:18.209000Z</time>
      </trkpt>
      <trkpt lat="25.597016105620465" lon="100.2480121731858">
        <ele>1935.6647032555745</ele>
        <time>2026-08-27T23:44:42.209000Z</time>
      </trkpt>
      <trkpt lat="25.59699709487005" lon="100.24791917316033">
        <ele>1935.4927803823223</ele>
        <time>2026-08-27T23:44:48.209000Z</time>
      </trkpt>
      <trkpt lat="25.597020098636023" lon="100.24772517040168">
        <ele>1936.4582499864937</ele>
        <time>2026-08-27T23:45:00.209000Z</time>
      </trkpt>
      <trkpt lat="25.597010091295502" lon="100.24764516926936">
        <ele>1935.2968497089832</ele>
        <time>2026-08-27T23:45:09.209000Z</time>
      </trkpt>
      <trkpt lat="25.59688202863757" lon="100.24747916865023">
        <ele>1936.6150749470057</ele>
        <time>2026-08-27T23:45:27.309000Z</time>
      </trkpt>
      <trkpt lat="25.596796988560772" lon="100.24741216887602">
        <ele>1936.4941907924</ele>
        <time>2026-08-27T23:45:39.309000Z</time>
      </trkpt>
      <trkpt lat="25.596552881782095" lon="100.24739717435547">
        <ele>1929.9636382153244</ele>
        <time>2026-08-27T23:46:09.309000Z</time>
      </trkpt>
      <trkpt lat="25.596529869073535" lon="100.24734217322845">
        <ele>1929.362068010524</ele>
        <time>2026-08-27T23:46:15.309000Z</time>
      </trkpt>
      <trkpt lat="25.596489843369017" lon="100.24718616871846">
        <ele>1931.4305557496277</ele>
        <time>2026-08-27T23:46:48.309000Z</time>
      </trkpt>
      <trkpt lat="25.59650684794883" lon="100.24713716637098">
        <ele>1932.3657568669664</ele>
        <time>2026-08-27T23:46:51.309000Z</time>
      </trkpt>
      <trkpt lat="25.59646581819762" lon="100.24694415874755">
        <ele>1932.4634691121435</ele>
        <time>2026-08-27T23:47:09.309000Z</time>
      </trkpt>
      <trkpt lat="25.5964418047848" lon="100.24689915709207">
        <ele>1936.8169276818198</ele>
        <time>2026-08-27T23:47:12.309000Z</time>
      </trkpt>
      <trkpt lat="25.596433792608583" lon="100.24677415061836">
        <ele>1935.469036138208</ele>
        <time>2026-08-27T23:47:24.309000Z</time>
      </trkpt>
      <trkpt lat="25.596535828697483" lon="100.24666314166628">
        <ele>1932.9211846615328</ele>
        <time>2026-08-27T23:47:39.309000Z</time>
      </trkpt>
      <trkpt lat="25.59660284823296" lon="100.24654113231546">
        <ele>1932.9662733803245</ele>
        <time>2026-08-27T23:47:51.309000Z</time>
      </trkpt>
      <trkpt lat="25.596637846606956" lon="100.24634211750404">
        <ele>1930.5102719499384</ele>
        <time>2026-08-27T23:48:15.309000Z</time>
      </trkpt>
      <trkpt lat="25.596559783486537" lon="100.24603209428525">
        <ele>1929.7412088305728</ele>
        <time>2026-08-27T23:48:45.309000Z</time>
      </trkpt>
      <trkpt lat="25.59654577204186" lon="100.24597908992222">
        <ele>1929.778667529088</ele>
        <time>2026-08-27T23:48:51.309000Z</time>
      </trkpt>
      <trkpt lat="25.59648573630787" lon="100.24588608283659">
        <ele>1930.0179621402417</ele>
        <time>2026-08-27T23:48:57.309000Z</time>
      </trkpt>
      <trkpt lat="25.596470710601853" lon="100.24571006603034">
        <ele>1929.3613965292427</ele>
        <time>2026-08-27T23:49:27.409000Z</time>
      </trkpt>
      <trkpt lat="25.596351616380563" lon="100.24535303004052">
        <ele>1932.4216461809426</ele>
        <time>2026-08-27T23:50:06.709000Z</time>
      </trkpt>
      <trkpt lat="25.59632559874669" lon="100.24530302479347">
        <ele>1932.470852998908</ele>
        <time>2026-08-27T23:50:12.709000Z</time>
      </trkpt>
      <trkpt lat="25.596268543188422" lon="100.24506999738479">
        <ele>1934.8665396945055</ele>
        <time>2026-08-27T23:50:36.709000Z</time>
      </trkpt>
      <trkpt lat="25.59618949447606" lon="100.24496598570455">
        <ele>1935.6435410131382</ele>
        <time>2026-08-27T23:50:51.709000Z</time>
      </trkpt>
      <trkpt lat="25.59615044061786" lon="100.24471195151303">
        <ele>1938.193361180035</ele>
        <time>2026-08-27T23:51:15.709000Z</time>
      </trkpt>
      <trkpt lat="25.59610240133311" lon="100.24459093497445">
        <ele>1938.2371673354378</ele>
        <time>2026-08-27T23:51:27.709000Z</time>
      </trkpt>
      <trkpt lat="25.5960893631645" lon="100.24438590387875">
        <ele>1936.0792708952235</ele>
        <time>2026-08-27T23:51:45.709000Z</time>
      </trkpt>
      <trkpt lat="25.59606234179135" lon="100.24432689516253">
        <ele>1935.3446456983743</ele>
        <time>2026-08-27T23:51:51.709000Z</time>
      </trkpt>
      <trkpt lat="25.59606233150211" lon="100.2442648851559">
        <ele>1936.6561659037432</ele>
        <time>2026-08-27T23:51:57.709000Z</time>
      </trkpt>
      <trkpt lat="25.59598025823852" lon="100.24404485032018">
        <ele>1936.5138039091923</ele>
        <time>2026-08-27T23:52:21.709000Z</time>
      </trkpt>
      <trkpt lat="25.595957224770814" lon="100.24391282779769">
        <ele>1938.2512406559463</ele>
        <time>2026-08-27T23:52:33.709000Z</time>
      </trkpt>
      <trkpt lat="25.59596421709533" lon="100.24385381707279">
        <ele>1937.571890704951</ele>
        <time>2026-08-27T23:52:39.709000Z</time>
      </trkpt>
      <trkpt lat="25.595855111367644" lon="100.243543761831">
        <ele>1938.7409637547755</ele>
        <time>2026-08-27T23:53:09.709000Z</time>
      </trkpt>
      <trkpt lat="25.59580705715817" lon="100.24337472972259">
        <ele>1937.6090229360625</ele>
        <time>2026-08-27T23:53:27.709000Z</time>
      </trkpt>
      <trkpt lat="25.59579301246394" lon="100.24318569141879">
        <ele>1937.6174892407064</ele>
        <time>2026-08-27T23:53:48.709000Z</time>
      </trkpt>
      <trkpt lat="25.595661897934683" lon="100.24291463654649">
        <ele>1937.5486993696768</ele>
        <time>2026-08-27T23:54:18.709000Z</time>
      </trkpt>
      <trkpt lat="25.595617852412495" lon="100.24279461091609">
        <ele>1935.2965316503555</ele>
        <time>2026-08-27T23:54:30.709000Z</time>
      </trkpt>
      <trkpt lat="25.595604817510182" lon="100.24266458162165">
        <ele>1935.029456571338</ele>
        <time>2026-08-27T23:54:42.709000Z</time>
      </trkpt>
      <trkpt lat="25.595555755634816" lon="100.2424885415839">
        <ele>1933.9329969065989</ele>
        <time>2026-08-27T23:55:00.709000Z</time>
      </trkpt>
      <trkpt lat="25.595570749195602" lon="100.24243352806847">
        <ele>1933.984891545253</ele>
        <time>2026-08-27T23:55:06.709000Z</time>
      </trkpt>
      <trkpt lat="25.595453636280105" lon="100.24217546750545">
        <ele>1934.7808180373593</ele>
        <time>2026-08-27T23:55:36.809000Z</time>
      </trkpt>
      <trkpt lat="25.595435606686284" lon="100.24208744567385">
        <ele>1936.4323403030494</ele>
        <time>2026-08-27T23:55:45.809000Z</time>
      </trkpt>
    </trkseg>
  </trk>
</gpx>