<?xml version="1.0" encoding="UTF-8"?>
<gpx xmlns="http://www.topografix.com/GPX/1/1" xmlns:gpxtpx="http://www.garmin.com/xmlschemas/TrackPointExtension/v1" xmlns:xsi="http://www.w3.org/2001/XMLSchema-instance" xsi:schemaLocation="http://www.topografix.com/GPX/1/1 http://www.topografix.com/GPX/1/1/gpx.xsd" version="1.1" creator="gpx.py -- https://github.com/tkrajina/gpxpy">
  <trk>
    <name>gpx from keep</name>
    <type>Run</type>
    <trkseg>
      <trkpt lat="26.823394892846515" lon="100.2203668823775">
        <ele>2344.7000606611323</ele>
        <time>2026-08-11T02:52:42.076000Z</time>
      </trkpt>
      <trkpt lat="26.823352236498955" lon="100.2207012576868">
        <ele>2344.0370387041694</ele>
        <time>2026-08-11T02:52:54.076000Z</time>
      </trkpt>
      <trkpt lat="26.82330355852582" lon="100.22101660812581">
        <ele>2345.0821314292443</ele>
        <time>2026-08-11T02:53:06.176000Z</time>
      </trkpt>
      <trkpt lat="26.823284724967127" lon="100.22118179006914">
        <ele>2343.756325057798</ele>
        <time>2026-08-11T02:53:15.076000Z</time>
      </trkpt>
      <trkpt lat="26.823302821163686" lon="100.22128189910481">
        <ele>2340.2256876796782</ele>
        <time>2026-08-11T02:53:18.076000Z</time>
      </trkpt>
      <trkpt lat="26.823263031358454" lon="100.22149012667798">
        <ele>2336.5625483129097</ele>
        <time>2026-08-11T02:53:27.176000Z</time>
      </trkpt>
      <trkpt lat="26.823224121086273" lon="100.2215762208725">
        <ele>2338.4828974198317</ele>
        <time>2026-08-11T02:53:30.176000Z</time>
      </trkpt>
      <trkpt lat="26.822916223895522" lon="100.22163629352642">
        <ele>2340.4096423289734</ele>
        <time>2026-08-11T02:53:45.176000Z</time>
      </trkpt>
      <trkpt lat="26.822795281199248" lon="100.22167734083483">
        <ele>2340.3030631238425</ele>
        <time>2026-08-11T02:53:51.176000Z</time>
      </trkpt>
      <trkpt lat="26.822646329808773" lon="100.22170537478495">
        <ele>2342.9951366337978</ele>
        <time>2026-08-11T02:53:57.076000Z</time>
      </trkpt>
      <trkpt lat="26.822498410273905" lon="100.22176644418262">
        <ele>2343.2522217885903</ele>
        <time>2026-08-11T02:54:03.176000Z</time>
      </trkpt>
      <trkpt lat="26.822254468469808" lon="100.22179047614485">
        <ele>2344.1401122523534</ele>
        <time>2026-08-11T02:54:15.176000Z</time>
      </trkpt>
      <trkpt lat="26.822147536080625" lon="100.22184453680859">
        <ele>2345.589374425392</ele>
        <time>2026-08-11T02:54:21.176000Z</time>
      </trkpt>
      <trkpt lat="26.822115675847396" lon="100.22198468737828">
        <ele>2345.10818976925</ele>
        <time>2026-08-11T02:54:27.176000Z</time>
      </trkpt>
      <trkpt lat="26.82206972862256" lon="100.22203273972023">
        <ele>2345.4509012396334</ele>
        <time>2026-08-11T02:54:30.176000Z</time>
      </trkpt>
      <trkpt lat="26.821892779842056" lon="100.22205977294482">
        <ele>2345.4608323641714</ele>
        <time>2026-08-11T02:54:39.176000Z</time>
      </trkpt>
      <trkpt lat="26.821719813152775" lon="100.22206878689508">
        <ele>2349.077069501878</ele>
        <time>2026-08-11T02:54:45.176000Z</time>
      </trkpt>
      <trkpt lat="26.821564906224953" lon="100.22214286944728">
        <ele>2350.0122564934227</ele>
        <time>2026-08-11T02:54:54.176000Z</time>
      </trkpt>
      <trkpt lat="26.821364930842027" lon="100.22213887025697">
        <ele>2350.6566609252695</ele>
        <time>2026-08-11T02:55:06.176000Z</time>
      </trkpt>
      <trkpt lat="26.82132196473247" lon="100.22216790210875">
        <ele>2349.3463003344227</ele>
        <time>2026-08-11T02:55:09.176000Z</time>
      </trkpt>
      <trkpt lat="26.82117625889546" lon="100.22245520857818">
        <ele>2347.623227638569</ele>
        <time>2026-08-11T02:55:24.176000Z</time>
      </trkpt>
      <trkpt lat="26.82113830975548" lon="100.22250325987795">
        <ele>2347.3437083500994</ele>
        <time>2026-08-11T02:55:27.176000Z</time>
      </trkpt>
      <trkpt lat="26.820884443086374" lon="100.22260637402648">
        <ele>2348.858867153566</ele>
        <time>2026-08-11T02:55:42.176000Z</time>
      </trkpt>
      <trkpt lat="26.820620633741065" lon="100.222769550372">
        <ele>2349.6881571400004</ele>
        <time>2026-08-11T02:55:57.176000Z</time>
      </trkpt>
      <trkpt lat="26.82038086384455" lon="100.22297977356844">
        <ele>2351.6385850085617</ele>
        <time>2026-08-11T02:56:15.176000Z</time>
      </trkpt>
      <trkpt lat="26.8201700920407" lon="100.22319399846494">
        <ele>2353.862530824167</ele>
        <time>2026-08-11T02:56:30.176000Z</time>
      </trkpt>
      <trkpt lat="26.820100191347137" lon="100.22329109918894">
        <ele>2353.8820377323086</ele>
        <time>2026-08-11T02:56:36.176000Z</time>
      </trkpt>
      <trkpt lat="26.819945497826346" lon="100.22360241798354">
        <ele>2355.722602686759</ele>
        <time>2026-08-11T02:56:51.176000Z</time>
      </trkpt>
      <trkpt lat="26.819928568381098" lon="100.22367749380199">
        <ele>2356.742801089488</ele>
        <time>2026-08-11T02:56:54.176000Z</time>
      </trkpt>
      <trkpt lat="26.819935632652754" lon="100.22374956579851">
        <ele>2358.030740982964</ele>
        <time>2026-08-11T02:56:57.176000Z</time>
      </trkpt>
      <trkpt lat="26.819913958548835" lon="100.22410892328828">
        <ele>2358.162027545487</ele>
        <time>2026-08-11T02:57:15.176000Z</time>
      </trkpt>
      <trkpt lat="26.8199322312806" lon="100.2244192271118">
        <ele>2358.138829030262</ele>
        <time>2026-08-11T02:57:30.176000Z</time>
      </trkpt>
      <trkpt lat="26.82003251189845" lon="100.22475555024877">
        <ele>2357.688527643366</ele>
        <time>2026-08-11T02:57:48.176000Z</time>
      </trkpt>
      <trkpt lat="26.820149741531974" lon="100.22503981919081">
        <ele>2356.609638329488</ele>
        <time>2026-08-11T02:58:03.176000Z</time>
      </trkpt>
      <trkpt lat="26.820197836224157" lon="100.22515793004087">
        <ele>2355.9366793517083</ele>
        <time>2026-08-11T02:58:09.176000Z</time>
      </trkpt>
      <trkpt lat="26.820293076106775" lon="100.22545520732925">
        <ele>2353.4007565638667</ele>
        <time>2026-08-11T02:58:24.176000Z</time>
      </trkpt>
      <trkpt lat="26.820419307768166" lon="100.22575147951396">
        <ele>2353.867599796975</ele>
        <time>2026-08-11T02:58:39.176000Z</time>
      </trkpt>
      <trkpt lat="26.820623486461944" lon="100.22600070338618">
        <ele>2352.072584220096</ele>
        <time>2026-08-11T02:58:54.176000Z</time>
      </trkpt>
      <trkpt lat="26.82082868254616" lon="100.22627394654951">
        <ele>2353.0613473882445</ele>
        <time>2026-08-11T02:59:09.176000Z</time>
      </trkpt>
      <trkpt lat="26.820919798766933" lon="100.22643208665833">
        <ele>2352.369220594276</ele>
        <time>2026-08-11T02:59:18.176000Z</time>
      </trkpt>
      <trkpt lat="26.820929890788328" lon="100.22654718944564">
        <ele>2351.881955306981</ele>
        <time>2026-08-11T02:59:24.176000Z</time>
      </trkpt>
      <trkpt lat="26.820884040235956" lon="100.22672434819236">
        <ele>2358.0066530320396</ele>
        <time>2026-08-11T02:59:33.176000Z</time>
      </trkpt>
      <trkpt lat="26.820890129269397" lon="100.22683644712538">
        <ele>2358.768761708891</ele>
        <time>2026-08-11T02:59:39.176000Z</time>
      </trkpt>
      <trkpt lat="26.82078628199349" lon="100.227009601838">
        <ele>2360.8889413889524</ele>
        <time>2026-08-11T02:59:51.176000Z</time>
      </trkpt>
      <trkpt lat="26.820569515790673" lon="100.22726683108793">
        <ele>2363.766372988145</ele>
        <time>2026-08-11T03:00:09.176000Z</time>
      </trkpt>
      <trkpt lat="26.820454742948836" lon="100.22753706629516">
        <ele>2365.9243712085763</ele>
        <time>2026-08-11T03:00:24.176000Z</time>
      </trkpt>
      <trkpt lat="26.820403937806276" lon="100.22778027420904">
        <ele>2366.437476084885</ele>
        <time>2026-08-11T03:00:36.176000Z</time>
      </trkpt>
      <trkpt lat="26.820431084615887" lon="100.22797743933472">
        <ele>2366.6192754598087</ele>
        <time>2026-08-11T03:00:45.176000Z</time>
      </trkpt>
      <trkpt lat="26.8205902964268" lon="100.22828769313861">
        <ele>2367.394103129318</ele>
        <time>2026-08-11T03:01:03.176000Z</time>
      </trkpt>
      <trkpt lat="26.820721475512798" lon="100.22855290721331">
        <ele>2365.8684022810135</ele>
        <time>2026-08-11T03:01:18.176000Z</time>
      </trkpt>
      <trkpt lat="26.820942639372973" lon="100.22881811623581">
        <ele>2364.482488451948</ele>
        <time>2026-08-11T03:01:36.176000Z</time>
      </trkpt>
      <trkpt lat="26.82114068210863" lon="100.22891518909519">
        <ele>2363.1033813977674</ele>
        <time>2026-08-11T03:01:48.176000Z</time>
      </trkpt>
      <trkpt lat="26.82131068561887" lon="100.22895321520446">
        <ele>2361.7286027029045</ele>
        <time>2026-08-11T03:01:57.176000Z</time>
      </trkpt>
      <trkpt lat="26.82138674156237" lon="100.22904528664407">
        <ele>2361.1467664742213</ele>
        <time>2026-08-11T03:02:03.176000Z</time>
      </trkpt>
      <trkpt lat="26.821492955620784" lon="100.22936453571752">
        <ele>2358.5211143573665</ele>
        <time>2026-08-11T03:02:18.176000Z</time>
      </trkpt>
      <trkpt lat="26.821627154383627" lon="100.2296727715531">
        <ele>2357.2400870776382</ele>
        <time>2026-08-11T03:02:33.176000Z</time>
      </trkpt>
      <trkpt lat="26.821829307576177" lon="100.22993396620183">
        <ele>2355.6317466371215</ele>
        <time>2026-08-11T03:02:48.176000Z</time>
      </trkpt>
      <trkpt lat="26.82204044746776" lon="100.23018114739635">
        <ele>2354.1965735252193</ele>
        <time>2026-08-11T03:03:03.176000Z</time>
      </trkpt>
      <trkpt lat="26.822233601901218" lon="100.23044934213263">
        <ele>2350.961159352935</ele>
        <time>2026-08-11T03:03:18.176000Z</time>
      </trkpt>
      <trkpt lat="26.822416749197938" lon="100.23070852767333">
        <ele>2349.6906383390606</ele>
        <time>2026-08-11T03:03:33.176000Z</time>
      </trkpt>
      <trkpt lat="26.822559900465837" lon="100.23096871223804">
        <ele>2349.4952045176465</ele>
        <time>2026-08-11T03:03:48.176000Z</time>
      </trkpt>
      <trkpt lat="26.82263909463847" lon="100.23128493527042">
        <ele>2349.911406651988</ele>
        <time>2026-08-11T03:04:03.176000Z</time>
      </trkpt>
      <trkpt lat="26.82274829676025" lon="100.23162617081515">
        <ele>2349.325063602711</ele>
        <time>2026-08-11T03:04:18.276000Z</time>
      </trkpt>
      <trkpt lat="26.822830477474874" lon="100.23193337924609">
        <ele>2348.075824407786</ele>
        <time>2026-08-11T03:04:33.176000Z</time>
      </trkpt>
      <trkpt lat="26.82284151559654" lon="100.23199742236872">
        <ele>2347.7558017823035</ele>
        <time>2026-08-11T03:04:36.176000Z</time>
      </trkpt>
      <trkpt lat="26.822862586009414" lon="100.23211650209312">
        <ele>2347.086108798836</ele>
        <time>2026-08-11T03:04:42.176000Z</time>
      </trkpt>
      <trkpt lat="26.822903601623135" lon="100.23215152455388">
        <ele>2347.3681611080337</ele>
        <time>2026-08-11T03:04:45.276000Z</time>
      </trkpt>
      <trkpt lat="26.823206559306414" lon="100.2321535182563">
        <ele>2348.531492560588</ele>
        <time>2026-08-11T03:05:00.176000Z</time>
      </trkpt>
      <trkpt lat="26.8233675459476" lon="100.23216952491987">
        <ele>2348.3904276001613</ele>
        <time>2026-08-11T03:05:09.176000Z</time>
      </trkpt>
      <trkpt lat="26.82350165700124" lon="100.2323836639513">
        <ele>2347.8505002989737</ele>
        <time>2026-08-11T03:05:21.176000Z</time>
      </trkpt>
      <trkpt lat="26.823479862705067" lon="100.23272188562731">
        <ele>2346.966433696966</ele>
        <time>2026-08-11T03:05:36.176000Z</time>
      </trkpt>
      <trkpt lat="26.823483042660396" lon="100.23302908234588">
        <ele>2347.8508250799737</ele>
        <time>2026-08-11T03:05:51.276000Z</time>
      </trkpt>
      <trkpt lat="26.82349824199732" lon="100.23337930161632">
        <ele>2354.3100669902256</ele>
        <time>2026-08-11T03:06:06.276000Z</time>
      </trkpt>
      <trkpt lat="26.823505443615502" lon="100.23373952211777">
        <ele>2353.516200515244</ele>
        <time>2026-08-11T03:06:21.276000Z</time>
      </trkpt>
      <trkpt lat="26.82352162672797" lon="100.23407672346185">
        <ele>2351.237981024879</ele>
        <time>2026-08-11T03:06:36.276000Z</time>
      </trkpt>
      <trkpt lat="26.823508694708494" lon="100.23419879567179">
        <ele>2351.2549319173445</ele>
        <time>2026-08-11T03:06:42.276000Z</time>
      </trkpt>
      <trkpt lat="26.82355471501429" lon="100.23424882379513">
        <ele>2351.7730496426266</ele>
        <time>2026-08-11T03:06:45.276000Z</time>
      </trkpt>
      <trkpt lat="26.823853694424198" lon="100.23429084077773">
        <ele>2350.117532047725</ele>
        <time>2026-08-11T03:07:00.276000Z</time>
      </trkpt>
      <trkpt lat="26.824196650189368" lon="100.23430083796057">
        <ele>2352.2593070813086</ele>
        <time>2026-08-11T03:07:15.276000Z</time>
      </trkpt>
      <trkpt lat="26.82431163032085" lon="100.23429483156683">
        <ele>2350.6715737829295</ele>
        <time>2026-08-11T03:07:30.276000Z</time>
      </trkpt>
      <trkpt lat="26.824366631997123" lon="100.23431284066312">
        <ele>2350.5195122158116</ele>
        <time>2026-08-11T03:07:33.276000Z</time>
      </trkpt>
      <trkpt lat="26.824668604242596" lon="100.2343428504932">
        <ele>2349.9159659165102</ele>
        <time>2026-08-11T03:07:51.276000Z</time>
      </trkpt>
      <trkpt lat="26.825019544138755" lon="100.23432583176881">
        <ele>2353.131938216083</ele>
        <time>2026-08-11T03:08:06.276000Z</time>
      </trkpt>
      <trkpt lat="26.82518252682809" lon="100.23433783463533">
        <ele>2354.0243749314627</ele>
        <time>2026-08-11T03:08:15.276000Z</time>
      </trkpt>
      <trkpt lat="26.825234512835753" lon="100.23432582635043">
        <ele>2353.363985647967</ele>
        <time>2026-08-11T03:08:18.276000Z</time>
      </trkpt>
      <trkpt lat="26.82528447982739" lon="100.23427779713323">
        <ele>2352.710521424604</ele>
        <time>2026-08-11T03:08:21.276000Z</time>
      </trkpt>
      <trkpt lat="26.825305444495463" lon="100.23421776152385">
        <ele>2352.4597938278444</ele>
        <time>2026-08-11T03:08:24.276000Z</time>
      </trkpt>
      <trkpt lat="26.825273252229298" lon="100.23385654813133">
        <ele>2351.3614547930883</ele>
        <time>2026-08-11T03:08:39.276000Z</time>
      </trkpt>
      <trkpt lat="26.82523807937069" lon="100.23353735526922">
        <ele>2350.137058802206</ele>
        <time>2026-08-11T03:08:51.276000Z</time>
      </trkpt>
      <trkpt lat="26.82522889155354" lon="100.23320514941582">
        <ele>2349.7985029545193</ele>
        <time>2026-08-11T03:09:06.276000Z</time>
      </trkpt>
      <trkpt lat="26.82520883845662" lon="100.23310808885617">
        <ele>2349.576190497112</ele>
        <time>2026-08-11T03:09:09.276000Z</time>
      </trkpt>
      <trkpt lat="26.82522680043711" lon="100.23304704980399">
        <ele>2349.796810798043</ele>
        <time>2026-08-11T03:09:12.276000Z</time>
      </trkpt>
      <trkpt lat="26.825361687277105" lon="100.23288694443497">
        <ele>2351.6721513880425</ele>
        <time>2026-08-11T03:09:21.276000Z</time>
      </trkpt>
      <trkpt lat="26.82538965084543" lon="100.2328319084363">
        <ele>2351.2349993817843</ele>
        <time>2026-08-11T03:09:24.276000Z</time>
      </trkpt>
      <trkpt lat="26.82537444221381" lon="100.23247767869745">
        <ele>2346.0497155923117</ele>
        <time>2026-08-11T03:09:39.276000Z</time>
      </trkpt>
      <trkpt lat="26.82535532753607" lon="100.23228355089701">
        <ele>2347.2779366017303</ele>
        <time>2026-08-11T03:09:48.376000Z</time>
      </trkpt>
      <trkpt lat="26.82536828782016" lon="100.23222150924919">
        <ele>2347.4230850104686</ele>
        <time>2026-08-11T03:09:51.276000Z</time>
      </trkpt>
      <trkpt lat="26.82533611437174" lon="100.23193231538576">
        <ele>2348.834754352969</ele>
        <time>2026-08-11T03:10:03.276000Z</time>
      </trkpt>
      <trkpt lat="26.825375025082796" lon="100.23179822298736">
        <ele>2351.825389556673</ele>
        <time>2026-08-11T03:10:09.376000Z</time>
      </trkpt>
      <trkpt lat="26.825413809489227" lon="100.23146599237185">
        <ele>2351.2789868544564</ele>
        <time>2026-08-11T03:10:27.376000Z</time>
      </trkpt>
      <trkpt lat="26.825439635970376" lon="100.23120180592822">
        <ele>2352.284339834202</ele>
        <time>2026-08-11T03:10:39.376000Z</time>
      </trkpt>
      <trkpt lat="26.82551240174905" lon="100.23085955921634">
        <ele>2352.134329687918</ele>
        <time>2026-08-11T03:10:57.376000Z</time>
      </trkpt>
      <trkpt lat="26.825525367478544" lon="100.23081052341782">
        <ele>2352.1533264212007</ele>
        <time>2026-08-11T03:11:00.376000Z</time>
      </trkpt>
      <trkpt lat="26.825499296290943" lon="100.23069744190467">
        <ele>2354.5476396768167</ele>
        <time>2026-08-11T03:11:03.376000Z</time>
      </trkpt>
      <trkpt lat="26.825557112227266" lon="100.23043524794738">
        <ele>2353.594106355757</ele>
        <time>2026-08-11T03:11:15.376000Z</time>
      </trkpt>
      <trkpt lat="26.825661868135587" lon="100.23009899439569">
        <ele>2355.396571307074</ele>
        <time>2026-08-11T03:11:30.376000Z</time>
      </trkpt>
      <trkpt lat="26.825743649923826" lon="100.22980076600953">
        <ele>2354.1258248313256</ele>
        <time>2026-08-11T03:11:45.376000Z</time>
      </trkpt>
      <trkpt lat="26.825809514891475" lon="100.22962162669273">
        <ele>2353.603473799486</ele>
        <time>2026-08-11T03:11:54.376000Z</time>
      </trkpt>
      <trkpt lat="26.825885435359048" lon="100.22952454964688">
        <ele>2353.3283871502804</ele>
        <time>2026-08-11T03:12:00.376000Z</time>
      </trkpt>
      <trkpt lat="26.825937414311017" lon="100.22950553357515">
        <ele>2352.7212189571314</ele>
        <time>2026-08-11T03:12:03.376000Z</time>
      </trkpt>
      <trkpt lat="26.826257370270646" lon="100.22950952861125">
        <ele>2349.1312466517466</ele>
        <time>2026-08-11T03:12:18.376000Z</time>
      </trkpt>
      <trkpt lat="26.826367357674823" lon="100.22951452972113">
        <ele>2348.6387699547245</ele>
        <time>2026-08-11T03:12:24.376000Z</time>
      </trkpt>
      <trkpt lat="26.826480377121683" lon="100.22956556643858">
        <ele>2347.361308701376</ele>
        <time>2026-08-11T03:12:30.376000Z</time>
      </trkpt>
      <trkpt lat="26.826684302629303" lon="100.229502512399">
        <ele>2346.6930402885955</ele>
        <time>2026-08-11T03:12:42.376000Z</time>
      </trkpt>
      <trkpt lat="26.826758219367825" lon="100.22940043103544">
        <ele>2346.8623740089292</ele>
        <time>2026-08-11T03:12:48.376000Z</time>
      </trkpt>
      <trkpt lat="26.826783168661013" lon="100.22933437874445">
        <ele>2347.1019572698765</ele>
        <time>2026-08-11T03:12:51.376000Z</time>
      </trkpt>
      <trkpt lat="26.826835971936287" lon="100.2290711698245">
        <ele>2345.962146267743</ele>
        <time>2026-08-11T03:13:03.376000Z</time>
      </trkpt>
      <trkpt lat="26.82699277503173" lon="100.22883197483603">
        <ele>2345.51894542589</ele>
        <time>2026-08-11T03:13:18.376000Z</time>
      </trkpt>
      <trkpt lat="26.827031544595997" lon="100.22852672677816">
        <ele>2347.040828899084</ele>
        <time>2026-08-11T03:13:33.376000Z</time>
      </trkpt>
      <trkpt lat="26.826969335568155" lon="100.22823448834707">
        <ele>2347.777592942638</ele>
        <time>2026-08-11T03:13:48.376000Z</time>
      </trkpt>
      <trkpt lat="26.826948061783018" lon="100.22786918414582">
        <ele>2346.469253903037</ele>
        <time>2026-08-11T03:14:09.476000Z</time>
      </trkpt>
      <trkpt lat="26.826930962245118" lon="100.2277360722305">
        <ele>2344.7760641511513</ele>
        <time>2026-08-11T03:14:15.476000Z</time>
      </trkpt>
      <trkpt lat="26.826920833946375" lon="100.2275679295796">
        <ele>2344.8621001434994</ele>
        <time>2026-08-11T03:14:24.476000Z</time>
      </trkpt>
      <trkpt lat="26.826887694770182" lon="100.22738277176616">
        <ele>2346.6806472462663</ele>
        <time>2026-08-11T03:14:33.476000Z</time>
      </trkpt>
      <trkpt lat="26.826921429109177" lon="100.2270514837118">
        <ele>2346.3735333633103</ele>
        <time>2026-08-11T03:14:51.476000Z</time>
      </trkpt>
      <trkpt lat="26.826981136520214" lon="100.22669616941614">
        <ele>2347.5502269568387</ele>
        <time>2026-08-11T03:15:09.476000Z</time>
      </trkpt>
      <trkpt lat="26.827005894561864" lon="100.22640190603042">
        <ele>2348.435664619301</ele>
        <time>2026-08-11T03:15:21.476000Z</time>
      </trkpt>
      <trkpt lat="26.82704377609798" lon="100.22626378057811">
        <ele>2347.9315854115393</ele>
        <time>2026-08-11T03:15:27.476000Z</time>
      </trkpt>
      <trkpt lat="26.82719549611691" lon="100.22595149255446">
        <ele>2347.7034002649802</ele>
        <time>2026-08-11T03:15:42.476000Z</time>
      </trkpt>
      <trkpt lat="26.827339211449107" lon="100.22563619817794">
        <ele>2346.496319564143</ele>
        <time>2026-08-11T03:15:57.476000Z</time>
      </trkpt>
      <trkpt lat="26.82752991473842" lon="100.22531889690306">
        <ele>2344.378661911621</ele>
        <time>2026-08-11T03:16:15.476000Z</time>
      </trkpt>
      <trkpt lat="26.82764768055502" lon="100.22506565454881">
        <ele>2345.0087373387955</ele>
        <time>2026-08-11T03:16:27.476000Z</time>
      </trkpt>
      <trkpt lat="26.827666508346457" lon="100.22486946693652">
        <ele>2347.271968941809</ele>
        <time>2026-08-11T03:16:36.476000Z</time>
      </trkpt>
      <trkpt lat="26.827572320930184" lon="100.22463824687408">
        <ele>2347.201577546378</ele>
        <time>2026-08-11T03:16:48.476000Z</time>
      </trkpt>
      <trkpt lat="26.827569209928857" lon="100.2245111237892">
        <ele>2346.834837119245</ele>
        <time>2026-08-11T03:16:54.476000Z</time>
      </trkpt>
      <trkpt lat="26.827588137522945" lon="100.22443204638704">
        <ele>2347.177306254281</ele>
        <time>2026-08-11T03:16:57.476000Z</time>
      </trkpt>
      <trkpt lat="26.827661025928478" lon="100.22431793312197">
        <ele>2346.113785550763</ele>
        <time>2026-08-11T03:17:03.476000Z</time>
      </trkpt>
      <trkpt lat="26.82771298542741" lon="100.22428089553897">
        <ele>2346.248014241719</ele>
        <time>2026-08-11T03:17:06.476000Z</time>
      </trkpt>
      <trkpt lat="26.827894908744017" lon="100.22422483594782">
        <ele>2345.748947496868</ele>
        <time>2026-08-11T03:17:15.476000Z</time>
      </trkpt>
      <trkpt lat="26.82818480967036" lon="100.22416176661126">
        <ele>2344.0966977606963</ele>
        <time>2026-08-11T03:17:30.476000Z</time>
      </trkpt>
      <trkpt lat="26.82833050555949" lon="100.22384645061085">
        <ele>2345.2491304922005</ele>
        <time>2026-08-11T03:17:48.576000Z</time>
      </trkpt>
      <trkpt lat="26.828450238449186" lon="100.223571171852">
        <ele>2346.3168786490783</ele>
        <time>2026-08-11T03:18:03.576000Z</time>
      </trkpt>
      <trkpt lat="26.828561948823673" lon="100.22327286700978">
        <ele>2346.0926142543467</ele>
        <time>2026-08-11T03:18:18.576000Z</time>
      </trkpt>
      <trkpt lat="26.82868967060918" lon="100.22299257695862">
        <ele>2348.276109368201</ele>
        <time>2026-08-11T03:18:33.576000Z</time>
      </trkpt>
      <trkpt lat="26.82881537974759" lon="100.22270127257192">
        <ele>2348.949167054361</ele>
        <time>2026-08-11T03:18:48.576000Z</time>
      </trkpt>
      <trkpt lat="26.8289181710383" lon="100.22249605587888">
        <ele>2348.8909595457662</ele>
        <time>2026-08-11T03:19:00.576000Z</time>
      </trkpt>
      <trkpt lat="26.828930113342054" lon="100.22243699366871">
        <ele>2348.7505184678057</ele>
        <time>2026-08-11T03:19:03.576000Z</time>
      </trkpt>
      <trkpt lat="26.828915828422705" lon="100.22213567617415">
        <ele>2349.040429455826</ele>
        <time>2026-08-11T03:19:18.576000Z</time>
      </trkpt>
      <trkpt lat="26.829008596151592" lon="100.22190843188874">
        <ele>2349.309197521837</ele>
        <time>2026-08-11T03:19:30.576000Z</time>
      </trkpt>
      <trkpt lat="26.82913731006374" lon="100.22163313297675">
        <ele>2348.4956175118664</ele>
        <time>2026-08-11T03:19:45.576000Z</time>
      </trkpt>
      <trkpt lat="26.82925398489805" lon="100.22131878902296">
        <ele>2347.5299428969097</ele>
        <time>2026-08-11T03:20:00.576000Z</time>
      </trkpt>
      <trkpt lat="26.829345764575645" lon="100.2211095577155">
        <ele>2346.2748865250173</ele>
        <time>2026-08-11T03:20:12.576000Z</time>
      </trkpt>
      <trkpt lat="26.829453452441452" lon="100.22081222683212">
        <ele>2345.249123547491</ele>
        <time>2026-08-11T03:20:27.576000Z</time>
      </trkpt>
      <trkpt lat="26.82966613185005" lon="100.22052490127527">
        <ele>2348.0936598614508</ele>
        <time>2026-08-11T03:20:45.576000Z</time>
      </trkpt>
      <trkpt lat="26.829699066213724" lon="100.2204648331263">
        <ele>2348.1914371309167</ele>
        <time>2026-08-11T03:20:48.576000Z</time>
      </trkpt>
      <trkpt lat="26.82967490840193" lon="100.2203056547168">
        <ele>2348.5820213104757</ele>
        <time>2026-08-11T03:20:57.576000Z</time>
      </trkpt>
      <trkpt lat="26.82964085848973" lon="100.22025159456969">
        <ele>2349.3221510691606</ele>
        <time>2026-08-11T03:21:00.576000Z</time>
      </trkpt>
      <trkpt lat="26.82937077835152" lon="100.22013346771968">
        <ele>2348.3037902812057</ele>
        <time>2026-08-11T03:21:15.576000Z</time>
      </trkpt>
      <trkpt lat="26.829089730137806" lon="100.22004537480609">
        <ele>2348.596488014919</ele>
        <time>2026-08-11T03:21:30.576000Z</time>
      </trkpt>
      <trkpt lat="26.828925732008656" lon="100.2200233539057">
        <ele>2350.302308788379</ele>
        <time>2026-08-11T03:21:39.576000Z</time>
      </trkpt>
      <trkpt lat="26.82865664965899" lon="100.21990422491305">
        <ele>2348.365286506211</ele>
        <time>2026-08-11T03:21:54.576000Z</time>
      </trkpt>
      <trkpt lat="26.828352623665126" lon="100.2198351536297">
        <ele>2349.007086997412</ele>
        <time>2026-08-11T03:22:09.576000Z</time>
      </trkpt>
      <trkpt lat="26.8280535935908" lon="100.21976307860307">
        <ele>2348.519476425504</ele>
        <time>2026-08-11T03:22:24.576000Z</time>
      </trkpt>
      <trkpt lat="26.827763572310598" lon="100.21970101467008">
        <ele>2347.108932856563</ele>
        <time>2026-08-11T03:22:39.576000Z</time>
      </trkpt>
      <trkpt lat="26.827476541037917" lon="100.2196299401455">
        <ele>2346.983875780932</ele>
        <time>2026-08-11T03:22:54.576000Z</time>
      </trkpt>
      <trkpt lat="26.827192515336815" lon="100.21956487229747">
        <ele>2345.750899231726</ele>
        <time>2026-08-11T03:23:09.576000Z</time>
      </trkpt>
      <trkpt lat="26.826881481924566" lon="100.21948879224199">
        <ele>2345.7894354952277</ele>
        <time>2026-08-11T03:23:27.676000Z</time>
      </trkpt>
      <trkpt lat="26.826578459617547" lon="100.21942472570605">
        <ele>2345.10880037328</ele>
        <time>2026-08-11T03:23:45.676000Z</time>
      </trkpt>
      <trkpt lat="26.8262664300347" lon="100.21935264994686">
        <ele>2344.9170691564427</ele>
        <time>2026-08-11T03:24:03.676000Z</time>
      </trkpt>
      <trkpt lat="26.82597440252379" lon="100.21928557932397">
        <ele>2344.2045560606343</ele>
        <time>2026-08-11T03:24:18.676000Z</time>
      </trkpt>
      <trkpt lat="26.82565737844592" lon="100.21921850917295">
        <ele>2343.020412012204</ele>
        <time>2026-08-11T03:24:36.676000Z</time>
      </trkpt>
      <trkpt lat="26.825383351028588" lon="100.21915444128409">
        <ele>2343.166046103891</ele>
        <time>2026-08-11T03:24:51.676000Z</time>
      </trkpt>
      <trkpt lat="26.825109317075814" lon="100.21908436621301">
        <ele>2344.1733906811587</ele>
        <time>2026-08-11T03:25:06.676000Z</time>
      </trkpt>
      <trkpt lat="26.825059353921713" lon="100.21911240030104">
        <ele>2344.1663712515056</ele>
        <time>2026-08-11T03:25:09.676000Z</time>
      </trkpt>
      <trkpt lat="26.825008487783577" lon="100.21923254194269">
        <ele>2342.6368179049387</ele>
        <time>2026-08-11T03:25:15.676000Z</time>
      </trkpt>
      <trkpt lat="26.825023834090114" lon="100.21956592833092">
        <ele>2345.7927118576154</ele>
        <time>2026-08-11T03:25:30.676000Z</time>
      </trkpt>
      <trkpt lat="26.825010900477245" lon="100.21962800023023">
        <ele>2346.450171366734</ele>
        <time>2026-08-11T03:25:33.676000Z</time>
      </trkpt>
      <trkpt lat="26.824944013990876" lon="100.21972811706944">
        <ele>2346.4431202677697</ele>
        <time>2026-08-11T03:25:39.676000Z</time>
      </trkpt>
      <trkpt lat="26.82489235352264" lon="100.22005048669496">
        <ele>2345.629302436927</ele>
        <time>2026-08-11T03:25:54.676000Z</time>
      </trkpt>
      <trkpt lat="26.82484453851074" lon="100.22022468537118">
        <ele>2348.2096249332794</ele>
        <time>2026-08-11T03:26:03.676000Z</time>
      </trkpt>
      <trkpt lat="26.824677599477976" lon="100.22026073031226">
        <ele>2350.8437830048447</ele>
        <time>2026-08-11T03:26:12.676000Z</time>
      </trkpt>
      <trkpt lat="26.82437357215508" lon="100.22019065878658">
        <ele>2351.535882575436</ele>
        <time>2026-08-11T03:26:27.676000Z</time>
      </trkpt>
      <trkpt lat="26.82409661225947" lon="100.22019066579298">
        <ele>2354.300695101583</ele>
        <time>2026-08-11T03:26:42.676000Z</time>
      </trkpt>
      <trkpt lat="26.823815634482038" lon="100.2201726525023">
        <ele>2353.8430188117213</ele>
        <time>2026-08-11T03:26:57.676000Z</time>
      </trkpt>
      <trkpt lat="26.823493670710523" lon="100.22016264930944">
        <ele>2350.9566264904647</ele>
        <time>2026-08-11T03:27:15.676000Z</time>
      </trkpt>
      <trkpt lat="26.823439684623878" lon="100.22016865747817">
        <ele>2350.8214368026615</ele>
        <time>2026-08-11T03:27:18.676000Z</time>
      </trkpt>
      <trkpt lat="26.823388724659228" lon="100.22020069502803">
        <ele>2350.3137122409858</ele>
        <time>2026-08-11T03:27:21.676000Z</time>
      </trkpt>
      <trkpt lat="26.823326063875836" lon="100.22052606277722">
        <ele>2352.3931535104357</ele>
        <time>2026-08-11T03:27:36.676000Z</time>
      </trkpt>
      <trkpt lat="26.823336078602065" lon="100.22054208045112">
        <ele>2352.2459068060266</ele>
        <time>2026-08-11T03:27:39.776000Z</time>
      </trkpt>
    </trkseg>
  </trk>
</gpx>