<?xml version="1.0" encoding="UTF-8"?>
<gpx xmlns="http://www.topografix.com/GPX/1/1" xmlns:gpxtpx="http://www.garmin.com/xmlschemas/TrackPointExtension/v1" xmlns:xsi="http://www.w3.org/2001/XMLSchema-instance" xsi:schemaLocation="http://www.topografix.com/GPX/1/1 http://www.topografix.com/GPX/1/1/gpx.xsd" version="1.1" creator="gpx.py -- https://github.com/tkrajina/gpxpy">
  <trk>
    <name>gpx from keep</name>
    <type>Run</type>
    <trkseg>
      <trkpt lat="26.824475501146775" lon="100.22013559384145">
        <ele>2357.723158035261</ele>
        <time>2026-08-21T01:40:12.961000Z</time>
      </trkpt>
      <trkpt lat="26.824615544209678" lon="100.2201976605949">
        <ele>2356.623299251947</ele>
        <time>2026-08-21T01:40:18.961000Z</time>
      </trkpt>
      <trkpt lat="26.824889556447005" lon="100.22024871138287">
        <ele>2356.062253491016</ele>
        <time>2026-08-21T01:40:30.961000Z</time>
      </trkpt>
      <trkpt lat="26.82500458353175" lon="100.2202917570654">
        <ele>2353.901314653431</ele>
        <time>2026-08-21T01:40:36.961000Z</time>
      </trkpt>
      <trkpt lat="26.825046625237245" lon="100.22033880903767">
        <ele>2352.9004711371867</ele>
        <time>2026-08-21T01:40:39.961000Z</time>
      </trkpt>
      <trkpt lat="26.825036761619018" lon="100.22047195893178">
        <ele>2349.4972956554197</ele>
        <time>2026-08-21T01:40:45.961000Z</time>
      </trkpt>
      <trkpt lat="26.82504791654708" lon="100.22062713223433">
        <ele>2347.3969250618393</ele>
        <time>2026-08-21T01:40:51.961000Z</time>
      </trkpt>
      <trkpt lat="26.82502013646205" lon="100.22084237226373">
        <ele>2345.084284521029</ele>
        <time>2026-08-21T01:41:00.961000Z</time>
      </trkpt>
      <trkpt lat="26.825035282987834" lon="100.22099153674752">
        <ele>2345.5486013496143</ele>
        <time>2026-08-21T01:41:06.961000Z</time>
      </trkpt>
      <trkpt lat="26.825007594154485" lon="100.2213018778494">
        <ele>2345.1329763416034</ele>
        <time>2026-08-21T01:41:21.961000Z</time>
      </trkpt>
      <trkpt lat="26.825008722844252" lon="100.22143302060577">
        <ele>2344.618406706364</ele>
        <time>2026-08-21T01:41:27.961000Z</time>
      </trkpt>
      <trkpt lat="26.82498779843003" lon="100.22150710151251">
        <ele>2344.0196041727527</ele>
        <time>2026-08-21T01:41:30.961000Z</time>
      </trkpt>
      <trkpt lat="26.824974141102278" lon="100.22185747928198">
        <ele>2341.5601734035995</ele>
        <time>2026-08-21T01:41:45.961000Z</time>
      </trkpt>
      <trkpt lat="26.824978394811723" lon="100.22212176085878">
        <ele>2339.9967146681693</ele>
        <time>2026-08-21T01:41:57.961000Z</time>
      </trkpt>
      <trkpt lat="26.825020587444957" lon="100.22232997990167">
        <ele>2339.7668019972066</ele>
        <time>2026-08-21T01:42:06.961000Z</time>
      </trkpt>
      <trkpt lat="26.825021901579593" lon="100.22266232785682">
        <ele>2339.7417849703666</ele>
        <time>2026-08-21T01:42:21.961000Z</time>
      </trkpt>
      <trkpt lat="26.825034211410955" lon="100.22299567244245">
        <ele>2340.3398104188336</ele>
        <time>2026-08-21T01:42:37.061000Z</time>
      </trkpt>
      <trkpt lat="26.825033509352743" lon="100.22331800200656">
        <ele>2339.167118874494</ele>
        <time>2026-08-21T01:42:52.061000Z</time>
      </trkpt>
      <trkpt lat="26.82502979156212" lon="100.22362631366494">
        <ele>2340.489759160414</ele>
        <time>2026-08-21T01:43:07.061000Z</time>
      </trkpt>
      <trkpt lat="26.82501711682716" lon="100.22398467162238">
        <ele>2340.790952790341</ele>
        <time>2026-08-21T01:43:25.061000Z</time>
      </trkpt>
      <trkpt lat="26.82502439679664" lon="100.2242999820988">
        <ele>2341.0381071264123</ele>
        <time>2026-08-21T01:43:40.061000Z</time>
      </trkpt>
      <trkpt lat="26.82502867825308" lon="100.22462029371499">
        <ele>2342.9242298067306</ele>
        <time>2026-08-21T01:43:55.061000Z</time>
      </trkpt>
      <trkpt lat="26.825049939074553" lon="100.22492358473778">
        <ele>2342.0156129079164</ele>
        <time>2026-08-21T01:44:10.061000Z</time>
      </trkpt>
      <trkpt lat="26.825076210605747" lon="100.22524388817355">
        <ele>2340.753511067207</ele>
        <time>2026-08-21T01:44:25.061000Z</time>
      </trkpt>
      <trkpt lat="26.82508349577632" lon="100.22558120398946">
        <ele>2338.607259457847</ele>
        <time>2026-08-21T01:44:43.061000Z</time>
      </trkpt>
      <trkpt lat="26.82509375583721" lon="100.22589349238447">
        <ele>2338.8742553917805</ele>
        <time>2026-08-21T01:44:58.061000Z</time>
      </trkpt>
      <trkpt lat="26.82511692664092" lon="100.22610368396657">
        <ele>2339.39670908287</ele>
        <time>2026-08-21T01:45:07.061000Z</time>
      </trkpt>
      <trkpt lat="26.825075189525517" lon="100.22641696826781">
        <ele>2339.0713451437705</ele>
        <time>2026-08-21T01:45:25.061000Z</time>
      </trkpt>
      <trkpt lat="26.8250503651719" lon="100.22662915858004">
        <ele>2342.114650659695</ele>
        <time>2026-08-21T01:45:34.061000Z</time>
      </trkpt>
      <trkpt lat="26.824976522373955" lon="100.22681132189108">
        <ele>2343.9484455988163</ele>
        <time>2026-08-21T01:45:43.061000Z</time>
      </trkpt>
      <trkpt lat="26.824995615537876" lon="100.2269314271506">
        <ele>2343.4686814781485</ele>
        <time>2026-08-21T01:45:49.061000Z</time>
      </trkpt>
      <trkpt lat="26.82494185867906" lon="100.22722868779793">
        <ele>2341.7269334769676</ele>
        <time>2026-08-21T01:46:04.061000Z</time>
      </trkpt>
      <trkpt lat="26.824936900288" lon="100.22728073296558">
        <ele>2341.2310899092595</ele>
        <time>2026-08-21T01:46:07.061000Z</time>
      </trkpt>
      <trkpt lat="26.824962955306358" lon="100.2273557970864">
        <ele>2340.3557329005807</ele>
        <time>2026-08-21T01:46:10.061000Z</time>
      </trkpt>
      <trkpt lat="26.824859196727296" lon="100.22764704895658">
        <ele>2342.849211268421</ele>
        <time>2026-08-21T01:46:25.061000Z</time>
      </trkpt>
      <trkpt lat="26.824829347259357" lon="100.22783721065538">
        <ele>2342.9664643462975</ele>
        <time>2026-08-21T01:46:34.061000Z</time>
      </trkpt>
      <trkpt lat="26.82481157736376" lon="100.22813646150138">
        <ele>2340.174389920102</ele>
        <time>2026-08-21T01:46:49.061000Z</time>
      </trkpt>
      <trkpt lat="26.824769673139247" lon="100.22825556123402">
        <ele>2340.770683538194</ele>
        <time>2026-08-21T01:46:55.061000Z</time>
      </trkpt>
      <trkpt lat="26.82479973477643" lon="100.22834363308527">
        <ele>2341.2640952332113</ele>
        <time>2026-08-21T01:47:01.061000Z</time>
      </trkpt>
      <trkpt lat="26.824956743356477" lon="100.22838566366978">
        <ele>2341.085284366473</ele>
        <time>2026-08-21T01:47:07.161000Z</time>
      </trkpt>
      <trkpt lat="26.82518581870995" lon="100.22853177743714">
        <ele>2342.5231555154605</ele>
        <time>2026-08-21T01:47:22.161000Z</time>
      </trkpt>
      <trkpt lat="26.825332843957483" lon="100.22859482505217">
        <ele>2342.6785117369172</ele>
        <time>2026-08-21T01:47:31.161000Z</time>
      </trkpt>
      <trkpt lat="26.82539283446941" lon="100.22859382272485">
        <ele>2342.9379885995863</ele>
        <time>2026-08-21T01:47:34.161000Z</time>
      </trkpt>
      <trkpt lat="26.825508858914123" lon="100.2286498652896">
        <ele>2343.9276961611736</ele>
        <time>2026-08-21T01:47:40.161000Z</time>
      </trkpt>
      <trkpt lat="26.82564890693109" lon="100.22874293703113">
        <ele>2340.238467303341</ele>
        <time>2026-08-21T01:47:49.161000Z</time>
      </trkpt>
      <trkpt lat="26.825860861248348" lon="100.2287229155232">
        <ele>2343.0283902208294</ele>
        <time>2026-08-21T01:47:58.161000Z</time>
      </trkpt>
      <trkpt lat="26.82592180667701" lon="100.22866086379035">
        <ele>2344.1114956424735</ele>
        <time>2026-08-21T01:48:04.161000Z</time>
      </trkpt>
      <trkpt lat="26.825936690516997" lon="100.22850673807763">
        <ele>2344.337433080347</ele>
        <time>2026-08-21T01:48:10.161000Z</time>
      </trkpt>
      <trkpt lat="26.826011409897756" lon="100.22814643953373">
        <ele>2343.620863095339</ele>
        <time>2026-08-21T01:48:28.161000Z</time>
      </trkpt>
      <trkpt lat="26.82602835521165" lon="100.22807738166168">
        <ele>2344.400611850734</ele>
        <time>2026-08-21T01:48:31.161000Z</time>
      </trkpt>
      <trkpt lat="26.826101276188986" lon="100.22798730461142">
        <ele>2344.777229894014</ele>
        <time>2026-08-21T01:48:37.161000Z</time>
      </trkpt>
      <trkpt lat="26.826205018798724" lon="100.22767103539503">
        <ele>2342.7901780456887</ele>
        <time>2026-08-21T01:48:55.161000Z</time>
      </trkpt>
      <trkpt lat="26.82626574387878" lon="100.2273287409049">
        <ele>2342.4040341073937</ele>
        <time>2026-08-21T01:49:13.161000Z</time>
      </trkpt>
      <trkpt lat="26.826331468155146" lon="100.22699144608616">
        <ele>2340.9335998192705</ele>
        <time>2026-08-21T01:49:31.161000Z</time>
      </trkpt>
      <trkpt lat="26.82640421570524" lon="100.2266891777654">
        <ele>2340.8172724223577</ele>
        <time>2026-08-21T01:49:46.161000Z</time>
      </trkpt>
      <trkpt lat="26.82648992799109" lon="100.2263498722344">
        <ele>2340.201472055591</ele>
        <time>2026-08-21T01:50:04.161000Z</time>
      </trkpt>
      <trkpt lat="26.82653077512717" lon="100.2261707092161">
        <ele>2340.835329334952</ele>
        <time>2026-08-21T01:50:13.161000Z</time>
      </trkpt>
      <trkpt lat="26.826618521139004" lon="100.22587944100722">
        <ele>2341.394387543115</ele>
        <time>2026-08-21T01:50:34.161000Z</time>
      </trkpt>
      <trkpt lat="26.82668325667196" lon="100.22557515799878">
        <ele>2341.9534524790756</ele>
        <time>2026-08-21T01:50:55.161000Z</time>
      </trkpt>
      <trkpt lat="26.82675898914923" lon="100.22527287303507">
        <ele>2342.552980704036</ele>
        <time>2026-08-21T01:51:10.261000Z</time>
      </trkpt>
      <trkpt lat="26.82685167710596" lon="100.22492554113812">
        <ele>2342.8256225418822</ele>
        <time>2026-08-21T01:51:28.261000Z</time>
      </trkpt>
      <trkpt lat="26.826957397646662" lon="100.22462224692653">
        <ele>2341.4412913322626</ele>
        <time>2026-08-21T01:51:43.261000Z</time>
      </trkpt>
      <trkpt lat="26.82707612468689" lon="100.22433196161026">
        <ele>2341.1012130969652</ele>
        <time>2026-08-21T01:51:58.261000Z</time>
      </trkpt>
      <trkpt lat="26.8271130153812" lon="100.22421484587085">
        <ele>2340.937034227025</ele>
        <time>2026-08-21T01:52:04.261000Z</time>
      </trkpt>
      <trkpt lat="26.827142971784582" lon="100.22417080180378">
        <ele>2341.029053937847</ele>
        <time>2026-08-21T01:52:07.261000Z</time>
      </trkpt>
      <trkpt lat="26.827364013915755" lon="100.22425487883798">
        <ele>2339.565859933265</ele>
        <time>2026-08-21T01:52:19.261000Z</time>
      </trkpt>
      <trkpt lat="26.827518068323766" lon="100.22434196023265">
        <ele>2339.022000233124</ele>
        <time>2026-08-21T01:52:28.261000Z</time>
      </trkpt>
      <trkpt lat="26.827567065509122" lon="100.22434696388748">
        <ele>2338.344786283551</ele>
        <time>2026-08-21T01:52:31.261000Z</time>
      </trkpt>
      <trkpt lat="26.827649980542617" lon="100.22426488143036">
        <ele>2338.3803325892964</ele>
        <time>2026-08-21T01:52:37.261000Z</time>
      </trkpt>
      <trkpt lat="26.827808894783583" lon="100.22419480861075">
        <ele>2338.8289758066794</ele>
        <time>2026-08-21T01:52:46.261000Z</time>
      </trkpt>
      <trkpt lat="26.82807883964808" lon="100.22417778505213">
        <ele>2338.2278211834387</ele>
        <time>2026-08-21T01:53:01.261000Z</time>
      </trkpt>
      <trkpt lat="26.82816879153347" lon="100.22413874433927">
        <ele>2337.973989277072</ele>
        <time>2026-08-21T01:53:07.261000Z</time>
      </trkpt>
      <trkpt lat="26.8283214825321" lon="100.2238194238936">
        <ele>2337.845353639598</ele>
        <time>2026-08-21T01:53:25.261000Z</time>
      </trkpt>
      <trkpt lat="26.82835237207191" lon="100.22370230603123">
        <ele>2338.56412102897</ele>
        <time>2026-08-21T01:53:31.261000Z</time>
      </trkpt>
      <trkpt lat="26.828401283964837" lon="100.22361321538617">
        <ele>2339.113774091631</ele>
        <time>2026-08-21T01:53:37.261000Z</time>
      </trkpt>
      <trkpt lat="26.828409221753198" lon="100.22354614768021">
        <ele>2339.4450639435995</ele>
        <time>2026-08-21T01:53:40.261000Z</time>
      </trkpt>
      <trkpt lat="26.828541927840465" lon="100.22324684100644">
        <ele>2339.7940706741806</ele>
        <time>2026-08-21T01:53:58.261000Z</time>
      </trkpt>
      <trkpt lat="26.828659655530075" lon="100.22297155608689">
        <ele>2340.3184167957083</ele>
        <time>2026-08-21T01:54:13.261000Z</time>
      </trkpt>
      <trkpt lat="26.828789407105603" lon="100.2227262992301">
        <ele>2340.7862362903797</ele>
        <time>2026-08-21T01:54:28.261000Z</time>
      </trkpt>
      <trkpt lat="26.828888024579225" lon="100.22233688950715">
        <ele>2340.775649591102</ele>
        <time>2026-08-21T01:54:49.261000Z</time>
      </trkpt>
      <trkpt lat="26.828902905974417" lon="100.22221476025118">
        <ele>2340.6976462069865</ele>
        <time>2026-08-21T01:54:55.261000Z</time>
      </trkpt>
      <trkpt lat="26.82935316381828" lon="100.22255710875191">
        <ele>2347.750091107562</ele>
        <time>2026-08-21T01:58:58.161000Z</time>
      </trkpt>
      <trkpt lat="26.829275203792186" lon="100.22258714208357">
        <ele>2338.0938888164237</ele>
        <time>2026-08-21T01:59:01.161000Z</time>
      </trkpt>
      <trkpt lat="26.82925626883701" lon="100.22265321143746">
        <ele>2336.9997189997002</ele>
        <time>2026-08-21T01:59:07.161000Z</time>
      </trkpt>
      <trkpt lat="26.829083547644604" lon="100.22292349586854">
        <ele>2336.396433515582</ele>
        <time>2026-08-21T01:59:31.161000Z</time>
      </trkpt>
      <trkpt lat="26.828940807535542" lon="100.22318076351714">
        <ele>2335.3729633991566</ele>
        <time>2026-08-21T01:59:55.161000Z</time>
      </trkpt>
      <trkpt lat="26.828895870545338" lon="100.22324182695952">
        <ele>2335.965023102841</ele>
        <time>2026-08-21T02:00:01.161000Z</time>
      </trkpt>
      <trkpt lat="26.82886895557625" lon="100.2233299172779">
        <ele>2335.813680450693</ele>
        <time>2026-08-21T02:00:07.161000Z</time>
      </trkpt>
      <trkpt lat="26.82886602761121" lon="100.22340799655998">
        <ele>2336.4899035982053</ele>
        <time>2026-08-21T02:00:13.161000Z</time>
      </trkpt>
      <trkpt lat="26.828774210295176" lon="100.22359318582826">
        <ele>2337.195353810172</ele>
        <time>2026-08-21T02:00:31.161000Z</time>
      </trkpt>
      <trkpt lat="26.828754501976093" lon="100.22391250564638">
        <ele>2336.3931977144584</ele>
        <time>2026-08-21T02:00:55.161000Z</time>
      </trkpt>
      <trkpt lat="26.828752594765806" lon="100.2240156079747">
        <ele>2336.190546251795</ele>
        <time>2026-08-21T02:01:01.161000Z</time>
      </trkpt>
      <trkpt lat="26.8286456813886" lon="100.22409468885135">
        <ele>2336.2297803554306</ele>
        <time>2026-08-21T02:01:13.161000Z</time>
      </trkpt>
      <trkpt lat="26.82856281939944" lon="100.22423582988343">
        <ele>2336.50527056066</ele>
        <time>2026-08-21T02:01:25.161000Z</time>
      </trkpt>
      <trkpt lat="26.828516023774597" lon="100.22445904926076">
        <ele>2335.982964940065</ele>
        <time>2026-08-21T02:01:43.161000Z</time>
      </trkpt>
      <trkpt lat="26.828482086927377" lon="100.22452511433264">
        <ele>2336.268298666866</ele>
        <time>2026-08-21T02:01:49.161000Z</time>
      </trkpt>
      <trkpt lat="26.828435132562845" lon="100.22456915823625">
        <ele>2335.479364630646</ele>
        <time>2026-08-21T02:01:55.161000Z</time>
      </trkpt>
      <trkpt lat="26.82830221017041" lon="100.22463522553183">
        <ele>2335.3986937915806</ele>
        <time>2026-08-21T02:02:07.161000Z</time>
      </trkpt>
      <trkpt lat="26.828267276566894" lon="100.22470529404485">
        <ele>2335.2565989104924</ele>
        <time>2026-08-21T02:02:13.161000Z</time>
      </trkpt>
      <trkpt lat="26.82825637751633" lon="100.2248194040603">
        <ele>2336.135426861683</ele>
        <time>2026-08-21T02:02:19.161000Z</time>
      </trkpt>
      <trkpt lat="26.82813166133771" lon="100.22512670026418">
        <ele>2335.406882118184</ele>
        <time>2026-08-21T02:02:34.161000Z</time>
      </trkpt>
      <trkpt lat="26.827903875601947" lon="100.2253379053351">
        <ele>2336.888385822029</ele>
        <time>2026-08-21T02:02:49.161000Z</time>
      </trkpt>
      <trkpt lat="26.827758050826166" lon="100.22551907863172">
        <ele>2336.9356812793317</ele>
        <time>2026-08-21T02:03:01.161000Z</time>
      </trkpt>
      <trkpt lat="26.82765130710648" lon="100.22580534676078">
        <ele>2338.0213859549126</ele>
        <time>2026-08-21T02:03:16.161000Z</time>
      </trkpt>
      <trkpt lat="26.827602477527808" lon="100.22600152807411">
        <ele>2337.954307655295</ele>
        <time>2026-08-21T02:03:25.161000Z</time>
      </trkpt>
      <trkpt lat="26.827510751441835" lon="100.22631781759014">
        <ele>2336.2890640297355</ele>
        <time>2026-08-21T02:03:40.161000Z</time>
      </trkpt>
      <trkpt lat="26.827353014706198" lon="100.22661308618666">
        <ele>2336.1717320760044</ele>
        <time>2026-08-21T02:03:55.161000Z</time>
      </trkpt>
      <trkpt lat="26.82728116384499" lon="100.22678524072033">
        <ele>2335.9327290357346</ele>
        <time>2026-08-21T02:04:04.161000Z</time>
      </trkpt>
      <trkpt lat="26.827283248406253" lon="100.22689133421092">
        <ele>2336.0452356079354</ele>
        <time>2026-08-21T02:04:10.161000Z</time>
      </trkpt>
      <trkpt lat="26.82726049616645" lon="100.22719960409918">
        <ele>2335.834472793925</ele>
        <time>2026-08-21T02:04:25.161000Z</time>
      </trkpt>
      <trkpt lat="26.827261736332662" lon="100.22750686881096">
        <ele>2335.6654875053373</ele>
        <time>2026-08-21T02:04:40.161000Z</time>
      </trkpt>
      <trkpt lat="26.827267878686634" lon="100.22769202640538">
        <ele>2336.0589104268274</ele>
        <time>2026-08-21T02:04:49.161000Z</time>
      </trkpt>
      <trkpt lat="26.82733413441491" lon="100.22803931698812">
        <ele>2335.983684102768</ele>
        <time>2026-08-21T02:05:07.161000Z</time>
      </trkpt>
      <trkpt lat="26.827426314747363" lon="100.22829652805481">
        <ele>2336.8046214242086</ele>
        <time>2026-08-21T02:05:22.161000Z</time>
      </trkpt>
      <trkpt lat="26.827450441928026" lon="100.22847167125853">
        <ele>2336.562924088001</ele>
        <time>2026-08-21T02:05:31.161000Z</time>
      </trkpt>
      <trkpt lat="26.82742253730411" lon="100.22859477231697">
        <ele>2336.9816685751407</ele>
        <time>2026-08-21T02:05:37.161000Z</time>
      </trkpt>
      <trkpt lat="26.82741672054702" lon="100.22884297297986">
        <ele>2336.4667170913503</ele>
        <time>2026-08-21T02:05:49.161000Z</time>
      </trkpt>
      <trkpt lat="26.827306972497553" lon="100.22916823482319">
        <ele>2337.4348738062217</ele>
        <time>2026-08-21T02:06:07.161000Z</time>
      </trkpt>
      <trkpt lat="26.8272461011751" lon="100.22933536784782">
        <ele>2337.9955716363984</ele>
        <time>2026-08-21T02:06:16.161000Z</time>
      </trkpt>
      <trkpt lat="26.82724025116074" lon="100.22954553176164">
        <ele>2339.0536608949246</ele>
        <time>2026-08-21T02:06:28.161000Z</time>
      </trkpt>
      <trkpt lat="26.827210292265654" lon="100.22959757279718">
        <ele>2340.147396514444</ele>
        <time>2026-08-21T02:06:34.161000Z</time>
      </trkpt>
      <trkpt lat="26.827227335474692" lon="100.22966262256475">
        <ele>2339.813137335889</ele>
        <time>2026-08-21T02:06:40.161000Z</time>
      </trkpt>
      <trkpt lat="26.82741548979757" lon="100.22992381767855">
        <ele>2336.64271304205</ele>
        <time>2026-08-21T02:07:01.161000Z</time>
      </trkpt>
      <trkpt lat="26.827458515286384" lon="100.22996985153488">
        <ele>2335.315393904896</ele>
        <time>2026-08-21T02:07:04.161000Z</time>
      </trkpt>
      <trkpt lat="26.827471558228645" lon="100.23003490043551">
        <ele>2334.597574636769</ele>
        <time>2026-08-21T02:07:07.161000Z</time>
      </trkpt>
      <trkpt lat="26.827452616731318" lon="100.23011596202403">
        <ele>2334.772043425949</ele>
        <time>2026-08-21T02:07:10.161000Z</time>
      </trkpt>
      <trkpt lat="26.827184606784623" lon="100.23004391447782">
        <ele>2334.9809021981564</ele>
        <time>2026-08-21T02:07:25.161000Z</time>
      </trkpt>
      <trkpt lat="26.826987583370194" lon="100.2299678618983">
        <ele>2337.347749729827</ele>
        <time>2026-08-21T02:07:37.161000Z</time>
      </trkpt>
      <trkpt lat="26.826840555136666" lon="100.22989581087302">
        <ele>2338.308349460216</ele>
        <time>2026-08-21T02:07:46.161000Z</time>
      </trkpt>
      <trkpt lat="26.826096332368113" lon="100.2280603657642">
        <ele>2338.6992406100035</ele>
        <time>2026-08-21T02:09:59.161000Z</time>
      </trkpt>
      <trkpt lat="26.82610723646337" lon="100.22793626170028">
        <ele>2344.2037027040496</ele>
        <time>2026-08-21T02:10:05.161000Z</time>
      </trkpt>
      <trkpt lat="26.826194041236562" lon="100.22769805860462">
        <ele>2341.444001733196</ele>
        <time>2026-08-21T02:10:14.161000Z</time>
      </trkpt>
      <trkpt lat="26.826186985897863" lon="100.227624996714">
        <ele>2339.6625941307266</ele>
        <time>2026-08-21T02:10:20.161000Z</time>
      </trkpt>
      <trkpt lat="26.82626473853914" lon="100.22732173488613">
        <ele>2336.812056352102</ele>
        <time>2026-08-21T02:10:35.161000Z</time>
      </trkpt>
      <trkpt lat="26.82632445963626" lon="100.22697943574227">
        <ele>2336.9011533519624</ele>
        <time>2026-08-21T02:10:53.161000Z</time>
      </trkpt>
      <trkpt lat="26.82636032500373" lon="100.22681729225502">
        <ele>2334.2152157294836</ele>
        <time>2026-08-21T02:11:02.161000Z</time>
      </trkpt>
      <trkpt lat="26.826438146152764" lon="100.22660910572095">
        <ele>2335.9453873101015</ele>
        <time>2026-08-21T02:11:14.161000Z</time>
      </trkpt>
      <trkpt lat="26.82645203790209" lon="100.2264779882621">
        <ele>2337.0793021557133</ele>
        <time>2026-08-21T02:11:20.161000Z</time>
      </trkpt>
      <trkpt lat="26.82651383682101" lon="100.22624277495007">
        <ele>2337.424708321402</ele>
        <time>2026-08-21T02:11:32.161000Z</time>
      </trkpt>
      <trkpt lat="26.826551749798163" lon="100.22614368414477">
        <ele>2337.612018247394</ele>
        <time>2026-08-21T02:11:38.161000Z</time>
      </trkpt>
      <trkpt lat="26.8274124176974" lon="100.2235992262852">
        <ele>2343.6148103084415</ele>
        <time>2026-08-21T02:13:54.161000Z</time>
      </trkpt>
      <trkpt lat="26.827441365130465" lon="100.22354617214029">
        <ele>2343.1048107314855</ele>
        <time>2026-08-21T02:13:57.161000Z</time>
      </trkpt>
      <trkpt lat="26.827435311241963" lon="100.2234861116973">
        <ele>2338.0093244146556</ele>
        <time>2026-08-21T02:14:00.161000Z</time>
      </trkpt>
      <trkpt lat="26.82756301389262" lon="100.2231828003867">
        <ele>2340.414402219371</ele>
        <time>2026-08-21T02:14:24.161000Z</time>
      </trkpt>
      <trkpt lat="26.827583946955954" lon="100.22311372921696">
        <ele>2339.244353650725</ele>
        <time>2026-08-21T02:14:27.161000Z</time>
      </trkpt>
      <trkpt lat="26.827651821792355" lon="100.22298960010332">
        <ele>2339.3161612865897</ele>
        <time>2026-08-21T02:14:33.161000Z</time>
      </trkpt>
      <trkpt lat="26.827753496945036" lon="100.22265825463869">
        <ele>2332.250510855004</ele>
        <time>2026-08-21T02:14:48.161000Z</time>
      </trkpt>
      <trkpt lat="26.82787820978824" lon="100.22237395401443">
        <ele>2336.9183878746535</ele>
        <time>2026-08-21T02:15:03.161000Z</time>
      </trkpt>
      <trkpt lat="26.827999920412463" lon="100.22208965045968">
        <ele>2337.4641839866326</ele>
        <time>2026-08-21T02:15:27.161000Z</time>
      </trkpt>
      <trkpt lat="26.828138577359038" lon="100.22175528974195">
        <ele>2337.467757487313</ele>
        <time>2026-08-21T02:15:57.161000Z</time>
      </trkpt>
      <trkpt lat="26.828284249239417" lon="100.22144094647145">
        <ele>2336.6106738724634</ele>
        <time>2026-08-21T02:16:24.161000Z</time>
      </trkpt>
      <trkpt lat="26.828401937913167" lon="100.22114261785013">
        <ele>2338.9641762607753</ele>
        <time>2026-08-21T02:16:48.261000Z</time>
      </trkpt>
      <trkpt lat="26.828542553182846" lon="100.2207772109897">
        <ele>2339.1194142560166</ele>
        <time>2026-08-21T02:17:18.261000Z</time>
      </trkpt>
      <trkpt lat="26.828634334313545" lon="100.22057298113599">
        <ele>2339.8566350944393</ele>
        <time>2026-08-21T02:17:36.261000Z</time>
      </trkpt>
      <trkpt lat="26.82864625473217" lon="100.22049589455743">
        <ele>2339.2971097679883</ele>
        <time>2026-08-21T02:17:42.261000Z</time>
      </trkpt>
      <trkpt lat="26.82861318469621" lon="100.22042181227494">
        <ele>2339.3163954548627</ele>
        <time>2026-08-21T02:17:48.261000Z</time>
      </trkpt>
      <trkpt lat="26.828617118126555" lon="100.22035673900093">
        <ele>2339.668064120829</ele>
        <time>2026-08-21T02:17:54.261000Z</time>
      </trkpt>
      <trkpt lat="26.828719885659318" lon="100.2201434955372">
        <ele>2339.6353068524636</ele>
        <time>2026-08-21T02:18:12.261000Z</time>
      </trkpt>
      <trkpt lat="26.82873874137299" lon="100.22000533812863">
        <ele>2339.847431936195</ele>
        <time>2026-08-21T02:18:24.261000Z</time>
      </trkpt>
      <trkpt lat="26.828696684901274" lon="100.21994426960467">
        <ele>2338.6405507121835</ele>
        <time>2026-08-21T02:18:30.261000Z</time>
      </trkpt>
      <trkpt lat="26.82843562062939" lon="100.21984416184057">
        <ele>2340.0943503225794</ele>
        <time>2026-08-21T02:18:51.261000Z</time>
      </trkpt>
      <trkpt lat="26.82814860433498" lon="100.21978710375078">
        <ele>2336.4457409604765</ele>
        <time>2026-08-21T02:19:15.261000Z</time>
      </trkpt>
      <trkpt lat="26.82783658016621" lon="100.21971903352873">
        <ele>2337.693422514847</ele>
        <time>2026-08-21T02:19:45.261000Z</time>
      </trkpt>
      <trkpt lat="26.827503557827058" lon="100.21964996251904">
        <ele>2337.3895235346463</ele>
        <time>2026-08-21T02:20:15.261000Z</time>
      </trkpt>
      <trkpt lat="26.827175522008275" lon="100.21956887734946">
        <ele>2339.257606127812</ele>
        <time>2026-08-21T02:20:45.261000Z</time>
      </trkpt>
      <trkpt lat="26.82685249245382" lon="100.21949479992473">
        <ele>2339.173460007435</ele>
        <time>2026-08-21T02:21:15.261000Z</time>
      </trkpt>
      <trkpt lat="26.82652346142109" lon="100.21941872013367">
        <ele>2341.6866153393685</ele>
        <time>2026-08-21T02:21:45.261000Z</time>
      </trkpt>
      <trkpt lat="26.826210424617635" lon="100.21933963623987">
        <ele>2339.8852476042143</ele>
        <time>2026-08-21T02:22:15.361000Z</time>
      </trkpt>
      <trkpt lat="26.825891401014374" lon="100.21927256626898">
        <ele>2341.6396464770237</ele>
        <time>2026-08-21T02:22:45.361000Z</time>
      </trkpt>
      <trkpt lat="26.82557736591927" lon="100.21919548432491">
        <ele>2343.4270052042457</ele>
        <time>2026-08-21T02:23:15.361000Z</time>
      </trkpt>
      <trkpt lat="26.82526134244634" lon="100.21912941510402">
        <ele>2341.230046022465</ele>
        <time>2026-08-21T02:23:42.361000Z</time>
      </trkpt>
      <trkpt lat="26.825068333606563" lon="100.21909437897614">
        <ele>2342.333513430163</ele>
        <time>2026-08-21T02:24:00.361000Z</time>
      </trkpt>
      <trkpt lat="26.82501440372143" lon="100.21915344945106">
        <ele>2342.7971560681867</ele>
        <time>2026-08-21T02:24:06.361000Z</time>
      </trkpt>
      <trkpt lat="26.825004725260403" lon="100.21945880496945">
        <ele>2344.632586408133</ele>
        <time>2026-08-21T02:24:30.361000Z</time>
      </trkpt>
      <trkpt lat="26.825008055412145" lon="100.2197771717393">
        <ele>2344.868782248863</ele>
        <time>2026-08-21T02:24:54.361000Z</time>
      </trkpt>
      <trkpt lat="26.825017276819015" lon="100.21999341860841">
        <ele>2344.9046047344505</ele>
        <time>2026-08-21T02:25:12.361000Z</time>
      </trkpt>
      <trkpt lat="26.825006340020977" lon="100.22005348722507">
        <ele>2343.7226322335932</ele>
        <time>2026-08-21T02:25:18.361000Z</time>
      </trkpt>
      <trkpt lat="26.825012491628016" lon="100.22020265621593">
        <ele>2343.310021786583</ele>
        <time>2026-08-21T02:25:30.361000Z</time>
      </trkpt>
      <trkpt lat="26.82500155646716" lon="100.22026472663829">
        <ele>2343.36867342143</ele>
        <time>2026-08-21T02:25:36.361000Z</time>
      </trkpt>
      <trkpt lat="26.82486177491871" lon="100.22045994988287">
        <ele>2342.484089947745</ele>
        <time>2026-08-21T02:25:57.361000Z</time>
      </trkpt>
      <trkpt lat="26.824872036695226" lon="100.22072124152666">
        <ele>2343.5373807158744</ele>
        <time>2026-08-21T02:26:15.361000Z</time>
      </trkpt>
      <trkpt lat="26.82486117958665" lon="100.22086239846111">
        <ele>2343.2424291189704</ele>
        <time>2026-08-21T02:26:27.361000Z</time>
      </trkpt>
      <trkpt lat="26.82488949280963" lon="100.22118174948655">
        <ele>2346.476830465127</ele>
        <time>2026-08-21T02:26:51.361000Z</time>
      </trkpt>
      <trkpt lat="26.82486678860149" lon="100.22147907418308">
        <ele>2345.565615720487</ele>
        <time>2026-08-21T02:27:15.461000Z</time>
      </trkpt>
      <trkpt lat="26.824869155402254" lon="100.2218564808645">
        <ele>2344.7552079600187</ele>
        <time>2026-08-21T02:27:45.461000Z</time>
      </trkpt>
      <trkpt lat="26.824885467724435" lon="100.22218382898599">
        <ele>2345.1763168834805</ele>
        <time>2026-08-21T02:28:09.461000Z</time>
      </trkpt>
      <trkpt lat="26.824828516168978" lon="100.22222587490374">
        <ele>2345.2892908813137</ele>
        <time>2026-08-21T02:28:15.461000Z</time>
      </trkpt>
      <trkpt lat="26.82465454144102" lon="100.22222587930192">
        <ele>2344.915717604771</ele>
        <time>2026-08-21T02:28:27.461000Z</time>
      </trkpt>
      <trkpt lat="26.824516612060116" lon="100.222278938822">
        <ele>2344.3187683867286</ele>
        <time>2026-08-21T02:28:39.461000Z</time>
      </trkpt>
      <trkpt lat="26.824468669523988" lon="100.22233199596256">
        <ele>2344.0782865984966</ele>
        <time>2026-08-21T02:28:45.461000Z</time>
      </trkpt>
      <trkpt lat="26.824185739066657" lon="100.22236203472609">
        <ele>2342.148904404473</ele>
        <time>2026-08-21T02:29:09.461000Z</time>
      </trkpt>
      <trkpt lat="26.824071796424832" lon="100.22240508285736">
        <ele>2342.112121884703</ele>
        <time>2026-08-21T02:29:21.461000Z</time>
      </trkpt>
      <trkpt lat="26.823771855912604" lon="100.22242210831021">
        <ele>2339.503298769785</ele>
        <time>2026-08-21T02:29:51.461000Z</time>
      </trkpt>
      <trkpt lat="26.823579883612933" lon="100.22242211316289">
        <ele>2339.717996966629</ele>
        <time>2026-08-21T02:30:09.461000Z</time>
      </trkpt>
      <trkpt lat="26.823524861154876" lon="100.2223900809056">
        <ele>2340.5450557189356</ele>
        <time>2026-08-21T02:30:15.461000Z</time>
      </trkpt>
      <trkpt lat="26.823417898416054" lon="100.22241310779785">
        <ele>2340.5047423387423</ele>
        <time>2026-08-21T02:30:27.461000Z</time>
      </trkpt>
      <trkpt lat="26.823224897702723" lon="100.22238308112249">
        <ele>2342.673240578694</ele>
        <time>2026-08-21T02:30:45.461000Z</time>
      </trkpt>
      <trkpt lat="26.823245683853482" lon="100.2221618471163">
        <ele>2342.9076211256474</ele>
        <time>2026-08-21T02:31:03.561000Z</time>
      </trkpt>
      <trkpt lat="26.823233548308774" lon="100.2220186953795">
        <ele>2343.250298952384</ele>
        <time>2026-08-21T02:31:15.561000Z</time>
      </trkpt>
      <trkpt lat="26.823241480682697" lon="100.22194962154376">
        <ele>2342.37045990106</ele>
        <time>2026-08-21T02:31:21.561000Z</time>
      </trkpt>
      <trkpt lat="26.823228406252763" lon="100.22187053735057">
        <ele>2340.079240073125</ele>
        <time>2026-08-21T02:31:27.561000Z</time>
      </trkpt>
      <trkpt lat="26.823243129094497" lon="100.22158723229451">
        <ele>2342.663873666477</ele>
        <time>2026-08-21T02:31:51.561000Z</time>
      </trkpt>
      <trkpt lat="26.82329099400729" lon="100.22145608904492">
        <ele>2342.1676225336187</ele>
        <time>2026-08-21T02:32:03.561000Z</time>
      </trkpt>
      <trkpt lat="26.82331378701643" lon="100.22124886273538">
        <ele>2341.4449779867523</ele>
        <time>2026-08-21T02:32:21.561000Z</time>
      </trkpt>
      <trkpt lat="26.823296516725744" lon="100.22097356084839">
        <ele>2341.383553068735</ele>
        <time>2026-08-21T02:32:45.561000Z</time>
      </trkpt>
      <trkpt lat="26.823321386346983" lon="100.22084641966462">
        <ele>2343.0409835170526</ele>
        <time>2026-08-21T02:32:57.561000Z</time>
      </trkpt>
      <trkpt lat="26.823324265644697" lon="100.22072628624176">
        <ele>2344.1910529975703</ele>
        <time>2026-08-21T02:33:09.561000Z</time>
      </trkpt>
      <trkpt lat="26.823342204756422" lon="100.22066822114682">
        <ele>2343.875513517664</ele>
        <time>2026-08-21T02:33:15.561000Z</time>
      </trkpt>
      <trkpt lat="26.82337485202095" lon="100.22032383440987">
        <ele>2341.8158863629997</ele>
        <time>2026-08-21T02:33:45.561000Z</time>
      </trkpt>
      <trkpt lat="26.823394780923152" lon="100.22025675824162">
        <ele>2342.181698778369</ele>
        <time>2026-08-21T02:33:51.561000Z</time>
      </trkpt>
      <trkpt lat="26.82343670344799" lon="100.22018667795481">
        <ele>2344.799082715732</ele>
        <time>2026-08-21T02:33:57.561000Z</time>
      </trkpt>
      <trkpt lat="26.82353866422482" lon="100.22016264817124">
        <ele>2344.5571609657363</ele>
        <time>2026-08-21T02:34:09.561000Z</time>
      </trkpt>
      <trkpt lat="26.823671682846697" lon="100.22019968673747">
        <ele>2339.986994590287</ele>
        <time>2026-08-21T02:34:21.561000Z</time>
      </trkpt>
      <trkpt lat="26.823854617606553" lon="100.22016163904448">
        <ele>2341.02625105349</ele>
        <time>2026-08-21T02:34:39.561000Z</time>
      </trkpt>
      <trkpt lat="26.823923633185526" lon="100.22018666563687">
        <ele>2340.368091644249</ele>
        <time>2026-08-21T02:34:45.561000Z</time>
      </trkpt>
      <trkpt lat="26.82406059805489" lon="100.22017164517173">
        <ele>2338.4107037928998</ele>
        <time>2026-08-21T02:34:57.561000Z</time>
      </trkpt>
      <trkpt lat="26.82417959820717" lon="100.22018866142771">
        <ele>2340.0932104197122</ele>
        <time>2026-08-21T02:35:09.561000Z</time>
      </trkpt>
      <trkpt lat="26.82432356407533" lon="100.22017564305351">
        <ele>2343.886585073006</ele>
        <time>2026-08-21T02:35:21.561000Z</time>
      </trkpt>
      <trkpt lat="26.824277553362137" lon="100.22015862494304">
        <ele>2343.7904990774546</ele>
        <time>2026-08-21T02:35:30.561000Z</time>
      </trkpt>
      <trkpt lat="26.82421857928079" lon="100.22017564570939">
        <ele>2342.6668521179877</ele>
        <time>2026-08-21T02:35:39.561000Z</time>
      </trkpt>
    </trkseg>
  </trk>
</gpx>