<?xml version="1.0" encoding="UTF-8"?>
<gpx xmlns="http://www.topografix.com/GPX/1/1" xmlns:gpxtpx="http://www.garmin.com/xmlschemas/TrackPointExtension/v1" xmlns:xsi="http://www.w3.org/2001/XMLSchema-instance" xsi:schemaLocation="http://www.topografix.com/GPX/1/1 http://www.topografix.com/GPX/1/1/gpx.xsd" version="1.1" creator="gpx.py -- https://github.com/tkrajina/gpxpy">
  <trk>
    <name>gpx from keep</name>
    <type>Run</type>
    <trkseg>
      <trkpt lat="26.823746658747382" lon="100.22018667011385">
        <ele>2354.5201771399006</ele>
        <time>2026-08-24T12:21:13.462000Z</time>
      </trkpt>
      <trkpt lat="26.823956581394395" lon="100.2201406126433">
        <ele>2346.7070374551295</ele>
        <time>2026-08-24T12:21:22.462000Z</time>
      </trkpt>
      <trkpt lat="26.824070561843293" lon="100.22013760635545">
        <ele>2345.4470779572066</ele>
        <time>2026-08-24T12:21:25.462000Z</time>
      </trkpt>
      <trkpt lat="26.824147576270303" lon="100.22016263276728">
        <ele>2351.2936640295998</ele>
        <time>2026-08-24T12:21:28.462000Z</time>
      </trkpt>
      <trkpt lat="26.82429453862919" lon="100.22014661090155">
        <ele>2352.621905441789</ele>
        <time>2026-08-24T12:21:37.462000Z</time>
      </trkpt>
      <trkpt lat="26.824413531613413" lon="100.2201566192348">
        <ele>2353.153939919949</ele>
        <time>2026-08-24T12:21:43.462000Z</time>
      </trkpt>
      <trkpt lat="26.824636570761232" lon="100.22022669289562">
        <ele>2352.6541136535147</ele>
        <time>2026-08-24T12:21:52.462000Z</time>
      </trkpt>
      <trkpt lat="26.824805551319216" lon="100.22023169427854">
        <ele>2353.213879497398</ele>
        <time>2026-08-24T12:21:58.462000Z</time>
      </trkpt>
      <trkpt lat="26.824855573620965" lon="100.22026072580998">
        <ele>2352.909557964367</ele>
        <time>2026-08-24T12:22:01.462000Z</time>
      </trkpt>
      <trkpt lat="26.824999504748046" lon="100.22021366899988">
        <ele>2351.882594940308</ele>
        <time>2026-08-24T12:22:07.462000Z</time>
      </trkpt>
      <trkpt lat="26.825062361605493" lon="100.220082518792">
        <ele>2350.4029453644903</ele>
        <time>2026-08-24T12:22:13.462000Z</time>
      </trkpt>
      <trkpt lat="26.82506900927217" lon="100.21974112884936">
        <ele>2348.1200701185676</ele>
        <time>2026-08-24T12:22:28.462000Z</time>
      </trkpt>
      <trkpt lat="26.825049655978027" lon="100.21939873420648">
        <ele>2346.578909571603</ele>
        <time>2026-08-24T12:22:43.462000Z</time>
      </trkpt>
      <trkpt lat="26.82504851035008" lon="100.21925957243846">
        <ele>2346.6233260743493</ele>
        <time>2026-08-24T12:22:49.462000Z</time>
      </trkpt>
      <trkpt lat="26.82506143797518" lon="100.21919249387521">
        <ele>2346.0888531285086</ele>
        <time>2026-08-24T12:22:52.462000Z</time>
      </trkpt>
      <trkpt lat="26.825144327823363" lon="100.21909938291448">
        <ele>2345.603206378972</ele>
        <time>2026-08-24T12:22:58.462000Z</time>
      </trkpt>
      <trkpt lat="26.82531434632574" lon="100.21914042664322">
        <ele>2345.435061643962</ele>
        <time>2026-08-24T12:23:07.462000Z</time>
      </trkpt>
      <trkpt lat="26.82549435064672" lon="100.21916945602493">
        <ele>2344.987886237201</ele>
        <time>2026-08-24T12:23:16.462000Z</time>
      </trkpt>
      <trkpt lat="26.825712383035018" lon="100.21923052179406">
        <ele>2345.055187302576</ele>
        <time>2026-08-24T12:23:28.462000Z</time>
      </trkpt>
      <trkpt lat="26.826007407143145" lon="100.21929458897746">
        <ele>2346.5912652594034</ele>
        <time>2026-08-24T12:23:43.462000Z</time>
      </trkpt>
      <trkpt lat="26.82628942666215" lon="100.21935264936488">
        <ele>2346.484067773754</ele>
        <time>2026-08-24T12:23:58.462000Z</time>
      </trkpt>
      <trkpt lat="26.826580441542163" lon="100.21940770592064">
        <ele>2345.7098914704643</ele>
        <time>2026-08-24T12:24:10.462000Z</time>
      </trkpt>
      <trkpt lat="26.82685647412134" lon="100.21947778013147">
        <ele>2345.6381138670813</ele>
        <time>2026-08-24T12:24:22.462000Z</time>
      </trkpt>
      <trkpt lat="26.82717850594527" lon="100.21955385993864">
        <ele>2344.8157673593287</ele>
        <time>2026-08-24T12:24:37.562000Z</time>
      </trkpt>
      <trkpt lat="26.827479533319572" lon="100.21962293199633">
        <ele>2346.1456409633247</ele>
        <time>2026-08-24T12:24:52.562000Z</time>
      </trkpt>
      <trkpt lat="26.827603542010237" lon="100.2196489588364">
        <ele>2346.2465159142785</ele>
        <time>2026-08-24T12:24:58.562000Z</time>
      </trkpt>
      <trkpt lat="26.82792558045757" lon="100.21973204622377">
        <ele>2344.9856117224776</ele>
        <time>2026-08-24T12:25:13.562000Z</time>
      </trkpt>
      <trkpt lat="26.828193599728163" lon="100.21978910490726">
        <ele>2345.6784531544286</ele>
        <time>2026-08-24T12:25:25.562000Z</time>
      </trkpt>
      <trkpt lat="26.82846962486762" lon="100.21985317128821">
        <ele>2345.257534360046</ele>
        <time>2026-08-24T12:25:37.562000Z</time>
      </trkpt>
      <trkpt lat="26.82878565518232" lon="100.21992824907848">
        <ele>2345.1724839977155</ele>
        <time>2026-08-24T12:25:52.562000Z</time>
      </trkpt>
      <trkpt lat="26.828933733896445" lon="100.22002635712018">
        <ele>2344.7492085311583</ele>
        <time>2026-08-24T12:26:04.562000Z</time>
      </trkpt>
      <trkpt lat="26.829038755180996" lon="100.22006239544072">
        <ele>2344.768680010853</ele>
        <time>2026-08-24T12:26:10.562000Z</time>
      </trkpt>
      <trkpt lat="26.829098739053595" lon="100.22005538595873">
        <ele>2344.5948091161104</ele>
        <time>2026-08-24T12:26:13.562000Z</time>
      </trkpt>
      <trkpt lat="26.82942077394919" lon="100.22013646985965">
        <ele>2344.5830774976903</ele>
        <time>2026-08-24T12:26:28.562000Z</time>
      </trkpt>
      <trkpt lat="26.829688853344077" lon="100.22025359561681">
        <ele>2345.926988127301</ele>
        <time>2026-08-24T12:26:40.562000Z</time>
      </trkpt>
      <trkpt lat="26.82994193753207" lon="100.22037372463573">
        <ele>2345.3467576447506</ele>
        <time>2026-08-24T12:26:52.562000Z</time>
      </trkpt>
      <trkpt lat="26.83023304987214" lon="100.22052789029503">
        <ele>2344.2748466041553</ele>
        <time>2026-08-24T12:27:07.562000Z</time>
      </trkpt>
      <trkpt lat="26.830509158602887" lon="100.22067704989404">
        <ele>2343.9226647272317</ele>
        <time>2026-08-24T12:27:22.562000Z</time>
      </trkpt>
      <trkpt lat="26.830772252490405" lon="100.22081019124981">
        <ele>2343.7602765726333</ele>
        <time>2026-08-24T12:27:34.562000Z</time>
      </trkpt>
      <trkpt lat="26.83101935314576" lon="100.22094833789102">
        <ele>2344.2564185192564</ele>
        <time>2026-08-24T12:27:46.562000Z</time>
      </trkpt>
      <trkpt lat="26.83128542841658" lon="100.2210644591388">
        <ele>2344.4319416252697</ele>
        <time>2026-08-24T12:27:58.562000Z</time>
      </trkpt>
      <trkpt lat="26.83147752625899" lon="100.22119259492445">
        <ele>2344.402273827829</ele>
        <time>2026-08-24T12:28:10.562000Z</time>
      </trkpt>
      <trkpt lat="26.83147752625899" lon="100.22119259492445">
        <ele>2344.402273827829</ele>
        <time>2026-08-24T12:28:15.562000Z</time>
      </trkpt>
    </trkseg>
  </trk>
</gpx>