<?xml version="1.0" encoding="UTF-8"?>
<gpx xmlns="http://www.topografix.com/GPX/1/1" xmlns:gpxtpx="http://www.garmin.com/xmlschemas/TrackPointExtension/v1" xmlns:xsi="http://www.w3.org/2001/XMLSchema-instance" xsi:schemaLocation="http://www.topografix.com/GPX/1/1 http://www.topografix.com/GPX/1/1/gpx.xsd" version="1.1" creator="gpx.py -- https://github.com/tkrajina/gpxpy">
  <trk>
    <name>gpx from keep</name>
    <type>Run</type>
    <trkseg>
      <trkpt lat="26.87491539624064" lon="100.23672685009583">
        <ele>2366.5440540211275</ele>
        <time>2026-08-02T14:41:45.060000Z</time>
      </trkpt>
      <trkpt lat="26.874936414169447" lon="100.2367758731245">
        <ele>2361.1461721369997</ele>
        <time>2026-08-02T14:41:54.060000Z</time>
      </trkpt>
      <trkpt lat="26.874980396587667" lon="100.23675486193008">
        <ele>2361.5910684109563</ele>
        <time>2026-08-02T14:42:15.060000Z</time>
      </trkpt>
      <trkpt lat="26.875021342349594" lon="100.23665081068265">
        <ele>2361.7402062280466</ele>
        <time>2026-08-02T14:42:30.060000Z</time>
      </trkpt>
      <trkpt lat="26.875054320415067" lon="100.23661579284965">
        <ele>2362.1615932453487</ele>
        <time>2026-08-02T14:42:42.060000Z</time>
      </trkpt>
      <trkpt lat="26.875092226491713" lon="100.23642469821512">
        <ele>2368.2590531163096</ele>
        <time>2026-08-02T14:43:06.060000Z</time>
      </trkpt>
      <trkpt lat="26.875140190422627" lon="100.23636566775924">
        <ele>2369.7140487213715</ele>
        <time>2026-08-02T14:43:21.060000Z</time>
      </trkpt>
      <trkpt lat="26.87525615442931" lon="100.23633464940801">
        <ele>2372.0531506445022</ele>
        <time>2026-08-02T14:43:36.060000Z</time>
      </trkpt>
      <trkpt lat="26.875312154547352" lon="100.23635765944248">
        <ele>2374.410359015285</ele>
        <time>2026-08-02T14:43:45.060000Z</time>
      </trkpt>
      <trkpt lat="26.875535103097608" lon="100.23633664336408">
        <ele>2375.5249088782857</ele>
        <time>2026-08-02T14:44:06.060000Z</time>
      </trkpt>
      <trkpt lat="26.875769995962518" lon="100.23620056930388">
        <ele>2374.21382430761</ele>
        <time>2026-08-02T14:44:33.060000Z</time>
      </trkpt>
      <trkpt lat="26.87586695674376" lon="100.23615554414303">
        <ele>2372.7615647084426</ele>
        <time>2026-08-02T14:44:54.060000Z</time>
      </trkpt>
      <trkpt lat="26.87591792607766" lon="100.23611052005846">
        <ele>2373.014213859837</ele>
        <time>2026-08-02T14:45:03.060000Z</time>
      </trkpt>
      <trkpt lat="26.87604189998093" lon="100.23610451388325">
        <ele>2374.983088973318</ele>
        <time>2026-08-02T14:45:15.060000Z</time>
      </trkpt>
      <trkpt lat="26.87609787864847" lon="100.23608150077959">
        <ele>2374.831797508128</ele>
        <time>2026-08-02T14:45:24.160000Z</time>
      </trkpt>
      <trkpt lat="26.87626984774473" lon="100.23608449796522">
        <ele>2373.2591151556226</ele>
        <time>2026-08-02T14:45:45.160000Z</time>
      </trkpt>
      <trkpt lat="26.87631381637243" lon="100.23603547188154">
        <ele>2372.894374379727</ele>
        <time>2026-08-02T14:46:00.160000Z</time>
      </trkpt>
      <trkpt lat="26.876285666174326" lon="100.23571030441573">
        <ele>2370.330696775306</ele>
        <time>2026-08-02T14:46:33.160000Z</time>
      </trkpt>
      <trkpt lat="26.876279573146476" lon="100.23551720261727">
        <ele>2370.125536568744</ele>
        <time>2026-08-02T14:46:57.160000Z</time>
      </trkpt>
      <trkpt lat="26.87619646424959" lon="100.23526606980738">
        <ele>2372.0131330677245</ele>
        <time>2026-08-02T14:47:21.160000Z</time>
      </trkpt>
      <trkpt lat="26.876187429299787" lon="100.23519303030805">
        <ele>2372.4070876070114</ele>
        <time>2026-08-02T14:47:27.160000Z</time>
      </trkpt>
      <trkpt lat="26.876219403127248" lon="100.23515300763867">
        <ele>2372.9870292804485</ele>
        <time>2026-08-02T14:47:30.160000Z</time>
      </trkpt>
      <trkpt lat="26.876201277642163" lon="100.2348998682797">
        <ele>2373.863531148825</ele>
        <time>2026-08-02T14:48:00.160000Z</time>
      </trkpt>
      <trkpt lat="26.876219244903584" lon="100.23484283595965">
        <ele>2371.958532489791</ele>
        <time>2026-08-02T14:48:06.160000Z</time>
      </trkpt>
      <trkpt lat="26.87619418428682" lon="100.23471676567304">
        <ele>2369.308039352677</ele>
        <time>2026-08-02T14:48:18.160000Z</time>
      </trkpt>
      <trkpt lat="26.876213147319326" lon="100.23465272892007">
        <ele>2369.9611869557</ele>
        <time>2026-08-02T14:48:24.160000Z</time>
      </trkpt>
      <trkpt lat="26.876195109270284" lon="100.23457368436567">
        <ele>2370.703023783729</ele>
        <time>2026-08-02T14:48:30.160000Z</time>
      </trkpt>
      <trkpt lat="26.876203078788233" lon="100.23451865267612">
        <ele>2371.071992369249</ele>
        <time>2026-08-02T14:48:36.160000Z</time>
      </trkpt>
      <trkpt lat="26.87598304531174" lon="100.2343775769351">
        <ele>2371.11396594578</ele>
        <time>2026-08-02T14:49:00.160000Z</time>
      </trkpt>
      <trkpt lat="26.875957019215303" lon="100.23431954391278">
        <ele>2370.3339650237626</ele>
        <time>2026-08-02T14:49:06.160000Z</time>
      </trkpt>
      <trkpt lat="26.875975983474362" lon="100.23425950844704">
        <ele>2371.407041614767</ele>
        <time>2026-08-02T14:49:18.160000Z</time>
      </trkpt>
      <trkpt lat="26.87594788978932" lon="100.2340764015282">
        <ele>2373.6297164733423</ele>
        <time>2026-08-02T14:49:36.160000Z</time>
      </trkpt>
      <trkpt lat="26.87589982063575" lon="100.23393331767753">
        <ele>2374.8021651961994</ele>
        <time>2026-08-02T14:49:51.160000Z</time>
      </trkpt>
      <trkpt lat="26.87585480047303" lon="100.23388128767274">
        <ele>2374.778339083884</ele>
        <time>2026-08-02T14:50:00.160000Z</time>
      </trkpt>
      <trkpt lat="26.87585177067161" lon="100.23382625468996">
        <ele>2375.3481421220076</ele>
        <time>2026-08-02T14:50:09.160000Z</time>
      </trkpt>
      <trkpt lat="26.875825743410214" lon="100.23376822034962">
        <ele>2374.4028854202834</ele>
        <time>2026-08-02T14:50:21.160000Z</time>
      </trkpt>
      <trkpt lat="26.875821666639528" lon="100.23362913601571">
        <ele>2373.810152875595</ele>
        <time>2026-08-02T14:50:33.260000Z</time>
      </trkpt>
      <trkpt lat="26.875786644586604" lon="100.23357810572024">
        <ele>2373.6188099565115</ele>
        <time>2026-08-02T14:50:39.260000Z</time>
      </trkpt>
      <trkpt lat="26.875750620370003" lon="100.23352307288475">
        <ele>2374.4068437300393</ele>
        <time>2026-08-02T14:51:00.260000Z</time>
      </trkpt>
      <trkpt lat="26.875726581897016" lon="100.23344702665753">
        <ele>2374.7204791074637</ele>
        <time>2026-08-02T14:51:06.260000Z</time>
      </trkpt>
      <trkpt lat="26.87566052941934" lon="100.23333295762916">
        <ele>2374.8649523258887</ele>
        <time>2026-08-02T14:51:18.260000Z</time>
      </trkpt>
      <trkpt lat="26.87561352508892" lon="100.23330994448808">
        <ele>2374.7036667247303</ele>
        <time>2026-08-02T14:51:24.260000Z</time>
      </trkpt>
      <trkpt lat="26.875597499453438" lon="100.23325991367008">
        <ele>2375.867518378843</ele>
        <time>2026-08-02T14:51:30.260000Z</time>
      </trkpt>
      <trkpt lat="26.875650375236614" lon="100.23306178768587">
        <ele>2375.069883306933</ele>
        <time>2026-08-02T14:51:48.260000Z</time>
      </trkpt>
      <trkpt lat="26.875636320773406" lon="100.23296372575118">
        <ele>2371.237844566702</ele>
        <time>2026-08-02T14:51:54.260000Z</time>
      </trkpt>
      <trkpt lat="26.87567127791551" lon="100.23290168525754">
        <ele>2368.79739100363</ele>
        <time>2026-08-02T14:52:00.260000Z</time>
      </trkpt>
      <trkpt lat="26.87577026931566" lon="100.23291869363447">
        <ele>2371.1593990559713</ele>
        <time>2026-08-02T14:52:21.260000Z</time>
      </trkpt>
      <trkpt lat="26.875817278060513" lon="100.23294871161275">
        <ele>2373.0446791124464</ele>
        <time>2026-08-02T14:52:33.260000Z</time>
      </trkpt>
      <trkpt lat="26.87593225531118" lon="100.23294670743275">
        <ele>2374.2271813882644</ele>
        <time>2026-08-02T14:52:45.260000Z</time>
      </trkpt>
      <trkpt lat="26.87598625511305" lon="100.23296371691453">
        <ele>2374.2821541397902</ele>
        <time>2026-08-02T14:52:51.260000Z</time>
      </trkpt>
      <trkpt lat="26.876046241510306" lon="100.23295971284892">
        <ele>2374.592612186801</ele>
        <time>2026-08-02T14:52:57.260000Z</time>
      </trkpt>
      <trkpt lat="26.876178180412353" lon="100.23289766989592">
        <ele>2379.0423400266923</ele>
        <time>2026-08-02T14:53:09.260000Z</time>
      </trkpt>
      <trkpt lat="26.87638717217353" lon="100.2329506984978">
        <ele>2376.81841950276</ele>
        <time>2026-08-02T14:53:33.260000Z</time>
      </trkpt>
      <trkpt lat="26.8765191192364" lon="100.23290266448727">
        <ele>2376.2050127235602</ele>
        <time>2026-08-02T14:53:45.260000Z</time>
      </trkpt>
      <trkpt lat="26.87658207801253" lon="100.23285263084027">
        <ele>2376.09695800773</ele>
        <time>2026-08-02T14:53:51.260000Z</time>
      </trkpt>
      <trkpt lat="26.87665004754934" lon="100.23282260984041">
        <ele>2376.4182322231504</ele>
        <time>2026-08-02T14:53:57.260000Z</time>
      </trkpt>
      <trkpt lat="26.876841015119968" lon="100.23282860887741">
        <ele>2378.2025933944483</ele>
        <time>2026-08-02T14:54:15.260000Z</time>
      </trkpt>
      <trkpt lat="26.876884992090382" lon="100.2328035916753">
        <ele>2378.8618047354344</ele>
        <time>2026-08-02T14:54:24.260000Z</time>
      </trkpt>
      <trkpt lat="26.876944985504323" lon="100.23281159531231">
        <ele>2377.8785639633657</ele>
        <time>2026-08-02T14:54:33.260000Z</time>
      </trkpt>
      <trkpt lat="26.876997963712636" lon="100.23279158108932">
        <ele>2377.3801565054987</ele>
        <time>2026-08-02T14:54:45.260000Z</time>
      </trkpt>
      <trkpt lat="26.877161938694066" lon="100.23280158339287">
        <ele>2377.728505825089</ele>
        <time>2026-08-02T14:54:57.260000Z</time>
      </trkpt>
      <trkpt lat="26.877189905044133" lon="100.2327535517152">
        <ele>2378.148215180628</ele>
        <time>2026-08-02T14:55:03.260000Z</time>
      </trkpt>
      <trkpt lat="26.87717787826231" lon="100.23270452030512">
        <ele>2377.88027912837</ele>
        <time>2026-08-02T14:55:09.260000Z</time>
      </trkpt>
      <trkpt lat="26.877453826174694" lon="100.23270451333612">
        <ele>2376.795820171641</ele>
        <time>2026-08-02T14:55:39.260000Z</time>
      </trkpt>
      <trkpt lat="26.877519811335702" lon="100.23270050907645">
        <ele>2375.9233891654094</ele>
        <time>2026-08-02T14:55:45.260000Z</time>
      </trkpt>
      <trkpt lat="26.87757781106208" lon="100.23271851927603">
        <ele>2374.900092827664</ele>
        <time>2026-08-02T14:55:54.360000Z</time>
      </trkpt>
      <trkpt lat="26.877691761603206" lon="100.23267148591337">
        <ele>2373.9668203555034</ele>
        <time>2026-08-02T14:56:09.360000Z</time>
      </trkpt>
      <trkpt lat="26.87776775377787" lon="100.23268249113703">
        <ele>2373.5434420373717</ele>
        <time>2026-08-02T14:56:15.360000Z</time>
      </trkpt>
      <trkpt lat="26.877959682926857" lon="100.2326244485717">
        <ele>2373.5121224227987</ele>
        <time>2026-08-02T14:56:33.360000Z</time>
      </trkpt>
      <trkpt lat="26.878099657624407" lon="100.23262644633947">
        <ele>2370.745929118542</ele>
        <time>2026-08-02T14:56:45.360000Z</time>
      </trkpt>
      <trkpt lat="26.878166636585387" lon="100.23261243552402">
        <ele>2371.6211450099204</ele>
        <time>2026-08-02T14:56:54.360000Z</time>
      </trkpt>
      <trkpt lat="26.87796669948207" lon="100.23265446792102">
        <ele>2369.5688533192906</ele>
        <time>2026-08-02T14:57:15.360000Z</time>
      </trkpt>
      <trkpt lat="26.87782672358163" lon="100.23265046885477">
        <ele>2369.731071566856</ele>
        <time>2026-08-02T14:57:24.360000Z</time>
      </trkpt>
      <trkpt lat="26.877710761580378" lon="100.23267748933023">
        <ele>2370.399076519397</ele>
        <time>2026-08-02T14:57:36.360000Z</time>
      </trkpt>
      <trkpt lat="26.877644771675097" lon="100.23267348839917">
        <ele>2370.605530152678</ele>
        <time>2026-08-02T14:57:42.360000Z</time>
      </trkpt>
      <trkpt lat="26.877764735900143" lon="100.2326514710707">
        <ele>2369.236298206699</ele>
        <time>2026-08-02T14:58:06.360000Z</time>
      </trkpt>
      <trkpt lat="26.877844701100276" lon="100.23261844756591">
        <ele>2370.643661180067</ele>
        <time>2026-08-02T14:58:12.360000Z</time>
      </trkpt>
      <trkpt lat="26.878104650711506" lon="100.23261643969715">
        <ele>2370.9429714967955</ele>
        <time>2026-08-02T14:58:33.360000Z</time>
      </trkpt>
      <trkpt lat="26.878214609570477" lon="100.23258241473435">
        <ele>2371.5002283623976</ele>
        <time>2026-08-02T14:58:42.360000Z</time>
      </trkpt>
      <trkpt lat="26.878501553988873" lon="100.23258040618072">
        <ele>2374.471326955429</ele>
        <time>2026-08-02T14:59:06.360000Z</time>
      </trkpt>
      <trkpt lat="26.878774499807104" lon="100.23257639667358">
        <ele>2373.0589605105192</ele>
        <time>2026-08-02T14:59:27.360000Z</time>
      </trkpt>
      <trkpt lat="26.878844477541087" lon="100.23256138509963">
        <ele>2373.7038120222583</ele>
        <time>2026-08-02T14:59:33.360000Z</time>
      </trkpt>
      <trkpt lat="26.87889043641934" lon="100.23250734855921">
        <ele>2376.6564259956303</ele>
        <time>2026-08-02T14:59:36.360000Z</time>
      </trkpt>
      <trkpt lat="26.879147405599344" lon="100.23253736173903">
        <ele>2375.085306314446</ele>
        <time>2026-08-02T15:00:00.360000Z</time>
      </trkpt>
      <trkpt lat="26.879181418905446" lon="100.23257038247463">
        <ele>2375.3511666291834</ele>
        <time>2026-08-02T15:00:03.360000Z</time>
      </trkpt>
      <trkpt lat="26.879446338533178" lon="100.23252034304694">
        <ele>2375.14383649474</ele>
        <time>2026-08-02T15:00:24.360000Z</time>
      </trkpt>
      <trkpt lat="26.879531304330612" lon="100.23249032120992">
        <ele>2374.1048727262873</ele>
        <time>2026-08-02T15:00:30.360000Z</time>
      </trkpt>
      <trkpt lat="26.879622243613777" lon="100.23241827150466">
        <ele>2375.951772485207</ele>
        <time>2026-08-02T15:00:39.460000Z</time>
      </trkpt>
      <trkpt lat="26.879737102034127" lon="100.2322211378077">
        <ele>2376.137656740669</ele>
        <time>2026-08-02T15:00:57.460000Z</time>
      </trkpt>
      <trkpt lat="26.87975297606103" lon="100.23202100300081">
        <ele>2374.672917368906</ele>
        <time>2026-08-02T15:01:12.460000Z</time>
      </trkpt>
      <trkpt lat="26.879747746450846" lon="100.23165175088228">
        <ele>2383.2899972936625</ele>
        <time>2026-08-02T15:01:42.460000Z</time>
      </trkpt>
      <trkpt lat="26.87976664707503" lon="100.23150064558543">
        <ele>2381.656120498609</ele>
        <time>2026-08-02T15:01:54.460000Z</time>
      </trkpt>
      <trkpt lat="26.879745609605628" lon="100.2314356007112">
        <ele>2378.065082771513</ele>
        <time>2026-08-02T15:02:03.460000Z</time>
      </trkpt>
      <trkpt lat="26.87982058764199" lon="100.2314235904157">
        <ele>2378.099268280141</ele>
        <time>2026-08-02T15:02:45.460000Z</time>
      </trkpt>
      <trkpt lat="26.87988114677182" lon="100.23076411856431">
        <ele>2388.622459150851</ele>
        <time>2026-08-02T15:03:49.060000Z</time>
      </trkpt>
      <trkpt lat="26.87992812653416" lon="100.2307471050124">
        <ele>2386.7576413014904</ele>
        <time>2026-08-02T15:03:58.060000Z</time>
      </trkpt>
      <trkpt lat="26.87988815140389" lon="100.23077312492873">
        <ele>2385.942087206906</ele>
        <time>2026-08-02T15:04:16.060000Z</time>
      </trkpt>
      <trkpt lat="26.87974616188458" lon="100.2307481103377">
        <ele>2384.695255593028</ele>
        <time>2026-08-02T15:04:34.060000Z</time>
      </trkpt>
      <trkpt lat="26.87969515433282" lon="100.230722092694">
        <ele>2383.395514773748</ele>
        <time>2026-08-02T15:04:40.060000Z</time>
      </trkpt>
      <trkpt lat="26.87964112801158" lon="100.23066705391975">
        <ele>2382.813283756244</ele>
        <time>2026-08-02T15:04:46.060000Z</time>
      </trkpt>
      <trkpt lat="26.879618101024704" lon="100.23062002010407">
        <ele>2382.750453833417</ele>
        <time>2026-08-02T15:04:49.060000Z</time>
      </trkpt>
      <trkpt lat="26.879390990956214" lon="100.23039185771557">
        <ele>2381.036618407831</ele>
        <time>2026-08-02T15:05:19.060000Z</time>
      </trkpt>
      <trkpt lat="26.879347925208254" lon="100.23028277768823">
        <ele>2378.8115932002133</ele>
        <time>2026-08-02T15:05:34.060000Z</time>
      </trkpt>
      <trkpt lat="26.879295914677854" lon="100.23025275659327">
        <ele>2378.5398639952427</ele>
        <time>2026-08-02T15:05:40.060000Z</time>
      </trkpt>
      <trkpt lat="26.87926087561158" lon="100.23018570730092">
        <ele>2378.506888222548</ele>
        <time>2026-08-02T15:05:46.060000Z</time>
      </trkpt>
      <trkpt lat="26.879068789175722" lon="100.23000657721393">
        <ele>2377.868795941838</ele>
        <time>2026-08-02T15:06:10.060000Z</time>
      </trkpt>
      <trkpt lat="26.879020744372564" lon="100.22992851922487">
        <ele>2377.7747372445206</ele>
        <time>2026-08-02T15:06:16.060000Z</time>
      </trkpt>
      <trkpt lat="26.87890371384826" lon="100.22985246426262">
        <ele>2378.028678769841</ele>
        <time>2026-08-02T15:06:28.060000Z</time>
      </trkpt>
      <trkpt lat="26.878694594758265" lon="100.22962529517342">
        <ele>2374.522684239652</ele>
        <time>2026-08-02T15:06:52.060000Z</time>
      </trkpt>
      <trkpt lat="26.87858253063563" lon="100.22950420421523">
        <ele>2374.084820658569</ele>
        <time>2026-08-02T15:07:04.060000Z</time>
      </trkpt>
      <trkpt lat="26.878454508833656" lon="100.22943915682599">
        <ele>2374.2513050810676</ele>
        <time>2026-08-02T15:07:16.060000Z</time>
      </trkpt>
      <trkpt lat="26.87822439322011" lon="100.22921598767861">
        <ele>2373.758854276267</ele>
        <time>2026-08-02T15:07:40.060000Z</time>
      </trkpt>
      <trkpt lat="26.87804330785051" lon="100.22904986072689">
        <ele>2372.6624073396147</ele>
        <time>2026-08-02T15:07:58.060000Z</time>
      </trkpt>
      <trkpt lat="26.877995272001996" lon="100.2289878125345">
        <ele>2372.2166764035715</ele>
        <time>2026-08-02T15:08:04.060000Z</time>
      </trkpt>
      <trkpt lat="26.877942258786344" lon="100.22895578831447">
        <ele>2372.7365325955698</ele>
        <time>2026-08-02T15:08:10.060000Z</time>
      </trkpt>
      <trkpt lat="26.87778814549597" lon="100.22876063557403">
        <ele>2376.1268321757366</ele>
        <time>2026-08-02T15:08:28.160000Z</time>
      </trkpt>
      <trkpt lat="26.87771813155629" lon="100.22872360745264">
        <ele>2377.254883687883</ele>
        <time>2026-08-02T15:08:34.160000Z</time>
      </trkpt>
      <trkpt lat="26.877633043630457" lon="100.22858249519606">
        <ele>2379.4351396170764</ele>
        <time>2026-08-02T15:08:46.160000Z</time>
      </trkpt>
      <trkpt lat="26.8773989368898" lon="100.22837933501573">
        <ele>2378.2687782009857</ele>
        <time>2026-08-02T15:09:10.160000Z</time>
      </trkpt>
      <trkpt lat="26.877191825085895" lon="100.22817817418283">
        <ele>2377.784648985469</ele>
        <time>2026-08-02T15:09:34.160000Z</time>
      </trkpt>
      <trkpt lat="26.87710374411627" lon="100.22804906898716">
        <ele>2377.5908133657963</ele>
        <time>2026-08-02T15:09:46.160000Z</time>
      </trkpt>
      <trkpt lat="26.876985711654225" lon="100.22797701172881">
        <ele>2377.8064056235107</ele>
        <time>2026-08-02T15:09:55.160000Z</time>
      </trkpt>
      <trkpt lat="26.876768557331694" lon="100.22772180221736">
        <ele>2377.6893120632017</ele>
        <time>2026-08-02T15:10:25.160000Z</time>
      </trkpt>
      <trkpt lat="26.876728513200234" lon="100.22765474631449">
        <ele>2377.910408617076</ele>
        <time>2026-08-02T15:10:31.160000Z</time>
      </trkpt>
      <trkpt lat="26.87659347749521" lon="100.22757568239271">
        <ele>2377.5731676751475</ele>
        <time>2026-08-02T15:10:43.160000Z</time>
      </trkpt>
      <trkpt lat="26.876471428223546" lon="100.22748260589543">
        <ele>2377.57114248586</ele>
        <time>2026-08-02T15:10:55.160000Z</time>
      </trkpt>
      <trkpt lat="26.87643437906109" lon="100.22741054498623">
        <ele>2378.1136052680113</ele>
        <time>2026-08-02T15:11:04.160000Z</time>
      </trkpt>
      <trkpt lat="26.876408122058105" lon="100.22707725696822">
        <ele>2382.5863331392493</ele>
        <time>2026-08-02T15:11:25.160000Z</time>
      </trkpt>
      <trkpt lat="26.876385861281257" lon="100.22674496539666">
        <ele>2385.199786493252</ele>
        <time>2026-08-02T15:11:49.160000Z</time>
      </trkpt>
      <trkpt lat="26.876384820438588" lon="100.22669392016559">
        <ele>2385.5800693095416</ele>
        <time>2026-08-02T15:11:52.160000Z</time>
      </trkpt>
      <trkpt lat="26.876358785821164" lon="100.22664487724586">
        <ele>2385.8584341851483</ele>
        <time>2026-08-02T15:11:55.160000Z</time>
      </trkpt>
      <trkpt lat="26.876353667748848" lon="100.22649774607967">
        <ele>2387.696694564428</ele>
        <time>2026-08-02T15:12:07.160000Z</time>
      </trkpt>
      <trkpt lat="26.87637661707741" lon="100.22644069436238">
        <ele>2387.559921306805</ele>
        <time>2026-08-02T15:12:13.160000Z</time>
      </trkpt>
      <trkpt lat="26.87636650219293" lon="100.22629756577126">
        <ele>2388.635035760661</ele>
        <time>2026-08-02T15:12:25.160000Z</time>
      </trkpt>
      <trkpt lat="26.876347446709357" lon="100.2262255010785">
        <ele>2388.5720001991676</ele>
        <time>2026-08-02T15:12:31.160000Z</time>
      </trkpt>
      <trkpt lat="26.87635840434921" lon="100.22617645633127">
        <ele>2388.004818948039</ele>
        <time>2026-08-02T15:12:37.160000Z</time>
      </trkpt>
      <trkpt lat="26.876349364017333" lon="100.22612541017578">
        <ele>2386.795139291771</ele>
        <time>2026-08-02T15:12:43.160000Z</time>
      </trkpt>
      <trkpt lat="26.876342060306573" lon="100.22575807360485">
        <ele>2382.930139979017</ele>
        <time>2026-08-02T15:13:13.160000Z</time>
      </trkpt>
      <trkpt lat="26.876274938481778" lon="100.22559792685796">
        <ele>2386.586851155741</ele>
        <time>2026-08-02T15:13:25.160000Z</time>
      </trkpt>
      <trkpt lat="26.876292660235613" lon="100.2252736227853">
        <ele>2385.2142763358884</ele>
        <time>2026-08-02T15:13:49.160000Z</time>
      </trkpt>
      <trkpt lat="26.87626134522435" lon="100.22490026903606">
        <ele>2380.8351543106687</ele>
        <time>2026-08-02T15:14:22.260000Z</time>
      </trkpt>
      <trkpt lat="26.876269142668207" lon="100.22466904659589">
        <ele>2380.5583224414127</ele>
        <time>2026-08-02T15:14:40.260000Z</time>
      </trkpt>
      <trkpt lat="26.876241863603482" lon="100.22434573311202">
        <ele>2380.701734042123</ele>
        <time>2026-08-02T15:15:04.260000Z</time>
      </trkpt>
      <trkpt lat="26.876241713539812" lon="100.22417656714899">
        <ele>2381.639391029414</ele>
        <time>2026-08-02T15:15:13.260000Z</time>
      </trkpt>
      <trkpt lat="26.876321613728212" lon="100.22408147135492">
        <ele>2382.4689670908547</ele>
        <time>2026-08-02T15:15:28.260000Z</time>
      </trkpt>
      <trkpt lat="26.876372596987533" lon="100.2240734621524">
        <ele>2382.100127132903</ele>
        <time>2026-08-02T15:15:37.260000Z</time>
      </trkpt>
      <trkpt lat="26.87639355097303" lon="100.22402641508852">
        <ele>2382.1257341585188</ele>
        <time>2026-08-02T15:15:43.260000Z</time>
      </trkpt>
      <trkpt lat="26.876363599573867" lon="100.22407446336928">
        <ele>2378.833990321504</ele>
        <time>2026-08-02T15:16:16.260000Z</time>
      </trkpt>
      <trkpt lat="26.87635067612127" lon="100.22415754566453">
        <ele>2378.8302585108027</ele>
        <time>2026-08-02T15:16:28.260000Z</time>
      </trkpt>
      <trkpt lat="26.87632462478301" lon="100.22409448413094">
        <ele>2380.3440073838747</ele>
        <time>2026-08-02T15:17:34.260000Z</time>
      </trkpt>
      <trkpt lat="26.876262597983576" lon="100.224051443165">
        <ele>2380.450376571483</ele>
        <time>2026-08-02T15:17:58.260000Z</time>
      </trkpt>
      <trkpt lat="26.876345957892852" lon="100.22407493080098">
        <ele>2380.5168425243282</ele>
        <time>2026-08-02T15:18:01.260000Z</time>
      </trkpt>
      <trkpt lat="26.876407636861412" lon="100.22412551265184">
        <ele>2380.8872584116666</ele>
        <time>2026-08-02T15:18:16.560000Z</time>
      </trkpt>
      <trkpt lat="26.87636163390535" lon="100.22411250097912">
        <ele>2379.6030673382993</ele>
        <time>2026-08-02T15:18:43.260000Z</time>
      </trkpt>
      <trkpt lat="26.876342588315655" lon="100.22405744708007">
        <ele>2379.60614315367</ele>
        <time>2026-08-02T15:18:46.260000Z</time>
      </trkpt>
      <trkpt lat="26.876355527640918" lon="100.22399238233594">
        <ele>2379.9734590356907</ele>
        <time>2026-08-02T15:19:10.360000Z</time>
      </trkpt>
      <trkpt lat="26.87637551221758" lon="100.22397936892759">
        <ele>2379.8548996279214</ele>
        <time>2026-08-02T15:19:16.360000Z</time>
      </trkpt>
    </trkseg>
  </trk>
</gpx>