<?xml version="1.0" encoding="UTF-8"?>
<gpx xmlns="http://www.topografix.com/GPX/1/1" xmlns:gpxtpx="http://www.garmin.com/xmlschemas/TrackPointExtension/v1" xmlns:xsi="http://www.w3.org/2001/XMLSchema-instance" xsi:schemaLocation="http://www.topografix.com/GPX/1/1 http://www.topografix.com/GPX/1/1/gpx.xsd" version="1.1" creator="gpx.py -- https://github.com/tkrajina/gpxpy">
  <trk>
    <name>gpx from keep</name>
    <type>Run</type>
    <trkseg>
      <trkpt lat="26.824170543283124" lon="100.22013359928638">
        <ele>2363.0374114038423</ele>
        <time>2026-09-03T01:48:48.995000Z</time>
      </trkpt>
      <trkpt lat="26.82449253958073" lon="100.22017563877878">
        <ele>2361.3516908331953</ele>
        <time>2026-09-03T01:49:00.995000Z</time>
      </trkpt>
      <trkpt lat="26.82481654257976" lon="100.22022468607942">
        <ele>2356.806598341379</ele>
        <time>2026-09-03T01:49:12.995000Z</time>
      </trkpt>
      <trkpt lat="26.824935558932978" lon="100.22025772039518">
        <ele>2356.6324139469903</ele>
        <time>2026-09-03T01:49:18.995000Z</time>
      </trkpt>
      <trkpt lat="26.82492087452055" lon="100.22056706835768">
        <ele>2351.4166018350707</ele>
        <time>2026-09-03T01:49:30.995000Z</time>
      </trkpt>
      <trkpt lat="26.82490823767313" lon="100.22092746924504">
        <ele>2353.563429603868</ele>
        <time>2026-09-03T01:49:45.995000Z</time>
      </trkpt>
      <trkpt lat="26.824924613124853" lon="100.22130888759355">
        <ele>2351.3435157313575</ele>
        <time>2026-09-03T01:50:00.995000Z</time>
      </trkpt>
      <trkpt lat="26.82492497938262" lon="100.22168329345737">
        <ele>2349.0850928422547</ele>
        <time>2026-09-03T01:50:15.995000Z</time>
      </trkpt>
      <trkpt lat="26.82493131232738" lon="100.22202866311446">
        <ele>2348.4489635656782</ele>
        <time>2026-09-03T01:50:27.995000Z</time>
      </trkpt>
      <trkpt lat="26.82492165986055" lon="100.22239104664845">
        <ele>2351.872150652637</ele>
        <time>2026-09-03T01:50:39.995000Z</time>
      </trkpt>
      <trkpt lat="26.824936994761547" lon="100.22274841947312">
        <ele>2350.6754882110995</ele>
        <time>2026-09-03T01:50:51.995000Z</time>
      </trkpt>
      <trkpt lat="26.824931314609852" lon="100.22309077267472">
        <ele>2350.8732113611177</ele>
        <time>2026-09-03T01:51:03.995000Z</time>
      </trkpt>
      <trkpt lat="26.824931479094662" lon="100.2232689546883">
        <ele>2349.186715071432</ele>
        <time>2026-09-03T01:51:09.995000Z</time>
      </trkpt>
      <trkpt lat="26.82493178398552" lon="100.22360229199242">
        <ele>2351.051422566589</ele>
        <time>2026-09-03T01:51:21.995000Z</time>
      </trkpt>
      <trkpt lat="26.82493706736998" lon="100.22391660608739">
        <ele>2349.793882901959</ele>
        <time>2026-09-03T01:51:33.995000Z</time>
      </trkpt>
      <trkpt lat="26.824945366574102" lon="100.22425293798237">
        <ele>2351.0479579603284</ele>
        <time>2026-09-03T01:51:45.995000Z</time>
      </trkpt>
      <trkpt lat="26.824927699075317" lon="100.22462730304122">
        <ele>2350.686895709121</ele>
        <time>2026-09-03T01:52:00.995000Z</time>
      </trkpt>
      <trkpt lat="26.824970903767145" lon="100.22486953503027">
        <ele>2349.132375572805</ele>
        <time>2026-09-03T01:52:09.995000Z</time>
      </trkpt>
      <trkpt lat="26.824964187537955" lon="100.2251978475306">
        <ele>2347.1543117240235</ele>
        <time>2026-09-03T01:52:21.995000Z</time>
      </trkpt>
      <trkpt lat="26.8249564559715" lon="100.22551214285365">
        <ele>2345.9456242107462</ele>
        <time>2026-09-03T01:52:33.995000Z</time>
      </trkpt>
      <trkpt lat="26.824965752795347" lon="100.22586747170605">
        <ele>2346.756106294994</ele>
        <time>2026-09-03T01:52:48.995000Z</time>
      </trkpt>
      <trkpt lat="26.824970046049074" lon="100.22622279581165">
        <ele>2344.387639951835</ele>
        <time>2026-09-03T01:53:03.995000Z</time>
      </trkpt>
      <trkpt lat="26.824953316176718" lon="100.22655109144378">
        <ele>2345.462700446009</ele>
        <time>2026-09-03T01:53:19.095000Z</time>
      </trkpt>
      <trkpt lat="26.82489959198649" lon="100.22688438822631">
        <ele>2346.893590279863</ele>
        <time>2026-09-03T01:53:31.095000Z</time>
      </trkpt>
      <trkpt lat="26.82490370768459" lon="100.22703051628417">
        <ele>2345.993745172592</ele>
        <time>2026-09-03T01:53:37.095000Z</time>
      </trkpt>
      <trkpt lat="26.82492377608975" lon="100.22712059436628">
        <ele>2346.061646370336</ele>
        <time>2026-09-03T01:53:40.095000Z</time>
      </trkpt>
      <trkpt lat="26.824921852139838" lon="100.22721667789351">
        <ele>2347.2805499832602</ele>
        <time>2026-09-03T01:53:43.095000Z</time>
      </trkpt>
      <trkpt lat="26.824820138148233" lon="100.22756397918921">
        <ele>2347.682625121867</ele>
        <time>2026-09-03T01:53:55.095000Z</time>
      </trkpt>
      <trkpt lat="26.824735372402202" lon="100.22785222567293">
        <ele>2346.4474077908794</ele>
        <time>2026-09-03T01:54:07.095000Z</time>
      </trkpt>
      <trkpt lat="26.824689482869864" lon="100.22798834108086">
        <ele>2345.239321649716</ele>
        <time>2026-09-03T01:54:13.095000Z</time>
      </trkpt>
      <trkpt lat="26.824654761072868" lon="100.22835064250647">
        <ele>2344.226468551704</ele>
        <time>2026-09-03T01:54:25.095000Z</time>
      </trkpt>
      <trkpt lat="26.824592003421106" lon="100.22866490059029">
        <ele>2344.5603479274437</ele>
        <time>2026-09-03T01:54:37.095000Z</time>
      </trkpt>
      <trkpt lat="26.82452623694131" lon="100.22897114845283">
        <ele>2342.1591714115184</ele>
        <time>2026-09-03T01:54:49.095000Z</time>
      </trkpt>
      <trkpt lat="26.824456320288565" lon="100.22907223066328">
        <ele>2341.8777484870543</ele>
        <time>2026-09-03T01:54:55.095000Z</time>
      </trkpt>
      <trkpt lat="26.824360545942366" lon="100.22936746572107">
        <ele>2344.378752973853</ele>
        <time>2026-09-03T01:55:07.095000Z</time>
      </trkpt>
      <trkpt lat="26.824261778787516" lon="100.2296767081722">
        <ele>2343.466920163113</ele>
        <time>2026-09-03T01:55:19.095000Z</time>
      </trkpt>
      <trkpt lat="26.824145017076408" lon="100.22999495407952">
        <ele>2343.418055883729</ele>
        <time>2026-09-03T01:55:31.095000Z</time>
      </trkpt>
      <trkpt lat="26.824035254160506" lon="100.23031819948014">
        <ele>2344.1042661907263</ele>
        <time>2026-09-03T01:55:46.095000Z</time>
      </trkpt>
      <trkpt lat="26.823926479377512" lon="100.2306294318795">
        <ele>2343.6918064654847</ele>
        <time>2026-09-03T01:56:01.095000Z</time>
      </trkpt>
      <trkpt lat="26.8238037077661" lon="100.23094766577196">
        <ele>2343.120214596404</ele>
        <time>2026-09-03T01:56:13.095000Z</time>
      </trkpt>
      <trkpt lat="26.823692906905965" lon="100.23122886911078">
        <ele>2340.0865485654217</ele>
        <time>2026-09-03T01:56:25.095000Z</time>
      </trkpt>
      <trkpt lat="26.823637989612276" lon="100.23134495235146">
        <ele>2342.7500255576206</ele>
        <time>2026-09-03T01:56:31.095000Z</time>
      </trkpt>
      <trkpt lat="26.823582167332074" lon="100.23161113940473">
        <ele>2347.062970295744</ele>
        <time>2026-09-03T01:56:40.095000Z</time>
      </trkpt>
      <trkpt lat="26.82346238721941" lon="100.23193436399208">
        <ele>2345.7585717570696</ele>
        <time>2026-09-03T01:56:55.095000Z</time>
      </trkpt>
      <trkpt lat="26.823432435572407" lon="100.23200541288246">
        <ele>2345.2960344898784</ele>
        <time>2026-09-03T01:56:58.095000Z</time>
      </trkpt>
      <trkpt lat="26.82337864805281" lon="100.23233963792403">
        <ele>2343.8368787173654</ele>
        <time>2026-09-03T01:57:10.095000Z</time>
      </trkpt>
      <trkpt lat="26.823325865886858" lon="100.2326898687747">
        <ele>2342.6591349025616</ele>
        <time>2026-09-03T01:57:25.095000Z</time>
      </trkpt>
      <trkpt lat="26.823346050745556" lon="100.23300907309613">
        <ele>2342.357581229152</ele>
        <time>2026-09-03T01:57:37.095000Z</time>
      </trkpt>
      <trkpt lat="26.823333218380732" lon="100.2332962541415">
        <ele>2345.0410611595203</ele>
        <time>2026-09-03T01:57:49.195000Z</time>
      </trkpt>
      <trkpt lat="26.823306295803455" lon="100.23342533494998">
        <ele>2347.7875145483235</ele>
        <time>2026-09-03T01:57:55.195000Z</time>
      </trkpt>
      <trkpt lat="26.823288465962435" lon="100.23372351789205">
        <ele>2347.1551103336083</ele>
        <time>2026-09-03T01:58:07.195000Z</time>
      </trkpt>
    </trkseg>
  </trk>
</gpx>