<?xml version="1.0" encoding="UTF-8"?>
<gpx xmlns="http://www.topografix.com/GPX/1/1" xmlns:gpxtpx="http://www.garmin.com/xmlschemas/TrackPointExtension/v1" xmlns:xsi="http://www.w3.org/2001/XMLSchema-instance" xsi:schemaLocation="http://www.topografix.com/GPX/1/1 http://www.topografix.com/GPX/1/1/gpx.xsd" version="1.1" creator="gpx.py -- https://github.com/tkrajina/gpxpy">
  <trk>
    <name>gpx from keep</name>
    <type>Run</type>
    <trkseg>
      <trkpt lat="26.822730897172463" lon="100.21399901925625">
        <ele>2347.940176240945</ele>
        <time>2026-08-16T01:30:31.898000Z</time>
      </trkpt>
      <trkpt lat="26.822887834671825" lon="100.21396597077282">
        <ele>2347.5157020138618</ele>
        <time>2026-08-16T01:30:37.898000Z</time>
      </trkpt>
      <trkpt lat="26.823141842997074" lon="100.21400301422757">
        <ele>2346.794976057596</ele>
        <time>2026-08-16T01:30:49.898000Z</time>
      </trkpt>
      <trkpt lat="26.823426724434427" lon="100.21393892066823">
        <ele>2346.375668431427</ele>
        <time>2026-08-16T01:31:04.898000Z</time>
      </trkpt>
      <trkpt lat="26.82373159307524" lon="100.21386681564726">
        <ele>2346.5248949145916</ele>
        <time>2026-08-16T01:31:19.898000Z</time>
      </trkpt>
      <trkpt lat="26.82402148554687" lon="100.21381273521538">
        <ele>2345.4448604037093</ele>
        <time>2026-08-16T01:31:31.898000Z</time>
      </trkpt>
      <trkpt lat="26.824352337806275" lon="100.2137306156663">
        <ele>2344.341327212963</ele>
        <time>2026-08-16T01:31:46.898000Z</time>
      </trkpt>
      <trkpt lat="26.824654245239003" lon="100.21369055370494">
        <ele>2344.4558221329976</ele>
        <time>2026-08-16T01:32:01.898000Z</time>
      </trkpt>
      <trkpt lat="26.824952134806086" lon="100.21363547139468">
        <ele>2345.365170734052</ele>
        <time>2026-08-16T01:32:16.898000Z</time>
      </trkpt>
      <trkpt lat="26.825250029096658" lon="100.21358439443144">
        <ele>2344.37127224658</ele>
        <time>2026-08-16T01:32:31.898000Z</time>
      </trkpt>
      <trkpt lat="26.825556942727857" lon="100.2135503403273">
        <ele>2343.903339361716</ele>
        <time>2026-08-16T01:32:46.898000Z</time>
      </trkpt>
      <trkpt lat="26.82586881874963" lon="100.21348624512342">
        <ele>2345.0887492264455</ele>
        <time>2026-08-16T01:33:04.898000Z</time>
      </trkpt>
      <trkpt lat="26.82613973002633" lon="100.21344618362473">
        <ele>2345.128440412611</ele>
        <time>2026-08-16T01:33:19.998000Z</time>
      </trkpt>
      <trkpt lat="26.82641966074242" lon="100.21342314508955">
        <ele>2344.3905977245477</ele>
        <time>2026-08-16T01:33:34.998000Z</time>
      </trkpt>
      <trkpt lat="26.826692564144498" lon="100.21337707524589">
        <ele>2344.6419863541764</ele>
        <time>2026-08-16T01:33:49.998000Z</time>
      </trkpt>
      <trkpt lat="26.827014428206063" lon="100.21330496845619">
        <ele>2344.8720388205693</ele>
        <time>2026-08-16T01:34:07.998000Z</time>
      </trkpt>
      <trkpt lat="26.82728130137351" lon="100.21323386426423">
        <ele>2345.348138951336</ele>
        <time>2026-08-16T01:34:22.998000Z</time>
      </trkpt>
      <trkpt lat="26.82756620007037" lon="100.21318579108008">
        <ele>2344.613456613293</ele>
        <time>2026-08-16T01:34:37.998000Z</time>
      </trkpt>
      <trkpt lat="26.827876123341934" lon="100.21316074883494">
        <ele>2344.3544701728756</ele>
        <time>2026-08-16T01:34:52.998000Z</time>
      </trkpt>
      <trkpt lat="26.828191032171315" lon="100.2131246912989">
        <ele>2344.4944661513396</ele>
        <time>2026-08-16T01:35:07.998000Z</time>
      </trkpt>
      <trkpt lat="26.82848692389938" lon="100.21307261214949">
        <ele>2345.361261236959</ele>
        <time>2026-08-16T01:35:22.998000Z</time>
      </trkpt>
      <trkpt lat="26.828795808578707" lon="100.21301652706022">
        <ele>2344.689798745808</ele>
        <time>2026-08-16T01:35:37.998000Z</time>
      </trkpt>
      <trkpt lat="26.82907971170001" lon="100.21297245908659">
        <ele>2344.3525617301966</ele>
        <time>2026-08-16T01:35:52.998000Z</time>
      </trkpt>
      <trkpt lat="26.829358598052607" lon="100.21291437180744">
        <ele>2344.7017961595598</ele>
        <time>2026-08-16T01:36:07.998000Z</time>
      </trkpt>
      <trkpt lat="26.829648503734493" lon="100.21287330768982">
        <ele>2343.6260734369653</ele>
        <time>2026-08-16T01:36:22.998000Z</time>
      </trkpt>
      <trkpt lat="26.82991740248389" lon="100.21282423295773">
        <ele>2344.306165472727</ele>
        <time>2026-08-16T01:36:37.998000Z</time>
      </trkpt>
      <trkpt lat="26.830227273754275" lon="100.21275813350182">
        <ele>2343.693422110668</ele>
        <time>2026-08-16T01:36:55.998000Z</time>
      </trkpt>
      <trkpt lat="26.830441999054386" lon="100.21256385800665">
        <ele>2342.8365087340558</ele>
        <time>2026-08-16T01:37:10.998000Z</time>
      </trkpt>
      <trkpt lat="26.830592640984406" lon="100.21229648052856">
        <ele>2342.2060651013803</ele>
        <time>2026-08-16T01:37:25.998000Z</time>
      </trkpt>
      <trkpt lat="26.830745285639342" lon="100.212033106349">
        <ele>2343.471114958419</ele>
        <time>2026-08-16T01:37:40.998000Z</time>
      </trkpt>
      <trkpt lat="26.830924897474894" lon="100.21174869942278">
        <ele>2344.2515275659603</ele>
        <time>2026-08-16T01:37:55.998000Z</time>
      </trkpt>
      <trkpt lat="26.831083533278676" lon="100.2114823161938">
        <ele>2344.71036250734</ele>
        <time>2026-08-16T01:38:10.998000Z</time>
      </trkpt>
      <trkpt lat="26.831259134833104" lon="100.21119289719624">
        <ele>2345.8894729358485</ele>
        <time>2026-08-16T01:38:25.998000Z</time>
      </trkpt>
      <trkpt lat="26.831419750590886" lon="100.21091449186453">
        <ele>2347.1437226954517</ele>
        <time>2026-08-16T01:38:40.998000Z</time>
      </trkpt>
      <trkpt lat="26.831577399897586" lon="100.2106631234892">
        <ele>2346.5351026900853</ele>
        <time>2026-08-16T01:38:56.098000Z</time>
      </trkpt>
      <trkpt lat="26.831794007003474" lon="100.21038771651078">
        <ele>2345.0322805619085</ele>
        <time>2026-08-16T01:39:11.098000Z</time>
      </trkpt>
      <trkpt lat="26.831952622117463" lon="100.21011331012187">
        <ele>2344.880567858773</ele>
        <time>2026-08-16T01:39:26.098000Z</time>
      </trkpt>
      <trkpt lat="26.83209224601547" lon="100.20984491077502">
        <ele>2344.6673130673776</ele>
        <time>2026-08-16T01:39:41.098000Z</time>
      </trkpt>
      <trkpt lat="26.832274853404304" lon="100.20957049918499">
        <ele>2344.0903564022865</ele>
        <time>2026-08-16T01:39:56.098000Z</time>
      </trkpt>
      <trkpt lat="26.83242649030074" lon="100.20931611602924">
        <ele>2344.9024769448606</ele>
        <time>2026-08-16T01:40:11.098000Z</time>
      </trkpt>
      <trkpt lat="26.832600069474964" lon="100.20902267163143">
        <ele>2344.4016580156945</ele>
        <time>2026-08-16T01:40:26.098000Z</time>
      </trkpt>
      <trkpt lat="26.832669919643262" lon="100.20891951456555">
        <ele>2344.394087743825</ele>
        <time>2026-08-16T01:40:32.098000Z</time>
      </trkpt>
      <trkpt lat="26.832780565123358" lon="100.20867013501709">
        <ele>2345.0356880112445</ele>
        <time>2026-08-16T01:40:44.098000Z</time>
      </trkpt>
      <trkpt lat="26.832939198897027" lon="100.20841874933198">
        <ele>2346.2761048906973</ele>
        <time>2026-08-16T01:40:59.098000Z</time>
      </trkpt>
      <trkpt lat="26.833114822903426" lon="100.20816335519886">
        <ele>2345.5417743787016</ele>
        <time>2026-08-16T01:41:14.098000Z</time>
      </trkpt>
      <trkpt lat="26.833241408524803" lon="100.20787591109514">
        <ele>2345.93121907831</ele>
        <time>2026-08-16T01:41:29.098000Z</time>
      </trkpt>
      <trkpt lat="26.83332417055655" lon="100.20771265750467">
        <ele>2345.1646225582635</ele>
        <time>2026-08-16T01:41:38.098000Z</time>
      </trkpt>
      <trkpt lat="26.83336810151208" lon="100.20766758682034">
        <ele>2345.0184750663925</ele>
        <time>2026-08-16T01:41:41.098000Z</time>
      </trkpt>
      <trkpt lat="26.833495701365802" lon="100.20739315870263">
        <ele>2346.2798230959284</ele>
        <time>2026-08-16T01:41:56.098000Z</time>
      </trkpt>
      <trkpt lat="26.83352943672153" lon="100.2072068681725">
        <ele>2346.6106265699314</ele>
        <time>2026-08-16T01:42:05.098000Z</time>
      </trkpt>
      <trkpt lat="26.833499279063727" lon="100.20709068777262">
        <ele>2347.5923685297394</ele>
        <time>2026-08-16T01:42:11.098000Z</time>
      </trkpt>
      <trkpt lat="26.8333209667016" lon="100.20684831309747">
        <ele>2347.453356929235</ele>
        <time>2026-08-16T01:42:26.098000Z</time>
      </trkpt>
      <trkpt lat="26.833140658775882" lon="100.20660994308675">
        <ele>2347.3289014249476</ele>
        <time>2026-08-16T01:42:41.098000Z</time>
      </trkpt>
      <trkpt lat="26.832954354557817" lon="100.20637457634928">
        <ele>2346.502686880454</ele>
        <time>2026-08-16T01:42:56.098000Z</time>
      </trkpt>
      <trkpt lat="26.832769025974237" lon="100.20612318254683">
        <ele>2346.558030201122</ele>
        <time>2026-08-16T01:43:11.098000Z</time>
      </trkpt>
      <trkpt lat="26.83259171745584" lon="100.20588781231626">
        <ele>2345.7211234126767</ele>
        <time>2026-08-16T01:43:26.198000Z</time>
      </trkpt>
      <trkpt lat="26.832414414715462" lon="100.20565744854291">
        <ele>2344.3434590168636</ele>
        <time>2026-08-16T01:43:41.198000Z</time>
      </trkpt>
      <trkpt lat="26.832218073139984" lon="100.20539903864443">
        <ele>2344.0130571158625</ele>
        <time>2026-08-16T01:43:59.198000Z</time>
      </trkpt>
      <trkpt lat="26.83201570906455" lon="100.20512560274575">
        <ele>2344.241343675461</ele>
        <time>2026-08-16T01:44:17.198000Z</time>
      </trkpt>
      <trkpt lat="26.83181432696028" lon="100.20484114684776">
        <ele>2344.7630240232197</ele>
        <time>2026-08-16T01:44:35.198000Z</time>
      </trkpt>
      <trkpt lat="26.831618987296586" lon="100.20458773923939">
        <ele>2343.8159150620595</ele>
        <time>2026-08-16T01:44:50.198000Z</time>
      </trkpt>
      <trkpt lat="26.831431647779805" lon="100.20433633294921">
        <ele>2343.3341689785284</ele>
        <time>2026-08-16T01:45:05.198000Z</time>
      </trkpt>
      <trkpt lat="26.831291174205017" lon="100.20399978356559">
        <ele>2344.529976236316</ele>
        <time>2026-08-16T01:45:23.198000Z</time>
      </trkpt>
      <trkpt lat="26.831260986598338" lon="100.20386956956773">
        <ele>2344.4270010410614</ele>
        <time>2026-08-16T01:45:29.198000Z</time>
      </trkpt>
      <trkpt lat="26.831214989109125" lon="100.20386656577855">
        <ele>2344.6698534493094</ele>
        <time>2026-08-16T01:45:32.198000Z</time>
      </trkpt>
      <trkpt lat="26.831158033221822" lon="100.20389060691595">
        <ele>2345.503503918858</ele>
        <time>2026-08-16T01:45:38.198000Z</time>
      </trkpt>
      <trkpt lat="26.831091167493234" lon="100.20397474739725">
        <ele>2343.8570371863143</ele>
        <time>2026-08-16T01:46:08.198000Z</time>
      </trkpt>
      <trkpt lat="26.831107321511418" lon="100.20408092183588">
        <ele>2344.1991951309415</ele>
        <time>2026-08-16T01:46:14.198000Z</time>
      </trkpt>
      <trkpt lat="26.831068492395115" lon="100.20419310724104">
        <ele>2344.0344949848086</ele>
        <time>2026-08-16T01:46:20.198000Z</time>
      </trkpt>
      <trkpt lat="26.831064670917154" lon="100.2043143061888">
        <ele>2343.2547022124986</ele>
        <time>2026-08-16T01:46:26.198000Z</time>
      </trkpt>
      <trkpt lat="26.831040756762555" lon="100.20437039869267">
        <ele>2342.956228349513</ele>
        <time>2026-08-16T01:46:29.198000Z</time>
      </trkpt>
      <trkpt lat="26.830985825212377" lon="100.20441146731784">
        <ele>2343.134598528788</ele>
        <time>2026-08-16T01:46:32.198000Z</time>
      </trkpt>
      <trkpt lat="26.83093100347377" lon="100.20452765866372">
        <ele>2343.1697733316896</ele>
        <time>2026-08-16T01:46:38.198000Z</time>
      </trkpt>
      <trkpt lat="26.83083811990331" lon="100.20459777547579">
        <ele>2342.90099122365</ele>
        <time>2026-08-16T01:46:44.198000Z</time>
      </trkpt>
      <trkpt lat="26.830784281431875" lon="100.20470294826264">
        <ele>2342.617602746893</ele>
        <time>2026-08-16T01:46:50.198000Z</time>
      </trkpt>
      <trkpt lat="26.830761686820757" lon="100.20497939796228">
        <ele>2342.1497369448066</ele>
        <time>2026-08-16T01:47:02.198000Z</time>
      </trkpt>
      <trkpt lat="26.8306918135172" lon="100.20505952952801">
        <ele>2342.633587624091</ele>
        <time>2026-08-16T01:47:08.198000Z</time>
      </trkpt>
      <trkpt lat="26.83069121896966" lon="100.20533998238884">
        <ele>2342.584861750657</ele>
        <time>2026-08-16T01:47:20.198000Z</time>
      </trkpt>
      <trkpt lat="26.83057965644801" lon="100.20563245514344">
        <ele>2343.057294827704</ele>
        <time>2026-08-16T01:47:35.198000Z</time>
      </trkpt>
      <trkpt lat="26.830437958957845" lon="100.20582877282482">
        <ele>2341.307767628621</ele>
        <time>2026-08-16T01:47:47.198000Z</time>
      </trkpt>
      <trkpt lat="26.830595600859105" lon="100.20559539532633">
        <ele>2342.706763767964</ele>
        <time>2026-08-16T01:48:14.198000Z</time>
      </trkpt>
      <trkpt lat="26.83061047918047" lon="100.20551226153358">
        <ele>2343.417489908101</ele>
        <time>2026-08-16T01:48:20.298000Z</time>
      </trkpt>
      <trkpt lat="26.83054938751171" lon="100.20544215042104">
        <ele>2343.488574470329</ele>
        <time>2026-08-16T01:48:26.298000Z</time>
      </trkpt>
      <trkpt lat="26.830478344837836" lon="100.20540509262145">
        <ele>2344.0840483055968</ele>
        <time>2026-08-16T01:48:29.298000Z</time>
      </trkpt>
      <trkpt lat="26.830248097656863" lon="100.20520978369743">
        <ele>2344.2195037369884</ele>
        <time>2026-08-16T01:48:47.298000Z</time>
      </trkpt>
      <trkpt lat="26.830239010679893" lon="100.20514868523853">
        <ele>2344.441554033219</ele>
        <time>2026-08-16T01:48:50.298000Z</time>
      </trkpt>
      <trkpt lat="26.830111759854514" lon="100.20496238691534">
        <ele>2344.2999921982764</ele>
        <time>2026-08-16T01:49:02.298000Z</time>
      </trkpt>
      <trkpt lat="26.830055549987982" lon="100.20481214445034">
        <ele>2343.2230799094787</ele>
        <time>2026-08-16T01:49:11.298000Z</time>
      </trkpt>
      <trkpt lat="26.829799314029255" lon="100.20462384441566">
        <ele>2344.2151862361034</ele>
        <time>2026-08-16T01:49:32.298000Z</time>
      </trkpt>
      <trkpt lat="26.82975436898575" lon="100.20465689944271">
        <ele>2342.2124585149745</ele>
        <time>2026-08-16T01:49:44.298000Z</time>
      </trkpt>
      <trkpt lat="26.82969032450542" lon="100.20461984065918">
        <ele>2342.6277506479582</ele>
        <time>2026-08-16T01:49:50.298000Z</time>
      </trkpt>
      <trkpt lat="26.829734215546306" lon="100.20454972513889">
        <ele>2342.3564340030566</ele>
        <time>2026-08-16T01:49:56.298000Z</time>
      </trkpt>
      <trkpt lat="26.829700134260424" lon="100.20449062947799">
        <ele>2342.5277565704537</ele>
        <time>2026-08-16T01:49:59.298000Z</time>
      </trkpt>
      <trkpt lat="26.829514189915756" lon="100.20450966531163">
        <ele>2344.1179315193135</ele>
        <time>2026-08-16T01:50:08.298000Z</time>
      </trkpt>
      <trkpt lat="26.82923018694562" lon="100.20447862180676">
        <ele>2343.8535870959304</ele>
        <time>2026-08-16T01:50:23.298000Z</time>
      </trkpt>
      <trkpt lat="26.829055202801477" lon="100.20447161480382">
        <ele>2343.572456078951</ele>
        <time>2026-08-16T01:50:32.298000Z</time>
      </trkpt>
      <trkpt lat="26.828763183284494" lon="100.20442855181004">
        <ele>2344.2372741983604</ele>
        <time>2026-08-16T01:50:47.298000Z</time>
      </trkpt>
      <trkpt lat="26.82857705540499" lon="100.20432238270841">
        <ele>2343.6387704530334</ele>
        <time>2026-08-16T01:50:59.298000Z</time>
      </trkpt>
      <trkpt lat="26.828321759269116" lon="100.20409501589324">
        <ele>2344.2123642858132</ele>
        <time>2026-08-16T01:51:17.298000Z</time>
      </trkpt>
      <trkpt lat="26.828046553542748" lon="100.2039277473666">
        <ele>2343.795691380783</ele>
        <time>2026-08-16T01:51:35.298000Z</time>
      </trkpt>
      <trkpt lat="26.82795747207978" lon="100.2038636438405">
        <ele>2344.590064803522</ele>
        <time>2026-08-16T01:51:41.298000Z</time>
      </trkpt>
      <trkpt lat="26.8279034534401" lon="100.20384561544203">
        <ele>2344.1624843987915</ele>
        <time>2026-08-16T01:51:44.298000Z</time>
      </trkpt>
      <trkpt lat="26.82781354369929" lon="100.2038977037266">
        <ele>2344.0881185365106</ele>
        <time>2026-08-16T01:51:50.298000Z</time>
      </trkpt>
      <trkpt lat="26.827732676874266" lon="100.20397984124328">
        <ele>2343.984120637589</ele>
        <time>2026-08-16T01:51:56.298000Z</time>
      </trkpt>
      <trkpt lat="26.82757371367749" lon="100.20398886015023">
        <ele>2343.5483871919487</ele>
        <time>2026-08-16T01:52:05.298000Z</time>
      </trkpt>
      <trkpt lat="26.82742162679049" lon="100.20391474181169">
        <ele>2342.8234464926004</ele>
        <time>2026-08-16T01:52:14.298000Z</time>
      </trkpt>
      <trkpt lat="26.827250342507654" lon="100.20370540020487">
        <ele>2342.416762809614</ele>
        <time>2026-08-16T01:52:29.298000Z</time>
      </trkpt>
      <trkpt lat="26.827139861947387" lon="100.20337084768845">
        <ele>2342.138370879864</ele>
        <time>2026-08-16T01:52:47.298000Z</time>
      </trkpt>
      <trkpt lat="26.826983448478558" lon="100.20307836373416">
        <ele>2342.4010751872274</ele>
        <time>2026-08-16T01:53:05.298000Z</time>
      </trkpt>
      <trkpt lat="26.826931264187046" lon="100.2029501504589">
        <ele>2343.1412588581807</ele>
        <time>2026-08-16T01:53:11.298000Z</time>
      </trkpt>
      <trkpt lat="26.826925183978183" lon="100.20289605994721">
        <ele>2342.714849825316</ele>
        <time>2026-08-16T01:53:14.298000Z</time>
      </trkpt>
      <trkpt lat="26.826784789056546" lon="100.20261959892028">
        <ele>2342.0090229061216</ele>
        <time>2026-08-16T01:53:29.298000Z</time>
      </trkpt>
      <trkpt lat="26.8266253603074" lon="100.20232009741073">
        <ele>2342.8764932337963</ele>
        <time>2026-08-16T01:53:47.398000Z</time>
      </trkpt>
      <trkpt lat="26.826555111101044" lon="100.20214880901506">
        <ele>2342.522673287479</ele>
        <time>2026-08-16T01:53:56.398000Z</time>
      </trkpt>
      <trkpt lat="26.82651307015611" lon="100.20211775739924">
        <ele>2343.26708721218</ele>
        <time>2026-08-16T01:53:59.398000Z</time>
      </trkpt>
      <trkpt lat="26.826420079248404" lon="100.20211475467109">
        <ele>2344.300429763865</ele>
        <time>2026-08-16T01:54:05.398000Z</time>
      </trkpt>
      <trkpt lat="26.82621922571777" lon="100.20219189062497">
        <ele>2343.8090282809353</ele>
        <time>2026-08-16T01:54:17.398000Z</time>
      </trkpt>
      <trkpt lat="26.8259441550856" lon="100.2021187736111">
        <ele>2343.665396749883</ele>
        <time>2026-08-16T01:54:32.398000Z</time>
      </trkpt>
      <trkpt lat="26.825579179550434" lon="100.20209975061644">
        <ele>2343.4349954958047</ele>
        <time>2026-08-16T01:54:53.398000Z</time>
      </trkpt>
      <trkpt lat="26.825386095129733" lon="100.20202562963608">
        <ele>2343.7428095237087</ele>
        <time>2026-08-16T01:55:02.398000Z</time>
      </trkpt>
      <trkpt lat="26.825131894399583" lon="100.20186937023611">
        <ele>2344.3469681570764</ele>
        <time>2026-08-16T01:55:17.398000Z</time>
      </trkpt>
      <trkpt lat="26.824861826820737" lon="100.2017992576155">
        <ele>2342.2440086304146</ele>
        <time>2026-08-16T01:55:32.398000Z</time>
      </trkpt>
      <trkpt lat="26.824588812998215" lon="100.20176420477836">
        <ele>2341.197343872257</ele>
        <time>2026-08-16T01:55:47.398000Z</time>
      </trkpt>
      <trkpt lat="26.82431270315059" lon="100.20166604421009">
        <ele>2343.00024631051</ele>
        <time>2026-08-16T01:56:02.398000Z</time>
      </trkpt>
      <trkpt lat="26.824052635137715" lon="100.2015969326854">
        <ele>2342.9723290422107</ele>
        <time>2026-08-16T01:56:17.398000Z</time>
      </trkpt>
      <trkpt lat="26.824035550244627" lon="100.20153983541957">
        <ele>2342.4648435204003</ele>
        <time>2026-08-16T01:56:23.398000Z</time>
      </trkpt>
      <trkpt lat="26.82411767627439" lon="100.20162998755232">
        <ele>2344.813376132164</ele>
        <time>2026-08-16T01:56:44.398000Z</time>
      </trkpt>
      <trkpt lat="26.82423866641718" lon="100.20163499302768">
        <ele>2344.0381520114047</ele>
        <time>2026-08-16T01:56:50.398000Z</time>
      </trkpt>
      <trkpt lat="26.82456281371437" lon="100.20176220202343">
        <ele>2343.7631389698963</ele>
        <time>2026-08-16T01:57:11.398000Z</time>
      </trkpt>
      <trkpt lat="26.824828819397617" lon="100.20179124479128">
        <ele>2342.891920296513</ele>
        <time>2026-08-16T01:57:32.398000Z</time>
      </trkpt>
      <trkpt lat="26.824878725026647" lon="100.20173414609822">
        <ele>2342.0744328420196</ele>
        <time>2026-08-16T01:57:38.398000Z</time>
      </trkpt>
      <trkpt lat="26.82494049257209" lon="100.20158789461159">
        <ele>2342.3491748440974</ele>
        <time>2026-08-16T01:57:44.398000Z</time>
      </trkpt>
      <trkpt lat="26.82503435012773" lon="100.20150374818606">
        <ele>2342.037218039346</ele>
        <time>2026-08-16T01:57:50.398000Z</time>
      </trkpt>
      <trkpt lat="26.82509632729827" lon="100.20149473116213">
        <ele>2341.9508426375864</ele>
        <time>2026-08-16T01:57:53.398000Z</time>
      </trkpt>
      <trkpt lat="26.82513326666898" lon="100.20145866842886">
        <ele>2341.9829572846315</ele>
        <time>2026-08-16T01:57:56.398000Z</time>
      </trkpt>
      <trkpt lat="26.825241918731727" lon="100.20124229422132">
        <ele>2340.5507187292133</ele>
        <time>2026-08-16T01:58:08.398000Z</time>
      </trkpt>
      <trkpt lat="26.825283834057284" lon="100.20119120527946">
        <ele>2339.895170393467</ele>
        <time>2026-08-16T01:58:11.398000Z</time>
      </trkpt>
      <trkpt lat="26.825321641914748" lon="100.20106999557116">
        <ele>2340.407835527413</ele>
        <time>2026-08-16T01:58:17.398000Z</time>
      </trkpt>
      <trkpt lat="26.82529643698361" lon="100.20093476288461">
        <ele>2341.0563108701995</ele>
        <time>2026-08-16T01:58:23.398000Z</time>
      </trkpt>
      <trkpt lat="26.8251430502377" lon="100.20067030919347">
        <ele>2339.7694724970843</ele>
        <time>2026-08-16T01:58:47.498000Z</time>
      </trkpt>
      <trkpt lat="26.825030601445008" lon="100.20037079169938">
        <ele>2341.2124737435965</ele>
        <time>2026-08-16T01:59:11.498000Z</time>
      </trkpt>
      <trkpt lat="26.82497556891193" lon="100.20034474775096">
        <ele>2341.650796156158</ele>
        <time>2026-08-16T01:59:17.498000Z</time>
      </trkpt>
      <trkpt lat="26.824684701604244" lon="100.20040285632737">
        <ele>2343.3031670546748</ele>
        <time>2026-08-16T01:59:41.498000Z</time>
      </trkpt>
      <trkpt lat="26.82450873025998" lon="100.20040486430649">
        <ele>2342.2079373837955</ele>
        <time>2026-08-16T01:59:53.498000Z</time>
      </trkpt>
      <trkpt lat="26.824253725139553" lon="100.20037782374165">
        <ele>2340.8114968883347</ele>
        <time>2026-08-16T02:00:08.498000Z</time>
      </trkpt>
      <trkpt lat="26.824109756890937" lon="100.20038483962368">
        <ele>2344.0506605179057</ele>
        <time>2026-08-16T02:00:14.498000Z</time>
      </trkpt>
      <trkpt lat="26.823848666754145" lon="100.20030270322462">
        <ele>2344.4187215639827</ele>
        <time>2026-08-16T02:00:29.498000Z</time>
      </trkpt>
      <trkpt lat="26.823586517184147" lon="100.20018250025694">
        <ele>2342.7461582579485</ele>
        <time>2026-08-16T02:00:44.498000Z</time>
      </trkpt>
      <trkpt lat="26.823350462074476" lon="100.20012540657174">
        <ele>2342.7989630601114</ele>
        <time>2026-08-16T02:00:56.498000Z</time>
      </trkpt>
      <trkpt lat="26.8232764946204" lon="100.20013943295852">
        <ele>2342.98085386061</ele>
        <time>2026-08-16T02:01:02.498000Z</time>
      </trkpt>
      <trkpt lat="26.823102283282385" lon="100.19998817292455">
        <ele>2342.241740699625</ele>
        <time>2026-08-16T02:01:20.498000Z</time>
      </trkpt>
      <trkpt lat="26.82293895202861" lon="100.19976178021061">
        <ele>2340.2423605667227</ele>
        <time>2026-08-16T02:01:41.498000Z</time>
      </trkpt>
      <trkpt lat="26.82282287433708" lon="100.19970167759944">
        <ele>2341.4857101656944</ele>
        <time>2026-08-16T02:01:50.598000Z</time>
      </trkpt>
      <trkpt lat="26.822515773539745" lon="100.19960952339139">
        <ele>2341.1364052446866</ele>
        <time>2026-08-16T02:02:14.598000Z</time>
      </trkpt>
      <trkpt lat="26.822311686131304" lon="100.19953539811046">
        <ele>2341.0579579074015</ele>
        <time>2026-08-16T02:02:29.598000Z</time>
      </trkpt>
      <trkpt lat="26.82210867415049" lon="100.19950935741541">
        <ele>2339.9758320120854</ele>
        <time>2026-08-16T02:02:47.598000Z</time>
      </trkpt>
      <trkpt lat="26.82195960549643" lon="100.19945226058252">
        <ele>2340.1334923139443</ele>
        <time>2026-08-16T02:02:59.598000Z</time>
      </trkpt>
      <trkpt lat="26.82188753209085" lon="100.19939916877571">
        <ele>2340.7518473413515</ele>
        <time>2026-08-16T02:03:05.598000Z</time>
      </trkpt>
      <trkpt lat="26.821769191439873" lon="100.19917277171676">
        <ele>2341.6957401859213</ele>
        <time>2026-08-16T02:03:17.598000Z</time>
      </trkpt>
      <trkpt lat="26.821681066082608" lon="100.19908561962994">
        <ele>2343.1375826234444</ele>
        <time>2026-08-16T02:03:23.598000Z</time>
      </trkpt>
      <trkpt lat="26.82162306165522" lon="100.19907760691078">
        <ele>2342.7114770610347</ele>
        <time>2026-08-16T02:03:26.598000Z</time>
      </trkpt>
      <trkpt lat="26.821387844232614" lon="100.19891933213948">
        <ele>2345.1379286659426</ele>
        <time>2026-08-16T02:03:38.598000Z</time>
      </trkpt>
      <trkpt lat="26.821241748902978" lon="100.19884620594534">
        <ele>2345.4173701897867</ele>
        <time>2026-08-16T02:03:47.598000Z</time>
      </trkpt>
      <trkpt lat="26.821070750905676" lon="100.19883218538263">
        <ele>2344.59737162102</ele>
        <time>2026-08-16T02:03:56.598000Z</time>
      </trkpt>
      <trkpt lat="26.82095971572235" lon="100.19880013121539">
        <ele>2344.3473471420225</ele>
        <time>2026-08-16T02:04:02.598000Z</time>
      </trkpt>
      <trkpt lat="26.820761742186868" lon="100.19879913449202">
        <ele>2344.2947809408033</ele>
        <time>2026-08-16T02:04:11.598000Z</time>
      </trkpt>
      <trkpt lat="26.820493616036096" lon="100.19869595769528">
        <ele>2344.043639110981</ele>
        <time>2026-08-16T02:04:26.598000Z</time>
      </trkpt>
      <trkpt lat="26.820335566610797" lon="100.19865088142134">
        <ele>2343.995773656712</ele>
        <time>2026-08-16T02:04:35.598000Z</time>
      </trkpt>
      <trkpt lat="26.820111614167782" lon="100.19866090499517">
        <ele>2342.2012177698502</ele>
        <time>2026-08-16T02:04:47.598000Z</time>
      </trkpt>
      <trkpt lat="26.820055652358" lon="100.19867994033605">
        <ele>2341.8728031195556</ele>
        <time>2026-08-16T02:04:50.598000Z</time>
      </trkpt>
      <trkpt lat="26.820007726064834" lon="100.19872201649162">
        <ele>2341.640181205945</ele>
        <time>2026-08-16T02:04:53.598000Z</time>
      </trkpt>
      <trkpt lat="26.81997491541329" lon="100.19883822406685">
        <ele>2340.847174908923</ele>
        <time>2026-08-16T02:04:59.598000Z</time>
      </trkpt>
      <trkpt lat="26.819947332328468" lon="100.1990986869941">
        <ele>2340.319858539205</ele>
        <time>2026-08-16T02:05:11.598000Z</time>
      </trkpt>
      <trkpt lat="26.81982556179712" lon="100.199232927701">
        <ele>2341.0371562411733</ele>
        <time>2026-08-16T02:05:20.598000Z</time>
      </trkpt>
      <trkpt lat="26.81960971399523" lon="100.1993100695499">
        <ele>2339.8481721758562</ele>
        <time>2026-08-16T02:05:38.598000Z</time>
      </trkpt>
      <trkpt lat="26.819500857322286" lon="100.19939121559503">
        <ele>2339.940255773181</ele>
        <time>2026-08-16T02:05:50.598000Z</time>
      </trkpt>
      <trkpt lat="26.81947096731857" lon="100.19945833474259">
        <ele>2340.081411056222</ele>
        <time>2026-08-16T02:05:56.598000Z</time>
      </trkpt>
      <trkpt lat="26.81948252468905" lon="100.19981395990385">
        <ele>2338.488157590684</ele>
        <time>2026-08-16T02:06:17.598000Z</time>
      </trkpt>
      <trkpt lat="26.819463640388896" lon="100.1998860868674">
        <ele>2338.34555095892</ele>
        <time>2026-08-16T02:06:23.598000Z</time>
      </trkpt>
      <trkpt lat="26.819356878007955" lon="100.20002833867304">
        <ele>2339.041739575008</ele>
        <time>2026-08-16T02:06:35.598000Z</time>
      </trkpt>
      <trkpt lat="26.819217369625015" lon="100.20033087032832">
        <ele>2338.144552657606</ele>
        <time>2026-08-16T02:06:59.598000Z</time>
      </trkpt>
      <trkpt lat="26.81909788596028" lon="100.20065243223372">
        <ele>2340.427468106956</ele>
        <time>2026-08-16T02:07:23.598000Z</time>
      </trkpt>
      <trkpt lat="26.819014351713797" lon="100.20094594223916">
        <ele>2340.708838640399</ele>
        <time>2026-08-16T02:07:47.598000Z</time>
      </trkpt>
      <trkpt lat="26.818940698630666" lon="100.20116432059598">
        <ele>2341.06849564225</ele>
        <time>2026-08-16T02:08:02.598000Z</time>
      </trkpt>
      <trkpt lat="26.81876005637927" lon="100.20138069704679">
        <ele>2339.9323861174116</ele>
        <time>2026-08-16T02:08:20.598000Z</time>
      </trkpt>
      <trkpt lat="26.818581257950918" lon="100.20149589909725">
        <ele>2342.0565120645074</ele>
        <time>2026-08-16T02:08:38.698000Z</time>
      </trkpt>
      <trkpt lat="26.818457324333526" lon="100.20152795715246">
        <ele>2341.4413511639555</ele>
        <time>2026-08-16T02:08:47.598000Z</time>
      </trkpt>
      <trkpt lat="26.818336474524433" lon="100.2016151093454">
        <ele>2340.8574047036286</ele>
        <time>2026-08-16T02:08:59.598000Z</time>
      </trkpt>
      <trkpt lat="26.818275710961405" lon="100.20176436581889">
        <ele>2341.5742871015636</ele>
        <time>2026-08-16T02:09:11.598000Z</time>
      </trkpt>
      <trkpt lat="26.818143005701042" lon="100.20194567811035">
        <ele>2341.591364071247</ele>
        <time>2026-08-16T02:09:26.598000Z</time>
      </trkpt>
      <trkpt lat="26.818102131735277" lon="100.20202481371528">
        <ele>2340.402149278653</ele>
        <time>2026-08-16T02:09:32.598000Z</time>
      </trkpt>
      <trkpt lat="26.81799229914808" lon="100.20212498661753">
        <ele>2340.5187268444784</ele>
        <time>2026-08-16T02:09:44.598000Z</time>
      </trkpt>
      <trkpt lat="26.817864380758117" lon="100.20216706124494">
        <ele>2341.590822757328</ele>
        <time>2026-08-16T02:09:56.598000Z</time>
      </trkpt>
      <trkpt lat="26.817780401538762" lon="100.20217307357775">
        <ele>2341.403132819486</ele>
        <time>2026-08-16T02:10:02.598000Z</time>
      </trkpt>
      <trkpt lat="26.817502500841496" lon="100.2022131485824">
        <ele>2344.095631510099</ele>
        <time>2026-08-16T02:10:20.598000Z</time>
      </trkpt>
      <trkpt lat="26.81734457129175" lon="100.20224520691407">
        <ele>2346.638264732165</ele>
        <time>2026-08-16T02:10:29.598000Z</time>
      </trkpt>
      <trkpt lat="26.817158531763642" lon="100.20220213868006">
        <ele>2346.9791012539895</ele>
        <time>2026-08-16T02:10:38.598000Z</time>
      </trkpt>
      <trkpt lat="26.817101563932674" lon="100.20221816729281">
        <ele>2346.3348537571637</ele>
        <time>2026-08-16T02:10:41.598000Z</time>
      </trkpt>
      <trkpt lat="26.817003536483" lon="100.20219112395593">
        <ele>2345.7917073819217</ele>
        <time>2026-08-16T02:10:47.598000Z</time>
      </trkpt>
      <trkpt lat="26.81668459720117" lon="100.20220215076499">
        <ele>2346.3768682684804</ele>
        <time>2026-08-16T02:11:05.598000Z</time>
      </trkpt>
      <trkpt lat="26.816486559168613" lon="100.20215908278942">
        <ele>2347.83721839126</ele>
        <time>2026-08-16T02:11:20.598000Z</time>
      </trkpt>
      <trkpt lat="26.816446642124287" lon="100.20221017041337">
        <ele>2347.8428043582453</ele>
        <time>2026-08-16T02:11:26.598000Z</time>
      </trkpt>
      <trkpt lat="26.816375674660655" lon="100.20222519768248">
        <ele>2347.6246299987665</ele>
        <time>2026-08-16T02:11:32.598000Z</time>
      </trkpt>
      <trkpt lat="26.816414811860465" lon="100.2023193560981">
        <ele>2347.6647349270697</ele>
        <time>2026-08-16T02:11:38.598000Z</time>
      </trkpt>
      <trkpt lat="26.816497974578308" lon="100.20243454869262">
        <ele>2347.120459004867</ele>
        <time>2026-08-16T02:11:47.598000Z</time>
      </trkpt>
      <trkpt lat="26.816573487864048" lon="100.2027821322046">
        <ele>2347.1040067952185</ele>
        <time>2026-08-16T02:12:11.598000Z</time>
      </trkpt>
      <trkpt lat="26.816675970690845" lon="100.20311368508389">
        <ele>2347.7875671742822</ele>
        <time>2026-08-16T02:12:35.598000Z</time>
      </trkpt>
      <trkpt lat="26.816684481791025" lon="100.20345725742992">
        <ele>2346.2400538162133</ele>
        <time>2026-08-16T02:12:59.598000Z</time>
      </trkpt>
      <trkpt lat="26.816668889694363" lon="100.20373071129133">
        <ele>2345.4731690030203</ele>
        <time>2026-08-16T02:13:17.598000Z</time>
      </trkpt>
      <trkpt lat="26.81664113790134" lon="100.20389598509712">
        <ele>2343.9615068752555</ele>
        <time>2026-08-16T02:13:29.598000Z</time>
      </trkpt>
      <trkpt lat="26.816647663539555" lon="100.20425357329202">
        <ele>2341.8435412605013</ele>
        <time>2026-08-16T02:13:53.698000Z</time>
      </trkpt>
      <trkpt lat="26.816641874392257" lon="100.20439680813942">
        <ele>2341.538150764142</ele>
        <time>2026-08-16T02:14:02.698000Z</time>
      </trkpt>
      <trkpt lat="26.816699228149588" lon="100.20464421074927">
        <ele>2341.680120155398</ele>
        <time>2026-08-16T02:14:20.698000Z</time>
      </trkpt>
      <trkpt lat="26.816746316586197" lon="100.20470931560553">
        <ele>2341.388147994277</ele>
        <time>2026-08-16T02:14:26.698000Z</time>
      </trkpt>
      <trkpt lat="26.816954416224" lon="100.20479745370342">
        <ele>2341.0250128376424</ele>
        <time>2026-08-16T02:14:44.698000Z</time>
      </trkpt>
      <trkpt lat="26.816958546733055" lon="100.2048876000329">
        <ele>2339.639341351213</ele>
        <time>2026-08-16T02:14:50.698000Z</time>
      </trkpt>
      <trkpt lat="26.816896723925506" lon="100.2050037900138">
        <ele>2339.9066759520338</ele>
        <time>2026-08-16T02:14:59.698000Z</time>
      </trkpt>
      <trkpt lat="26.816723035008472" lon="100.20520211516201">
        <ele>2338.8619510057933</ele>
        <time>2026-08-16T02:15:17.698000Z</time>
      </trkpt>
      <trkpt lat="26.816601428775773" lon="100.20546353935937">
        <ele>2339.73842767964</ele>
        <time>2026-08-16T02:15:41.698000Z</time>
      </trkpt>
      <trkpt lat="26.816568621887786" lon="100.20559475083135">
        <ele>2343.0373182599005</ele>
        <time>2026-08-16T02:15:50.698000Z</time>
      </trkpt>
      <trkpt lat="26.816602146208922" lon="100.20596434069516">
        <ele>2342.6828790892437</ele>
        <time>2026-08-16T02:16:23.698000Z</time>
      </trkpt>
      <trkpt lat="26.816578356406627" lon="100.20610957236815">
        <ele>2344.6592954103066</ele>
        <time>2026-08-16T02:16:32.698000Z</time>
      </trkpt>
      <trkpt lat="26.816582472623672" lon="100.20619170267092">
        <ele>2344.564021609617</ele>
        <time>2026-08-16T02:16:38.698000Z</time>
      </trkpt>
      <trkpt lat="26.81654068589406" lon="100.20633793544758">
        <ele>2343.32024270488</ele>
        <time>2026-08-16T02:16:50.698000Z</time>
      </trkpt>
      <trkpt lat="26.816496771393393" lon="100.20639402527931">
        <ele>2343.9782001839367</ele>
        <time>2026-08-16T02:16:56.698000Z</time>
      </trkpt>
      <trkpt lat="26.81650699797056" lon="100.20655527957149">
        <ele>2345.1052503857245</ele>
        <time>2026-08-16T02:17:08.698000Z</time>
      </trkpt>
      <trkpt lat="26.81653618884507" lon="100.20669349642277">
        <ele>2346.569931023641</ele>
        <time>2026-08-16T02:17:20.698000Z</time>
      </trkpt>
      <trkpt lat="26.81653031368219" lon="100.20678163504071">
        <ele>2347.7565961514374</ele>
        <time>2026-08-16T02:17:26.698000Z</time>
      </trkpt>
      <trkpt lat="26.8166047359763" lon="100.20709011602023">
        <ele>2345.8242053128333</ele>
        <time>2026-08-16T02:17:47.698000Z</time>
      </trkpt>
      <trkpt lat="26.81655701514735" lon="100.20728542152128">
        <ele>2343.3071631626553</ele>
        <time>2026-08-16T02:18:08.698000Z</time>
      </trkpt>
      <trkpt lat="26.81658529121421" lon="100.20748673328808">
        <ele>2342.1455892182594</ele>
        <time>2026-08-16T02:18:32.698000Z</time>
      </trkpt>
      <trkpt lat="26.81654374602027" lon="100.20781123555221">
        <ele>2341.920752947885</ele>
        <time>2026-08-16T02:18:56.698000Z</time>
      </trkpt>
      <trkpt lat="26.81653282348732" lon="100.20786632060374">
        <ele>2341.7868383580244</ele>
        <time>2026-08-16T02:18:59.698000Z</time>
      </trkpt>
      <trkpt lat="26.816425943037704" lon="100.20794244031556">
        <ele>2341.5162830421737</ele>
        <time>2026-08-16T02:19:11.698000Z</time>
      </trkpt>
      <trkpt lat="26.816375035455476" lon="100.20800453692573">
        <ele>2341.917631539739</ele>
        <time>2026-08-16T02:19:17.698000Z</time>
      </trkpt>
      <trkpt lat="26.81635814234282" lon="100.20808065403831">
        <ele>2341.507911179759</ele>
        <time>2026-08-16T02:19:23.698000Z</time>
      </trkpt>
      <trkpt lat="26.816293325650275" lon="100.208207850286">
        <ele>2341.6003158254675</ele>
        <time>2026-08-16T02:19:38.698000Z</time>
      </trkpt>
      <trkpt lat="26.816337791145653" lon="100.20855337536157">
        <ele>2342.4823066470153</ele>
        <time>2026-08-16T02:20:05.698000Z</time>
      </trkpt>
      <trkpt lat="26.816424222004432" lon="100.2088798671068">
        <ele>2342.7394311804446</ele>
        <time>2026-08-16T02:20:29.698000Z</time>
      </trkpt>
      <trkpt lat="26.816551671278848" lon="100.2092263845981">
        <ele>2342.0081012774203</ele>
        <time>2026-08-16T02:20:56.698000Z</time>
      </trkpt>
      <trkpt lat="26.816620888593" lon="100.20939563586117">
        <ele>2341.78576069197</ele>
        <time>2026-08-16T02:21:08.698000Z</time>
      </trkpt>
      <trkpt lat="26.816640066610205" lon="100.20953083686517">
        <ele>2341.426461882619</ele>
        <time>2026-08-16T02:21:17.698000Z</time>
      </trkpt>
      <trkpt lat="26.81680048403488" lon="100.20986132297159">
        <ele>2341.3572377987125</ele>
        <time>2026-08-16T02:21:44.698000Z</time>
      </trkpt>
      <trkpt lat="26.816874639525686" lon="100.2099865058875">
        <ele>2341.8883023406224</ele>
        <time>2026-08-16T02:21:56.698000Z</time>
      </trkpt>
      <trkpt lat="26.816916878186163" lon="100.21017177743153">
        <ele>2342.7326328981558</ele>
        <time>2026-08-16T02:22:08.798000Z</time>
      </trkpt>
      <trkpt lat="26.816914062974927" lon="100.21031198310229">
        <ele>2342.9620322585743</ele>
        <time>2026-08-16T02:22:17.798000Z</time>
      </trkpt>
      <trkpt lat="26.816981456152362" lon="100.21061943010506">
        <ele>2341.973741328803</ele>
        <time>2026-08-16T02:22:41.798000Z</time>
      </trkpt>
      <trkpt lat="26.817083779552686" lon="100.21087880377236">
        <ele>2340.611190358617</ele>
        <time>2026-08-16T02:22:59.798000Z</time>
      </trkpt>
      <trkpt lat="26.817139172168194" lon="100.21118824851085">
        <ele>2340.2455027929764</ele>
        <time>2026-08-16T02:23:23.798000Z</time>
      </trkpt>
      <trkpt lat="26.81725150934318" lon="100.21146263874607">
        <ele>2342.45281790534</ele>
        <time>2026-08-16T02:23:44.798000Z</time>
      </trkpt>
      <trkpt lat="26.817509638925596" lon="100.21159181643615">
        <ele>2341.926411388867</ele>
        <time>2026-08-16T02:24:08.798000Z</time>
      </trkpt>
      <trkpt lat="26.817682700608863" lon="100.21165890752643">
        <ele>2343.383031134902</ele>
        <time>2026-08-16T02:24:23.798000Z</time>
      </trkpt>
      <trkpt lat="26.817709773478814" lon="100.21171899222472">
        <ele>2343.3707959158737</ele>
        <time>2026-08-16T02:24:29.798000Z</time>
      </trkpt>
      <trkpt lat="26.81761700545596" lon="100.21189123871308">
        <ele>2342.777529911375</ele>
        <time>2026-08-16T02:24:41.798000Z</time>
      </trkpt>
      <trkpt lat="26.817716086986014" lon="100.21196634235623">
        <ele>2342.41950776062</ele>
        <time>2026-08-16T02:24:53.798000Z</time>
      </trkpt>
      <trkpt lat="26.8177982707168" lon="100.21212055768213">
        <ele>2341.789409109761</ele>
        <time>2026-08-16T02:25:05.798000Z</time>
      </trkpt>
      <trkpt lat="26.817950364578174" lon="100.21221168193517">
        <ele>2340.3970942600868</ele>
        <time>2026-08-16T02:25:20.798000Z</time>
      </trkpt>
      <trkpt lat="26.818177334261676" lon="100.2122126775825">
        <ele>2341.0730306089317</ele>
        <time>2026-08-16T02:25:38.798000Z</time>
      </trkpt>
      <trkpt lat="26.818409392742804" lon="100.21228477286708">
        <ele>2341.6578473798686</ele>
        <time>2026-08-16T02:25:56.798000Z</time>
      </trkpt>
      <trkpt lat="26.818568318870916" lon="100.21224371124278">
        <ele>2343.8345376577277</ele>
        <time>2026-08-16T02:26:08.798000Z</time>
      </trkpt>
      <trkpt lat="26.81887439707175" lon="100.2123398382409">
        <ele>2338.9926035453095</ele>
        <time>2026-08-16T02:26:38.798000Z</time>
      </trkpt>
      <trkpt lat="26.8189824146749" lon="100.21236587194777">
        <ele>2340.2216574846284</ele>
        <time>2026-08-16T02:26:50.798000Z</time>
      </trkpt>
      <trkpt lat="26.81923661882593" lon="100.21255713257835">
        <ele>2336.6605689899343</ele>
        <time>2026-08-16T02:27:17.798000Z</time>
      </trkpt>
      <trkpt lat="26.8195197816303" lon="100.21271935099774">
        <ele>2341.497950061586</ele>
        <time>2026-08-16T02:27:50.798000Z</time>
      </trkpt>
      <trkpt lat="26.819825833356038" lon="100.21279544877876">
        <ele>2343.8624151789427</ele>
        <time>2026-08-16T02:28:17.798000Z</time>
      </trkpt>
      <trkpt lat="26.820131881099574" lon="100.21286854221715">
        <ele>2345.8067927313123</ele>
        <time>2026-08-16T02:28:53.798000Z</time>
      </trkpt>
      <trkpt lat="26.820183866303335" lon="100.21286253258694">
        <ele>2345.3516319393525</ele>
        <time>2026-08-16T02:28:59.798000Z</time>
      </trkpt>
      <trkpt lat="26.820303884180365" lon="100.21289056831917">
        <ele>2344.1424799727683</ele>
        <time>2026-08-16T02:29:08.798000Z</time>
      </trkpt>
      <trkpt lat="26.82056495532375" lon="100.21297768201875">
        <ele>2344.1913304854306</ele>
        <time>2026-08-16T02:29:32.798000Z</time>
      </trkpt>
      <trkpt lat="26.820834945627457" lon="100.21300070693806">
        <ele>2343.81656056843</ele>
        <time>2026-08-16T02:29:53.798000Z</time>
      </trkpt>
      <trkpt lat="26.821111965823505" lon="100.21304876615422">
        <ele>2342.703760051005</ele>
        <time>2026-08-16T02:30:17.898000Z</time>
      </trkpt>
      <trkpt lat="26.821319939997853" lon="100.2130517650163">
        <ele>2343.2653311616145</ele>
        <time>2026-08-16T02:30:35.898000Z</time>
      </trkpt>
      <trkpt lat="26.821608001707652" lon="100.21313487206953">
        <ele>2342.1538263358466</ele>
        <time>2026-08-16T02:30:59.898000Z</time>
      </trkpt>
      <trkpt lat="26.821783078022612" lon="100.21321698038997">
        <ele>2342.432080069746</ele>
        <time>2026-08-16T02:31:11.898000Z</time>
      </trkpt>
      <trkpt lat="26.821915083863733" lon="100.213237004511">
        <ele>2343.9649087990742</ele>
        <time>2026-08-16T02:31:23.898000Z</time>
      </trkpt>
      <trkpt lat="26.822159270489205" lon="100.21341724495196">
        <ele>2342.638502202112</ele>
        <time>2026-08-16T02:31:47.898000Z</time>
      </trkpt>
      <trkpt lat="26.82238948623662" lon="100.21362051598464">
        <ele>2341.9753708007497</ele>
        <time>2026-08-16T02:32:11.898000Z</time>
      </trkpt>
      <trkpt lat="26.82244156425352" lon="100.21369060982201">
        <ele>2342.091384539906</ele>
        <time>2026-08-16T02:32:17.898000Z</time>
      </trkpt>
      <trkpt lat="26.822492837955856" lon="100.2139219213946">
        <ele>2341.8590965304575</ele>
        <time>2026-08-16T02:32:35.898000Z</time>
      </trkpt>
      <trkpt lat="26.822540008026333" lon="100.21406811703321">
        <ele>2342.949396796573</ele>
        <time>2026-08-16T02:32:47.898000Z</time>
      </trkpt>
      <trkpt lat="26.822554129169944" lon="100.21417025376968">
        <ele>2342.1140138005053</ele>
        <time>2026-08-16T02:32:53.898000Z</time>
      </trkpt>
      <trkpt lat="26.82258017847419" lon="100.21421431214115">
        <ele>2342.3048872862605</ele>
        <time>2026-08-16T02:32:56.898000Z</time>
      </trkpt>
      <trkpt lat="26.82269328378951" lon="100.21431544453468">
        <ele>2342.540668669725</ele>
        <time>2026-08-16T02:33:08.898000Z</time>
      </trkpt>
      <trkpt lat="26.82289857893064" lon="100.21458680057596">
        <ele>2340.23611303781</ele>
        <time>2026-08-16T02:33:32.898000Z</time>
      </trkpt>
      <trkpt lat="26.82308084433696" lon="100.21483212042604">
        <ele>2340.7763162300507</ele>
        <time>2026-08-16T02:33:56.898000Z</time>
      </trkpt>
      <trkpt lat="26.82328416736396" lon="100.21513050721268">
        <ele>2340.526455282974</ele>
        <time>2026-08-16T02:34:20.898000Z</time>
      </trkpt>
      <trkpt lat="26.82330225888038" lon="100.21521061146268">
        <ele>2341.2025100567394</ele>
        <time>2026-08-16T02:34:26.898000Z</time>
      </trkpt>
      <trkpt lat="26.823461535843546" lon="100.21546694103688">
        <ele>2338.8794480480797</ele>
        <time>2026-08-16T02:34:50.898000Z</time>
      </trkpt>
      <trkpt lat="26.82366880389925" lon="100.21572326716924">
        <ele>2339.5074394086246</ele>
        <time>2026-08-16T02:35:14.898000Z</time>
      </trkpt>
      <trkpt lat="26.823860027302736" lon="100.21594054147455">
        <ele>2338.735617307322</ele>
        <time>2026-08-16T02:35:35.898000Z</time>
      </trkpt>
      <trkpt lat="26.824032373386714" lon="100.21626394963253">
        <ele>2338.7068226787346</ele>
        <time>2026-08-16T02:36:02.898000Z</time>
      </trkpt>
      <trkpt lat="26.824169655541997" lon="100.21652928192569">
        <ele>2338.332245372339</ele>
        <time>2026-08-16T02:36:23.898000Z</time>
      </trkpt>
      <trkpt lat="26.82429802694469" lon="100.21687471217602">
        <ele>2339.580775243962</ele>
        <time>2026-08-16T02:36:50.898000Z</time>
      </trkpt>
      <trkpt lat="26.824433343500345" lon="100.21717508235106">
        <ele>2338.2515617629874</ele>
        <time>2026-08-16T02:37:14.998000Z</time>
      </trkpt>
      <trkpt lat="26.824461424152602" lon="100.21725117578845">
        <ele>2337.966081058909</ele>
        <time>2026-08-16T02:37:20.998000Z</time>
      </trkpt>
      <trkpt lat="26.82451751167561" lon="100.21733728066157">
        <ele>2338.8857391136894</ele>
        <time>2026-08-16T02:37:26.998000Z</time>
      </trkpt>
      <trkpt lat="26.824550611169318" lon="100.21743139570913">
        <ele>2338.8607892387713</ele>
        <time>2026-08-16T02:37:32.998000Z</time>
      </trkpt>
      <trkpt lat="26.82455281972503" lon="100.21762062772179">
        <ele>2337.7677432511873</ele>
        <time>2026-08-16T02:37:44.998000Z</time>
      </trkpt>
      <trkpt lat="26.824612933160484" lon="100.21773176191016">
        <ele>2338.4814990126424</ele>
        <time>2026-08-16T02:37:56.998000Z</time>
      </trkpt>
      <trkpt lat="26.824708320488437" lon="100.21809920511106">
        <ele>2339.8623837632535</ele>
        <time>2026-08-16T02:38:23.998000Z</time>
      </trkpt>
      <trkpt lat="26.824759675568416" lon="100.21843460642135">
        <ele>2338.4361230740715</ele>
        <time>2026-08-16T02:38:47.998000Z</time>
      </trkpt>
      <trkpt lat="26.82485300076935" lon="100.2187509801869">
        <ele>2340.083661716674</ele>
        <time>2026-08-16T02:39:11.998000Z</time>
      </trkpt>
      <trkpt lat="26.824866086262297" lon="100.21883307687783">
        <ele>2340.9740858639416</ele>
        <time>2026-08-16T02:39:17.998000Z</time>
      </trkpt>
      <trkpt lat="26.824859160645225" lon="100.21890215850793">
        <ele>2339.9483093530534</ele>
        <time>2026-08-16T02:39:23.998000Z</time>
      </trkpt>
    </trkseg>
  </trk>
</gpx>