<?xml version="1.0" encoding="UTF-8"?>
<gpx xmlns="http://www.topografix.com/GPX/1/1" xmlns:gpxtpx="http://www.garmin.com/xmlschemas/TrackPointExtension/v1" xmlns:xsi="http://www.w3.org/2001/XMLSchema-instance" xsi:schemaLocation="http://www.topografix.com/GPX/1/1 http://www.topografix.com/GPX/1/1/gpx.xsd" version="1.1" creator="gpx.py -- https://github.com/tkrajina/gpxpy">
  <trk>
    <name>gpx from keep</name>
    <type>Run</type>
    <trkseg>
      <trkpt lat="26.823416525025046" lon="100.22000947734287">
        <ele>2350.660940144211</ele>
        <time>2026-07-26T13:04:37.680000Z</time>
      </trkpt>
      <trkpt lat="26.823398674172356" lon="100.22015264037132">
        <ele>2356.6812627127224</ele>
        <time>2026-07-26T13:04:46.680000Z</time>
      </trkpt>
      <trkpt lat="26.82342771291531" lon="100.2201946872457">
        <ele>2355.8776062477173</ele>
        <time>2026-07-26T13:04:49.680000Z</time>
      </trkpt>
      <trkpt lat="26.823729636676088" lon="100.22016264334015">
        <ele>2350.4935937634973</ele>
        <time>2026-07-26T13:05:04.680000Z</time>
      </trkpt>
      <trkpt lat="26.82405757804304" lon="100.22015162256837">
        <ele>2349.36588720307</ele>
        <time>2026-07-26T13:05:19.680000Z</time>
      </trkpt>
      <trkpt lat="26.824220552412665" lon="100.2201496161767">
        <ele>2348.2914081391773</ele>
        <time>2026-07-26T13:05:25.680000Z</time>
      </trkpt>
      <trkpt lat="26.824379568221403" lon="100.2201876552359">
        <ele>2352.477436883054</ele>
        <time>2026-07-26T13:05:34.680000Z</time>
      </trkpt>
      <trkpt lat="26.82444854187292" lon="100.22017163535763">
        <ele>2352.266920397736</ele>
        <time>2026-07-26T13:05:37.680000Z</time>
      </trkpt>
      <trkpt lat="26.8247715613587" lon="100.22023670079521">
        <ele>2352.113636140778</ele>
        <time>2026-07-26T13:05:52.680000Z</time>
      </trkpt>
      <trkpt lat="26.82483656007238" lon="100.22024470819993">
        <ele>2350.6869432258754</ele>
        <time>2026-07-26T13:05:55.680000Z</time>
      </trkpt>
      <trkpt lat="26.824856460156465" lon="100.22014960008939">
        <ele>2350.0361861682527</ele>
        <time>2026-07-26T13:06:01.780000Z</time>
      </trkpt>
      <trkpt lat="26.82484108486745" lon="100.21978218170298">
        <ele>2348.950279076464</ele>
        <time>2026-07-26T13:06:16.780000Z</time>
      </trkpt>
      <trkpt lat="26.824825729342574" lon="100.21943778514456">
        <ele>2350.6439312660555</ele>
        <time>2026-07-26T13:06:31.780000Z</time>
      </trkpt>
      <trkpt lat="26.82483466525991" lon="100.21937771524728">
        <ele>2350.9134962468784</ele>
        <time>2026-07-26T13:06:34.780000Z</time>
      </trkpt>
      <trkpt lat="26.824823608165847" lon="100.21932165038397">
        <ele>2350.3335947845158</ele>
        <time>2026-07-26T13:06:37.780000Z</time>
      </trkpt>
      <trkpt lat="26.824869313934983" lon="100.21904833004419">
        <ele>2349.772190541393</ele>
        <time>2026-07-26T13:06:49.780000Z</time>
      </trkpt>
      <trkpt lat="26.824833983253413" lon="100.21873195815331">
        <ele>2350.3404509105903</ele>
        <time>2026-07-26T13:07:04.780000Z</time>
      </trkpt>
      <trkpt lat="26.824719673839464" lon="100.21842759906187">
        <ele>2350.154885305434</ele>
        <time>2026-07-26T13:07:19.780000Z</time>
      </trkpt>
      <trkpt lat="26.824663356366937" lon="100.21812623884567">
        <ele>2349.4066894700204</ele>
        <time>2026-07-26T13:07:34.780000Z</time>
      </trkpt>
      <trkpt lat="26.824627124012306" lon="100.21790797584411">
        <ele>2348.947665225488</ele>
        <time>2026-07-26T13:07:46.780000Z</time>
      </trkpt>
      <trkpt lat="26.82454389150093" lon="100.21768470624814">
        <ele>2350.315407633272</ele>
        <time>2026-07-26T13:07:58.780000Z</time>
      </trkpt>
      <trkpt lat="26.824539741076183" lon="100.21754753856632">
        <ele>2350.7382986945913</ele>
        <time>2026-07-26T13:08:04.780000Z</time>
      </trkpt>
      <trkpt lat="26.82448753712623" lon="100.21735630486927">
        <ele>2349.8629130008326</ele>
        <time>2026-07-26T13:08:13.780000Z</time>
      </trkpt>
      <trkpt lat="26.824368336180562" lon="100.21716006539171">
        <ele>2350.2896625852773</ele>
        <time>2026-07-26T13:08:25.780000Z</time>
      </trkpt>
      <trkpt lat="26.824317147755576" lon="100.21698484904249">
        <ele>2349.974371329586</ele>
        <time>2026-07-26T13:08:34.780000Z</time>
      </trkpt>
      <trkpt lat="26.824159825840766" lon="100.21667846990256">
        <ele>2347.454902127828</ele>
        <time>2026-07-26T13:08:49.780000Z</time>
      </trkpt>
      <trkpt lat="26.824020522386466" lon="100.21639311368571">
        <ele>2347.361658942941</ele>
        <time>2026-07-26T13:09:04.780000Z</time>
      </trkpt>
      <trkpt lat="26.823933285802248" lon="100.21617483883249">
        <ele>2348.533006226538</ele>
        <time>2026-07-26T13:09:16.780000Z</time>
      </trkpt>
      <trkpt lat="26.82387017783112" lon="100.21607271023555">
        <ele>2349.0817930705366</ele>
        <time>2026-07-26T13:09:22.780000Z</time>
      </trkpt>
      <trkpt lat="26.823816007123337" lon="100.21591751307878">
        <ele>2349.207602134436</ele>
        <time>2026-07-26T13:09:31.780000Z</time>
      </trkpt>
      <trkpt lat="26.823723863182796" lon="100.21578134054322">
        <ele>2348.868933585628</ele>
        <time>2026-07-26T13:09:40.780000Z</time>
      </trkpt>
      <trkpt lat="26.823697775352144" lon="100.21570223933522">
        <ele>2349.3239758631826</ele>
        <time>2026-07-26T13:09:43.780000Z</time>
      </trkpt>
      <trkpt lat="26.82362270951577" lon="100.21563615596848">
        <ele>2348.7523011824715</ele>
        <time>2026-07-26T13:09:49.780000Z</time>
      </trkpt>
      <trkpt lat="26.823572696959992" lon="100.2156191352486">
        <ele>2349.3644488678533</ele>
        <time>2026-07-26T13:09:52.780000Z</time>
      </trkpt>
      <trkpt lat="26.823408490910403" lon="100.21542188389967">
        <ele>2349.7025472143464</ele>
        <time>2026-07-26T13:10:07.780000Z</time>
      </trkpt>
      <trkpt lat="26.823303158741396" lon="100.21512550017985">
        <ele>2346.0033057126457</ele>
        <time>2026-07-26T13:10:22.780000Z</time>
      </trkpt>
      <trkpt lat="26.823294090501992" lon="100.21506642303858">
        <ele>2346.0800981890598</ele>
        <time>2026-07-26T13:10:25.780000Z</time>
      </trkpt>
      <trkpt lat="26.82335688760663" lon="100.21490220576423">
        <ele>2346.2299383124764</ele>
        <time>2026-07-26T13:10:34.780000Z</time>
      </trkpt>
      <trkpt lat="26.82343979030652" lon="100.21483010868651">
        <ele>2345.7080651759993</ele>
        <time>2026-07-26T13:10:40.780000Z</time>
      </trkpt>
      <trkpt lat="26.823622635621273" lon="100.21472196126">
        <ele>2345.2447443126753</ele>
        <time>2026-07-26T13:10:49.780000Z</time>
      </trkpt>
      <trkpt lat="26.82390155012019" lon="100.21468390385458">
        <ele>2346.095866888237</ele>
        <time>2026-07-26T13:11:04.780000Z</time>
      </trkpt>
      <trkpt lat="26.82420045088273" lon="100.21463683395373">
        <ele>2344.789541605411</ele>
        <time>2026-07-26T13:11:19.780000Z</time>
      </trkpt>
      <trkpt lat="26.82446834644484" lon="100.21458175413626">
        <ele>2348.8071508010567</ele>
        <time>2026-07-26T13:11:34.780000Z</time>
      </trkpt>
      <trkpt lat="26.824625318894462" lon="100.21457774484165">
        <ele>2351.540191911862</ele>
        <time>2026-07-26T13:11:43.780000Z</time>
      </trkpt>
      <trkpt lat="26.824901198746222" lon="100.21451064874238">
        <ele>2351.7614615833463</ele>
        <time>2026-07-26T13:11:58.780000Z</time>
      </trkpt>
      <trkpt lat="26.82521509800975" lon="100.21446457952017">
        <ele>2350.8096415245973</ele>
        <time>2026-07-26T13:12:19.780000Z</time>
      </trkpt>
      <trkpt lat="26.82551898659404" lon="100.21440849713765">
        <ele>2348.993376522366</ele>
        <time>2026-07-26T13:12:37.780000Z</time>
      </trkpt>
      <trkpt lat="26.825754878940494" lon="100.21434740969197">
        <ele>2346.4925923880323</ele>
        <time>2026-07-26T13:12:49.780000Z</time>
      </trkpt>
      <trkpt lat="26.826064785538026" lon="100.21430734834692">
        <ele>2349.5941121873266</ele>
        <time>2026-07-26T13:13:04.780000Z</time>
      </trkpt>
      <trkpt lat="26.826108752646505" lon="100.21428531779148">
        <ele>2349.7562897513503</ele>
        <time>2026-07-26T13:13:07.780000Z</time>
      </trkpt>
      <trkpt lat="26.826287737233276" lon="100.21429432529875">
        <ele>2349.755081257429</ele>
        <time>2026-07-26T13:13:16.780000Z</time>
      </trkpt>
      <trkpt lat="26.826371662357708" lon="100.21424225353515">
        <ele>2349.348652610671</ele>
        <time>2026-07-26T13:13:22.780000Z</time>
      </trkpt>
      <trkpt lat="26.826368566405257" lon="100.21416214630618">
        <ele>2349.026090509488</ele>
        <time>2026-07-26T13:13:25.780000Z</time>
      </trkpt>
      <trkpt lat="26.826346482719092" lon="100.2140900501074">
        <ele>2349.1332694351636</ele>
        <time>2026-07-26T13:13:28.780000Z</time>
      </trkpt>
      <trkpt lat="26.826351419120282" lon="100.21403797999366">
        <ele>2349.061586495505</ele>
        <time>2026-07-26T13:13:31.780000Z</time>
      </trkpt>
      <trkpt lat="26.826476339042735" lon="100.21398690809575">
        <ele>2350.198440714714</ele>
        <time>2026-07-26T13:13:40.780000Z</time>
      </trkpt>
      <trkpt lat="26.826526355919178" lon="100.2140069337905">
        <ele>2350.7308047842957</ele>
        <time>2026-07-26T13:13:43.780000Z</time>
      </trkpt>
      <trkpt lat="26.826580464071903" lon="100.21410306165684">
        <ele>2350.233053228203</ele>
        <time>2026-07-26T13:13:49.780000Z</time>
      </trkpt>
      <trkpt lat="26.82658652957557" lon="100.21415813540791">
        <ele>2350.1147359578054</ele>
        <time>2026-07-26T13:13:52.780000Z</time>
      </trkpt>
      <trkpt lat="26.826893419254116" lon="100.21410405506502">
        <ele>2350.3610718299565</ele>
        <time>2026-07-26T13:14:10.880000Z</time>
      </trkpt>
      <trkpt lat="26.827165335686797" lon="100.21406799974163">
        <ele>2346.624339050544</ele>
        <time>2026-07-26T13:14:25.880000Z</time>
      </trkpt>
      <trkpt lat="26.827488214226033" lon="100.21400690939686">
        <ele>2347.3593818022396</ele>
        <time>2026-07-26T13:14:43.880000Z</time>
      </trkpt>
      <trkpt lat="26.827799090701518" lon="100.21394281518268">
        <ele>2346.9744851904893</ele>
        <time>2026-07-26T13:15:01.880000Z</time>
      </trkpt>
      <trkpt lat="26.827942040419945" lon="100.21391877914837">
        <ele>2346.3000394632973</ele>
        <time>2026-07-26T13:15:10.880000Z</time>
      </trkpt>
      <trkpt lat="26.828016044011868" lon="100.21393079347823">
        <ele>2346.736762488783</ele>
        <time>2026-07-26T13:15:13.880000Z</time>
      </trkpt>
      <trkpt lat="26.82810700504624" lon="100.2139097628062">
        <ele>2347.1783376566277</ele>
        <time>2026-07-26T13:15:19.880000Z</time>
      </trkpt>
      <trkpt lat="26.82826296855407" lon="100.21389874398679">
        <ele>2348.586532823534</ele>
        <time>2026-07-26T13:15:28.880000Z</time>
      </trkpt>
      <trkpt lat="26.828456870511808" lon="100.21384166198338">
        <ele>2345.9730495991726</ele>
        <time>2026-07-26T13:15:37.880000Z</time>
      </trkpt>
      <trkpt lat="26.828734776877916" lon="100.21379859671109">
        <ele>2344.319954705874</ele>
        <time>2026-07-26T13:15:52.880000Z</time>
      </trkpt>
      <trkpt lat="26.829050667710487" lon="100.21374751956338">
        <ele>2346.4608821472866</ele>
        <time>2026-07-26T13:16:10.880000Z</time>
      </trkpt>
      <trkpt lat="26.829176641604096" lon="100.21374150822878">
        <ele>2347.633006294753</ele>
        <time>2026-07-26T13:16:19.880000Z</time>
      </trkpt>
      <trkpt lat="26.829443515150363" lon="100.21367040505474">
        <ele>2349.445282768736</ele>
        <time>2026-07-26T13:16:34.880000Z</time>
      </trkpt>
      <trkpt lat="26.829738422176558" lon="100.21363034318806">
        <ele>2348.715369354074</ele>
        <time>2026-07-26T13:16:52.880000Z</time>
      </trkpt>
      <trkpt lat="26.829860408787656" lon="100.21363434553454">
        <ele>2346.852785987369</ele>
        <time>2026-07-26T13:16:58.880000Z</time>
      </trkpt>
      <trkpt lat="26.83005329550119" lon="100.21356524671069">
        <ele>2345.6203740528244</ele>
        <time>2026-07-26T13:17:10.880000Z</time>
      </trkpt>
      <trkpt lat="26.830319193130386" lon="100.21351417043718">
        <ele>2352.130023751408</ele>
        <time>2026-07-26T13:17:25.880000Z</time>
      </trkpt>
      <trkpt lat="26.830424192045427" lon="100.21352618414073">
        <ele>2356.5752653474574</ele>
        <time>2026-07-26T13:17:31.880000Z</time>
      </trkpt>
      <trkpt lat="26.83056113101195" lon="100.21349313564527">
        <ele>2355.774343824553</ele>
        <time>2026-07-26T13:17:40.880000Z</time>
      </trkpt>
      <trkpt lat="26.830685117248294" lon="100.21349713795884">
        <ele>2354.462549254178</ele>
        <time>2026-07-26T13:17:46.880000Z</time>
      </trkpt>
      <trkpt lat="26.830803070054746" lon="100.21347310220412">
        <ele>2356.5515494546507</ele>
        <time>2026-07-26T13:17:52.880000Z</time>
      </trkpt>
      <trkpt lat="26.830879009532012" lon="100.21343304563155">
        <ele>2355.1971822456144</ele>
        <time>2026-07-26T13:17:58.880000Z</time>
      </trkpt>
      <trkpt lat="26.831175895945425" lon="100.21337696150641">
        <ele>2351.568214588416</ele>
        <time>2026-07-26T13:18:16.880000Z</time>
      </trkpt>
      <trkpt lat="26.83123386874809" lon="100.2133619395021">
        <ele>2348.5344567228526</ele>
        <time>2026-07-26T13:18:19.880000Z</time>
      </trkpt>
      <trkpt lat="26.831520967761186" lon="100.21347809081801">
        <ele>2346.1489426346984</ele>
        <time>2026-07-26T13:18:37.880000Z</time>
      </trkpt>
      <trkpt lat="26.831562990819624" lon="100.21350212251043">
        <ele>2345.735789837266</ele>
        <time>2026-07-26T13:18:40.880000Z</time>
      </trkpt>
      <trkpt lat="26.83165059750526" lon="100.21319269707413">
        <ele>2344.164212458853</ele>
        <time>2026-07-26T13:19:01.880000Z</time>
      </trkpt>
      <trkpt lat="26.83168338351536" lon="100.2130234634519">
        <ele>2344.5714899916334</ele>
        <time>2026-07-26T13:19:10.880000Z</time>
      </trkpt>
      <trkpt lat="26.831809962555834" lon="100.21270001272813">
        <ele>2345.168627664181</ele>
        <time>2026-07-26T13:19:28.880000Z</time>
      </trkpt>
      <trkpt lat="26.831876837430958" lon="100.21260788294539">
        <ele>2346.619572903672</ele>
        <time>2026-07-26T13:19:34.880000Z</time>
      </trkpt>
      <trkpt lat="26.831885744670625" lon="100.21253478089096">
        <ele>2346.467068889194</ele>
        <time>2026-07-26T13:19:40.880000Z</time>
      </trkpt>
      <trkpt lat="26.83185782905228" lon="100.21259887088299">
        <ele>2347.567813415665</ele>
        <time>2026-07-26T13:19:52.880000Z</time>
      </trkpt>
      <trkpt lat="26.831832142415593" lon="100.21284721625284">
        <ele>2346.598536325489</ele>
        <time>2026-07-26T13:20:04.880000Z</time>
      </trkpt>
      <trkpt lat="26.831718500740234" lon="100.21312259904245">
        <ele>2346.9859628902464</ele>
        <time>2026-07-26T13:20:19.880000Z</time>
      </trkpt>
      <trkpt lat="26.83160587391809" lon="100.21341199848011">
        <ele>2346.9827173507683</ele>
        <time>2026-07-26T13:20:34.880000Z</time>
      </trkpt>
      <trkpt lat="26.831490241463623" lon="100.21369839117375">
        <ele>2345.3262299471426</ele>
        <time>2026-07-26T13:20:49.880000Z</time>
      </trkpt>
      <trkpt lat="26.831368634167013" lon="100.21400681097799">
        <ele>2346.2375209435986</ele>
        <time>2026-07-26T13:21:07.880000Z</time>
      </trkpt>
      <trkpt lat="26.831265870786833" lon="100.21419005969013">
        <ele>2346.5121539528873</ele>
        <time>2026-07-26T13:21:19.880000Z</time>
      </trkpt>
      <trkpt lat="26.831132294334182" lon="100.21452651203788">
        <ele>2347.506829452512</ele>
        <time>2026-07-26T13:21:37.880000Z</time>
      </trkpt>
      <trkpt lat="26.83099969304466" lon="100.21484493682762">
        <ele>2345.938300456925</ele>
        <time>2026-07-26T13:21:55.880000Z</time>
      </trkpt>
      <trkpt lat="26.830946840778783" lon="100.21496309368162">
        <ele>2346.7764893216954</ele>
        <time>2026-07-26T13:22:01.880000Z</time>
      </trkpt>
      <trkpt lat="26.830848192679984" lon="100.21524947115672">
        <ele>2346.7187130844036</ele>
        <time>2026-07-26T13:22:16.880000Z</time>
      </trkpt>
      <trkpt lat="26.83073854262534" lon="100.21553484484372">
        <ele>2346.214824884169</ele>
        <time>2026-07-26T13:22:31.880000Z</time>
      </trkpt>
      <trkpt lat="26.830599929186157" lon="100.21585025509229">
        <ele>2345.813777488844</ele>
        <time>2026-07-26T13:22:49.980000Z</time>
      </trkpt>
      <trkpt lat="26.830480294979132" lon="100.21615264488918">
        <ele>2345.009579110103</ele>
        <time>2026-07-26T13:23:07.980000Z</time>
      </trkpt>
      <trkpt lat="26.830346660105874" lon="100.21645503190877">
        <ele>2348.041148748148</ele>
        <time>2026-07-26T13:23:25.980000Z</time>
      </trkpt>
      <trkpt lat="26.830315719340806" lon="100.21650309337821">
        <ele>2347.9912079024357</ele>
        <time>2026-07-26T13:23:28.980000Z</time>
      </trkpt>
      <trkpt lat="26.83020007740667" lon="100.21680447504123">
        <ele>2345.5995783259427</ele>
        <time>2026-07-26T13:23:43.980000Z</time>
      </trkpt>
      <trkpt lat="26.83007243784853" lon="100.21710885759431">
        <ele>2346.231340496743</ele>
        <time>2026-07-26T13:23:58.980000Z</time>
      </trkpt>
      <trkpt lat="26.829960767539802" lon="100.21739020818208">
        <ele>2346.066235338919</ele>
        <time>2026-07-26T13:24:13.980000Z</time>
      </trkpt>
      <trkpt lat="26.829876037882592" lon="100.21762349659035">
        <ele>2344.724860402024</ele>
        <time>2026-07-26T13:24:25.980000Z</time>
      </trkpt>
      <trkpt lat="26.829747375483375" lon="100.21791385347983">
        <ele>2344.4662828009136</ele>
        <time>2026-07-26T13:24:40.980000Z</time>
      </trkpt>
      <trkpt lat="26.82962073833429" lon="100.21823023864957">
        <ele>2344.201582133109</ele>
        <time>2026-07-26T13:24:58.980000Z</time>
      </trkpt>
      <trkpt lat="26.829491090993706" lon="100.21853961201792">
        <ele>2343.9454838137285</ele>
        <time>2026-07-26T13:25:16.980000Z</time>
      </trkpt>
      <trkpt lat="26.829364425304817" lon="100.21883496537785">
        <ele>2344.6995033604394</ele>
        <time>2026-07-26T13:25:34.980000Z</time>
      </trkpt>
      <trkpt lat="26.829233785937625" lon="100.21915734734227">
        <ele>2344.098107520796</ele>
        <time>2026-07-26T13:25:52.980000Z</time>
      </trkpt>
      <trkpt lat="26.829113115682308" lon="100.21945469636265">
        <ele>2344.544341526103</ele>
        <time>2026-07-26T13:26:07.980000Z</time>
      </trkpt>
      <trkpt lat="26.82907423935441" lon="100.21956782814439">
        <ele>2344.346922979103</ele>
        <time>2026-07-26T13:26:13.980000Z</time>
      </trkpt>
      <trkpt lat="26.82901136516081" lon="100.21967995892209">
        <ele>2344.146667678357</ele>
        <time>2026-07-26T13:26:19.980000Z</time>
      </trkpt>
      <trkpt lat="26.829006423962774" lon="100.2197360234708">
        <ele>2344.2798707507122</ele>
        <time>2026-07-26T13:26:22.980000Z</time>
      </trkpt>
      <trkpt lat="26.829041504608806" lon="100.21981911785996">
        <ele>2344.337316145987</ele>
        <time>2026-07-26T13:26:28.980000Z</time>
      </trkpt>
      <trkpt lat="26.829041670539894" lon="100.2199803019601">
        <ele>2343.906960662687</ele>
        <time>2026-07-26T13:26:37.980000Z</time>
      </trkpt>
      <trkpt lat="26.829092725586115" lon="100.22004137017706">
        <ele>2343.995486069721</ele>
        <time>2026-07-26T13:26:43.980000Z</time>
      </trkpt>
      <trkpt lat="26.829356783512587" lon="100.22013647147875">
        <ele>2345.6843091675255</ele>
        <time>2026-07-26T13:26:58.980000Z</time>
      </trkpt>
      <trkpt lat="26.829642861248477" lon="100.22025459791115">
        <ele>2342.979245567136</ele>
        <time>2026-07-26T13:27:14.080000Z</time>
      </trkpt>
      <trkpt lat="26.829890952284593" lon="100.22038073380915">
        <ele>2343.107100893476</ele>
        <time>2026-07-26T13:27:29.080000Z</time>
      </trkpt>
      <trkpt lat="26.829975995333022" lon="100.22043579353704">
        <ele>2344.0661224661385</ele>
        <time>2026-07-26T13:27:35.080000Z</time>
      </trkpt>
      <trkpt lat="26.8301682269402" lon="100.22069407747374">
        <ele>2343.7951479554445</ele>
        <time>2026-07-26T13:27:53.080000Z</time>
      </trkpt>
      <trkpt lat="26.830373436468356" lon="100.22093433875128">
        <ele>2343.5774482305915</ele>
        <time>2026-07-26T13:28:11.080000Z</time>
      </trkpt>
      <trkpt lat="26.83057865894115" lon="100.22118961437121">
        <ele>2342.7765774301247</ele>
        <time>2026-07-26T13:28:29.080000Z</time>
      </trkpt>
      <trkpt lat="26.830666658551795" lon="100.22120262639727">
        <ele>2342.0785564208063</ele>
        <time>2026-07-26T13:28:35.080000Z</time>
      </trkpt>
      <trkpt lat="26.8307477085832" lon="100.22126569332622">
        <ele>2341.292284713861</ele>
        <time>2026-07-26T13:28:41.080000Z</time>
      </trkpt>
      <trkpt lat="26.830798718655856" lon="100.22128371171749">
        <ele>2341.2523363276255</ele>
        <time>2026-07-26T13:28:44.080000Z</time>
      </trkpt>
      <trkpt lat="26.830763719984336" lon="100.22127970823009">
        <ele>2341.7646701767867</ele>
        <time>2026-07-26T13:28:50.080000Z</time>
      </trkpt>
    </trkseg>
  </trk>
</gpx>