<?xml version="1.0" encoding="UTF-8"?>
<gpx xmlns="http://www.topografix.com/GPX/1/1" xmlns:gpxtpx="http://www.garmin.com/xmlschemas/TrackPointExtension/v1" xmlns:xsi="http://www.w3.org/2001/XMLSchema-instance" xsi:schemaLocation="http://www.topografix.com/GPX/1/1 http://www.topografix.com/GPX/1/1/gpx.xsd" version="1.1" creator="gpx.py -- https://github.com/tkrajina/gpxpy">
  <trk>
    <name>gpx from keep</name>
    <type>Run</type>
    <trkseg>
      <trkpt lat="26.823547694601977" lon="100.22019368307772">
        <ele>2360.9176389314234</ele>
        <time>2026-09-10T02:20:02.886000Z</time>
      </trkpt>
      <trkpt lat="26.823628634887722" lon="100.22014662774741">
        <ele>2345.3286611810327</ele>
        <time>2026-09-10T02:20:05.686000Z</time>
      </trkpt>
      <trkpt lat="26.823694615137356" lon="100.22013661473117">
        <ele>2343.2065012473613</ele>
        <time>2026-09-10T02:20:08.686000Z</time>
      </trkpt>
      <trkpt lat="26.823786624359027" lon="100.22015863736242">
        <ele>2345.2656905426625</ele>
        <time>2026-09-10T02:20:11.686000Z</time>
      </trkpt>
      <trkpt lat="26.824041577288877" lon="100.22014861956994">
        <ele>2342.9539865843503</ele>
        <time>2026-09-10T02:20:23.686000Z</time>
      </trkpt>
      <trkpt lat="26.824121580032237" lon="100.22016263342493">
        <ele>2338.2693476851914</ele>
        <time>2026-09-10T02:20:26.686000Z</time>
      </trkpt>
      <trkpt lat="26.82427154093738" lon="100.2201456103488">
        <ele>2339.8544882235565</ele>
        <time>2026-09-10T02:20:32.686000Z</time>
      </trkpt>
      <trkpt lat="26.824537564715722" lon="100.22020667276033">
        <ele>2340.974111894593</ele>
        <time>2026-09-10T02:20:44.686000Z</time>
      </trkpt>
      <trkpt lat="26.82483856895709" lon="100.22025371832646">
        <ele>2340.8170691101104</ele>
        <time>2026-09-10T02:20:56.686000Z</time>
      </trkpt>
      <trkpt lat="26.824899574357946" lon="100.22026773260879">
        <ele>2340.56821215036</ele>
        <time>2026-09-10T02:20:59.686000Z</time>
      </trkpt>
      <trkpt lat="26.82500265196513" lon="100.22035883269412">
        <ele>2339.0251375582907</ele>
        <time>2026-09-10T02:21:05.686000Z</time>
      </trkpt>
      <trkpt lat="26.825025721686142" lon="100.22043091314868">
        <ele>2337.9537847380097</ele>
        <time>2026-09-10T02:21:08.686000Z</time>
      </trkpt>
      <trkpt lat="26.825018800661915" lon="100.22050799978065">
        <ele>2337.1826690971</ele>
        <time>2026-09-10T02:21:11.686000Z</time>
      </trkpt>
      <trkpt lat="26.82503688690377" lon="100.22059609786648">
        <ele>2335.6567557274743</ele>
        <time>2026-09-10T02:21:14.686000Z</time>
      </trkpt>
      <trkpt lat="26.82501427010898" lon="100.22097551961411">
        <ele>2336.50697340658</ele>
        <time>2026-09-10T02:21:29.686000Z</time>
      </trkpt>
      <trkpt lat="26.82502648871233" lon="100.22119776356587">
        <ele>2336.1845586171344</ele>
        <time>2026-09-10T02:21:38.686000Z</time>
      </trkpt>
      <trkpt lat="26.825033807396615" lon="100.22152311770148">
        <ele>2336.448574719136</ele>
        <time>2026-09-10T02:21:50.686000Z</time>
      </trkpt>
      <trkpt lat="26.825034116888684" lon="100.22184146061072">
        <ele>2334.876319216985</ele>
        <time>2026-09-10T02:22:02.686000Z</time>
      </trkpt>
      <trkpt lat="26.82503043515107" lon="100.222171812601">
        <ele>2332.1830310442388</ele>
        <time>2026-09-10T02:22:14.786000Z</time>
      </trkpt>
      <trkpt lat="26.825048736230503" lon="100.2224911484572">
        <ele>2332.3959614162795</ele>
        <time>2026-09-10T02:22:26.786000Z</time>
      </trkpt>
      <trkpt lat="26.825048083500004" lon="100.2228605327695">
        <ele>2331.7476858700356</ele>
        <time>2026-09-10T02:22:41.686000Z</time>
      </trkpt>
      <trkpt lat="26.82506936304296" lon="100.22316484500081">
        <ele>2332.6480383612525</ele>
        <time>2026-09-10T02:22:53.786000Z</time>
      </trkpt>
      <trkpt lat="26.82506368183057" lon="100.22351119689637">
        <ele>2332.8234204817227</ele>
        <time>2026-09-10T02:23:08.786000Z</time>
      </trkpt>
      <trkpt lat="26.825064973066905" lon="100.22383251916004">
        <ele>2333.3594354950988</ele>
        <time>2026-09-10T02:23:23.786000Z</time>
      </trkpt>
      <trkpt lat="26.825054294686307" lon="100.22418987328736">
        <ele>2333.503423086973</ele>
        <time>2026-09-10T02:23:38.786000Z</time>
      </trkpt>
      <trkpt lat="26.825048626234693" lon="100.22456423894123">
        <ele>2333.9864125522454</ele>
        <time>2026-09-10T02:23:53.786000Z</time>
      </trkpt>
      <trkpt lat="26.82507871211108" lon="100.22466733790655">
        <ele>2332.2775007393925</ele>
        <time>2026-09-10T02:23:56.786000Z</time>
      </trkpt>
      <trkpt lat="26.825075031328517" lon="100.22503469003343">
        <ele>2335.2350110161487</ele>
        <time>2026-09-10T02:24:11.786000Z</time>
      </trkpt>
      <trkpt lat="26.82507426810196" lon="100.2253109513956">
        <ele>2335.9556016219385</ele>
        <time>2026-09-10T02:24:23.786000Z</time>
      </trkpt>
      <trkpt lat="26.825092566041253" lon="100.22566628277264">
        <ele>2337.5264537129947</ele>
        <time>2026-09-10T02:24:38.786000Z</time>
      </trkpt>
      <trkpt lat="26.825085675215856" lon="100.22579540232658">
        <ele>2337.080353250255</ele>
        <time>2026-09-10T02:24:44.786000Z</time>
      </trkpt>
      <trkpt lat="26.825104847304353" lon="100.22600559480604">
        <ele>2336.9004705341126</ele>
        <time>2026-09-10T02:24:53.786000Z</time>
      </trkpt>
      <trkpt lat="26.825087168209162" lon="100.22639294638138">
        <ele>2336.1481269360625</ele>
        <time>2026-09-10T02:25:11.786000Z</time>
      </trkpt>
      <trkpt lat="26.825092223691165" lon="100.22646200824732">
        <ele>2336.0195393121076</ele>
        <time>2026-09-10T02:25:14.786000Z</time>
      </trkpt>
      <trkpt lat="26.825026404170618" lon="100.22667319833442">
        <ele>2336.969831697297</ele>
        <time>2026-09-10T02:25:23.786000Z</time>
      </trkpt>
      <trkpt lat="26.824960523899655" lon="100.22681032141143">
        <ele>2341.1818080543135</ele>
        <time>2026-09-10T02:25:29.786000Z</time>
      </trkpt>
      <trkpt lat="26.824973562840462" lon="100.22686136609309">
        <ele>2341.504066430134</ele>
        <time>2026-09-10T02:25:32.786000Z</time>
      </trkpt>
      <trkpt lat="26.8249197362949" lon="100.22706954997355">
        <ele>2346.5331574082</ele>
        <time>2026-09-10T02:25:41.786000Z</time>
      </trkpt>
      <trkpt lat="26.82494694197247" lon="100.22733578023791">
        <ele>2345.644800161466</ele>
        <time>2026-09-10T02:25:50.786000Z</time>
      </trkpt>
      <trkpt lat="26.82492100284862" lon="100.2274088437892">
        <ele>2345.635200849745</ele>
        <time>2026-09-10T02:25:53.786000Z</time>
      </trkpt>
      <trkpt lat="26.82487704746643" lon="100.22745788699969">
        <ele>2346.548093701968</ele>
        <time>2026-09-10T02:25:56.786000Z</time>
      </trkpt>
      <trkpt lat="26.824829263555984" lon="100.22772811849936">
        <ele>2344.4796656501007</ele>
        <time>2026-09-10T02:26:08.786000Z</time>
      </trkpt>
      <trkpt lat="26.824851318764182" lon="100.2278041822491">
        <ele>2343.746406597905</ele>
        <time>2026-09-10T02:26:11.786000Z</time>
      </trkpt>
      <trkpt lat="26.82481450878009" lon="100.2280463864278">
        <ele>2341.2259870967932</ele>
        <time>2026-09-10T02:26:23.786000Z</time>
      </trkpt>
      <trkpt lat="26.824755662392644" lon="100.22823854752541">
        <ele>2340.0296285505215</ele>
        <time>2026-09-10T02:26:35.786000Z</time>
      </trkpt>
      <trkpt lat="26.824757705663984" lon="100.22829659540375">
        <ele>2339.583440360687</ele>
        <time>2026-09-10T02:26:38.786000Z</time>
      </trkpt>
      <trkpt lat="26.82480272984942" lon="100.22833762806874">
        <ele>2339.5533418904406</ele>
        <time>2026-09-10T02:26:41.786000Z</time>
      </trkpt>
      <trkpt lat="26.82508275189163" lon="100.22842169004585">
        <ele>2342.289267514466</ele>
        <time>2026-09-10T02:26:53.786000Z</time>
      </trkpt>
      <trkpt lat="26.825370800649587" lon="100.22854378255744">
        <ele>2347.408702618762</ele>
        <time>2026-09-10T02:27:05.786000Z</time>
      </trkpt>
      <trkpt lat="26.825682834244745" lon="100.2286508617106">
        <ele>2347.406059864486</ele>
        <time>2026-09-10T02:27:20.786000Z</time>
      </trkpt>
      <trkpt lat="26.82590787053857" lon="100.22874493211138">
        <ele>2345.288860963271</ele>
        <time>2026-09-10T02:27:32.786000Z</time>
      </trkpt>
      <trkpt lat="26.82593990546319" lon="100.22879897484974">
        <ele>2342.185968267509</ele>
        <time>2026-09-10T02:27:35.786000Z</time>
      </trkpt>
      <trkpt lat="26.825950960882885" lon="100.22887703726721">
        <ele>2340.291778024458</ele>
        <time>2026-09-10T02:27:38.786000Z</time>
      </trkpt>
      <trkpt lat="26.825862161019497" lon="100.22913524516551">
        <ele>2335.5812999940463</ele>
        <time>2026-09-10T02:27:50.786000Z</time>
      </trkpt>
      <trkpt lat="26.82582332799748" lon="100.22936042333463">
        <ele>2334.989710146617</ele>
        <time>2026-09-10T02:27:59.786000Z</time>
      </trkpt>
      <trkpt lat="26.825879343311435" lon="100.22939344773937">
        <ele>2335.170077947386</ele>
        <time>2026-09-10T02:28:02.786000Z</time>
      </trkpt>
      <trkpt lat="26.82593233840397" lon="100.22939744952878">
        <ele>2335.0319894575337</ele>
        <time>2026-09-10T02:28:05.786000Z</time>
      </trkpt>
      <trkpt lat="26.82597930945184" lon="100.22936642409651">
        <ele>2334.8113500351615</ele>
        <time>2026-09-10T02:28:08.786000Z</time>
      </trkpt>
      <trkpt lat="26.82604629821807" lon="100.22936442084065">
        <ele>2334.5766961586683</ele>
        <time>2026-09-10T02:28:11.786000Z</time>
      </trkpt>
      <trkpt lat="26.82606533529069" lon="100.22942046413824">
        <ele>2337.0133216296654</ele>
        <time>2026-09-10T02:28:14.786000Z</time>
      </trkpt>
      <trkpt lat="26.82611736954498" lon="100.22947950881317">
        <ele>2337.5447679746103</ele>
        <time>2026-09-10T02:28:17.786000Z</time>
      </trkpt>
      <trkpt lat="26.826390370560965" lon="100.22953754699819">
        <ele>2336.35635123861</ele>
        <time>2026-09-10T02:28:35.786000Z</time>
      </trkpt>
      <trkpt lat="26.826572381239657" lon="100.22959058347591">
        <ele>2336.3680440199278</ele>
        <time>2026-09-10T02:28:44.786000Z</time>
      </trkpt>
      <trkpt lat="26.826624370075557" lon="100.22958557829452">
        <ele>2336.674238670124</ele>
        <time>2026-09-10T02:28:47.786000Z</time>
      </trkpt>
      <trkpt lat="26.826672343975986" lon="100.22955855617032">
        <ele>2336.61544396051</ele>
        <time>2026-09-10T02:28:50.786000Z</time>
      </trkpt>
      <trkpt lat="26.82670730137133" lon="100.22950551415062">
        <ele>2336.3928549573716</ele>
        <time>2026-09-10T02:28:53.786000Z</time>
      </trkpt>
      <trkpt lat="26.82678410341852" lon="100.22924330720579">
        <ele>2338.647489543982</ele>
        <time>2026-09-10T02:29:08.786000Z</time>
      </trkpt>
      <trkpt lat="26.82696286332384" lon="100.22894706779333">
        <ele>2340.2999660596774</ele>
        <time>2026-09-10T02:29:23.786000Z</time>
      </trkpt>
      <trkpt lat="26.82702781879854" lon="100.22889902773359">
        <ele>2339.5857015216206</ele>
        <time>2026-09-10T02:29:26.786000Z</time>
      </trkpt>
      <trkpt lat="26.827060776711832" lon="100.22884798597967">
        <ele>2339.0522259198824</ele>
        <time>2026-09-10T02:29:29.786000Z</time>
      </trkpt>
      <trkpt lat="26.82706972047764" lon="100.22877292538651">
        <ele>2339.208984086065</ele>
        <time>2026-09-10T02:29:32.786000Z</time>
      </trkpt>
      <trkpt lat="26.827041621581117" lon="100.22863281281239">
        <ele>2339.1223049817704</ele>
        <time>2026-09-10T02:29:38.786000Z</time>
      </trkpt>
      <trkpt lat="26.827065463718537" lon="100.22842464246952">
        <ele>2339.617171371137</ele>
        <time>2026-09-10T02:29:47.786000Z</time>
      </trkpt>
      <trkpt lat="26.827012333747877" lon="100.22824049222731">
        <ele>2339.0809259778216</ele>
        <time>2026-09-10T02:29:56.786000Z</time>
      </trkpt>
      <trkpt lat="26.82697509753584" lon="100.22792122719912">
        <ele>2332.181591435372</ele>
        <time>2026-09-10T02:30:11.786000Z</time>
      </trkpt>
      <trkpt lat="26.82694386464241" lon="100.2276119665334">
        <ele>2333.8499139434894</ele>
        <time>2026-09-10T02:30:23.786000Z</time>
      </trkpt>
      <trkpt lat="26.826913611023457" lon="100.22728068306581">
        <ele>2335.859781874055</ele>
        <time>2026-09-10T02:30:38.786000Z</time>
      </trkpt>
      <trkpt lat="26.826906554635755" lon="100.22720761998025">
        <ele>2335.614790074763</ele>
        <time>2026-09-10T02:30:41.786000Z</time>
      </trkpt>
      <trkpt lat="26.826930491129353" lon="100.22713155329068">
        <ele>2337.2965668065945</ele>
        <time>2026-09-10T02:30:50.786000Z</time>
      </trkpt>
      <trkpt lat="26.8269632307649" lon="100.22681027084909">
        <ele>2335.885239468468</ele>
        <time>2026-09-10T02:31:05.786000Z</time>
      </trkpt>
      <trkpt lat="26.826995951409938" lon="100.22646996735506">
        <ele>2338.250919033196</ele>
        <time>2026-09-10T02:31:20.786000Z</time>
      </trkpt>
      <trkpt lat="26.82701785524473" lon="100.22635586431201">
        <ele>2337.824804132648</ele>
        <time>2026-09-10T02:31:26.786000Z</time>
      </trkpt>
      <trkpt lat="26.827049819456725" lon="100.22631782922933">
        <ele>2338.044114151935</ele>
        <time>2026-09-10T02:31:29.786000Z</time>
      </trkpt>
      <trkpt lat="26.827076649466452" lon="100.22611564540928">
        <ele>2340.9733016518876</ele>
        <time>2026-09-10T02:31:44.786000Z</time>
      </trkpt>
      <trkpt lat="26.82722639326178" lon="100.22583338330867">
        <ele>2339.32446504198</ele>
        <time>2026-09-10T02:31:59.786000Z</time>
      </trkpt>
      <trkpt lat="26.827384104411774" lon="100.22551708620931">
        <ele>2341.933208525232</ele>
        <time>2026-09-10T02:32:14.786000Z</time>
      </trkpt>
      <trkpt lat="26.827552883192045" lon="100.22528586523897">
        <ele>2338.1980375564276</ele>
        <time>2026-09-10T02:32:26.786000Z</time>
      </trkpt>
      <trkpt lat="26.827609775530966" lon="100.225169754205">
        <ele>2338.267100455922</ele>
        <time>2026-09-10T02:32:32.786000Z</time>
      </trkpt>
      <trkpt lat="26.827671615792013" lon="100.22499458632497">
        <ele>2338.1457911995153</ele>
        <time>2026-09-10T02:32:41.786000Z</time>
      </trkpt>
      <trkpt lat="26.827722570227568" lon="100.22495054303592">
        <ele>2338.2848197360763</ele>
        <time>2026-09-10T02:32:47.786000Z</time>
      </trkpt>
      <trkpt lat="26.82773152041126" lon="100.22489448924557">
        <ele>2338.1065196829923</ele>
        <time>2026-09-10T02:32:56.786000Z</time>
      </trkpt>
      <trkpt lat="26.827616375620163" lon="100.22470831338319">
        <ele>2336.3930274343115</ele>
        <time>2026-09-10T02:33:05.786000Z</time>
      </trkpt>
      <trkpt lat="26.827567255043068" lon="100.22456217337191">
        <ele>2337.4329541413854</ele>
        <time>2026-09-10T02:33:11.786000Z</time>
      </trkpt>
      <trkpt lat="26.82757512973701" lon="100.22442103598587">
        <ele>2338.362293319235</ele>
        <time>2026-09-10T02:33:17.786000Z</time>
      </trkpt>
      <trkpt lat="26.827598075085383" lon="100.22436297875457">
        <ele>2338.1471367079607</ele>
        <time>2026-09-10T02:33:20.886000Z</time>
      </trkpt>
      <trkpt lat="26.82768899075208" lon="100.2242828981071">
        <ele>2337.1718074380387</ele>
        <time>2026-09-10T02:33:26.886000Z</time>
      </trkpt>
      <trkpt lat="26.827879897622612" lon="100.22420982157617">
        <ele>2338.2297319905624</ele>
        <time>2026-09-10T02:33:38.886000Z</time>
      </trkpt>
      <trkpt lat="26.827976927701123" lon="100.22425986826103">
        <ele>2339.0506447695448</ele>
        <time>2026-09-10T02:33:50.886000Z</time>
      </trkpt>
      <trkpt lat="26.82803889185562" lon="100.22422983722485">
        <ele>2336.5917262927724</ele>
        <time>2026-09-10T02:33:59.786000Z</time>
      </trkpt>
      <trkpt lat="26.82808083935157" lon="100.22417778500161">
        <ele>2336.190512144431</ele>
        <time>2026-09-10T02:34:05.886000Z</time>
      </trkpt>
      <trkpt lat="26.82813779702358" lon="100.22413974610879">
        <ele>2335.677700879264</ele>
        <time>2026-09-10T02:34:11.886000Z</time>
      </trkpt>
      <trkpt lat="26.82818981427621" lon="100.22416777239717">
        <ele>2335.875046518733</ele>
        <time>2026-09-10T02:34:17.786000Z</time>
      </trkpt>
      <trkpt lat="26.82820674482215" lon="100.22409269796647">
        <ele>2335.189691345809</ele>
        <time>2026-09-10T02:34:23.886000Z</time>
      </trkpt>
      <trkpt lat="26.828337458479385" lon="100.22379539951535">
        <ele>2334.655615057559</ele>
        <time>2026-09-10T02:34:47.886000Z</time>
      </trkpt>
      <trkpt lat="26.828403330926015" lon="100.22366526760977">
        <ele>2335.5386598225687</ele>
        <time>2026-09-10T02:34:56.886000Z</time>
      </trkpt>
      <trkpt lat="26.828460126479193" lon="100.22345004937415">
        <ele>2336.957220748146</ele>
        <time>2026-09-10T02:35:11.886000Z</time>
      </trkpt>
      <trkpt lat="26.828603831821066" lon="100.22315274338801">
        <ele>2336.2422695632886</ele>
        <time>2026-09-10T02:35:35.886000Z</time>
      </trkpt>
      <trkpt lat="26.828726565375565" lon="100.22288546564113">
        <ele>2337.9140583829626</ele>
        <time>2026-09-10T02:35:56.886000Z</time>
      </trkpt>
    </trkseg>
  </trk>
</gpx>