<?xml version="1.0" encoding="UTF-8"?>
<gpx xmlns="http://www.topografix.com/GPX/1/1" xmlns:gpxtpx="http://www.garmin.com/xmlschemas/TrackPointExtension/v1" xmlns:xsi="http://www.w3.org/2001/XMLSchema-instance" xsi:schemaLocation="http://www.topografix.com/GPX/1/1 http://www.topografix.com/GPX/1/1/gpx.xsd" version="1.1" creator="gpx.py -- https://github.com/tkrajina/gpxpy">
  <trk>
    <name>gpx from keep</name>
    <type>Run</type>
    <trkseg>
      <trkpt lat="26.825008266822312" lon="100.21998240629323">
        <ele>2345.48646113649</ele>
        <time>2026-10-02T03:08:38.302000Z</time>
      </trkpt>
      <trkpt lat="26.82499988960401" lon="100.21961598666701">
        <ele>2339.346257129684</ele>
        <time>2026-10-02T03:08:50.302000Z</time>
      </trkpt>
      <trkpt lat="26.825004557714216" lon="100.21929861901701">
        <ele>2337.3549715345725</ele>
        <time>2026-10-02T03:09:02.302000Z</time>
      </trkpt>
      <trkpt lat="26.825002472876193" lon="100.21921752457882">
        <ele>2340.574627053335</ele>
        <time>2026-10-02T03:09:05.302000Z</time>
      </trkpt>
      <trkpt lat="26.825023389758417" lon="100.21914143517746">
        <ele>2339.022946778593</ele>
        <time>2026-10-02T03:09:08.302000Z</time>
      </trkpt>
      <trkpt lat="26.825107265562995" lon="100.21903530875619">
        <ele>2339.224027608472</ele>
        <time>2026-10-02T03:09:11.302000Z</time>
      </trkpt>
      <trkpt lat="26.825178253108966" lon="100.21903330461046">
        <ele>2339.2242581738055</ele>
        <time>2026-10-02T03:09:14.302000Z</time>
      </trkpt>
      <trkpt lat="26.82548533720413" lon="100.21915543987328">
        <ele>2340.249971988133</ele>
        <time>2026-10-02T03:09:26.302000Z</time>
      </trkpt>
      <trkpt lat="26.825763352433466" lon="100.21920849480941">
        <ele>2340.585405986373</ele>
        <time>2026-10-02T03:09:38.302000Z</time>
      </trkpt>
      <trkpt lat="26.82603339178681" lon="100.21928357549989">
        <ele>2340.5334941281817</ele>
        <time>2026-10-02T03:09:50.302000Z</time>
      </trkpt>
      <trkpt lat="26.826324408950992" lon="100.2193406345189">
        <ele>2339.7549053321072</ele>
        <time>2026-10-02T03:10:02.302000Z</time>
      </trkpt>
      <trkpt lat="26.82662743568283" lon="100.21940870589258">
        <ele>2339.5272024720657</ele>
        <time>2026-10-02T03:10:14.302000Z</time>
      </trkpt>
      <trkpt lat="26.826955469987293" lon="100.21948778921134">
        <ele>2339.0628017439976</ele>
        <time>2026-10-02T03:10:26.302000Z</time>
      </trkpt>
      <trkpt lat="26.82726949044077" lon="100.21955185532424">
        <ele>2339.1890352128007</ele>
        <time>2026-10-02T03:10:38.302000Z</time>
      </trkpt>
      <trkpt lat="26.827558523726008" lon="100.21962493230433">
        <ele>2339.9564367386515</ele>
        <time>2026-10-02T03:10:50.302000Z</time>
      </trkpt>
      <trkpt lat="26.82784254713507" lon="100.21968799770994">
        <ele>2339.9794145590486</ele>
        <time>2026-10-02T03:11:02.302000Z</time>
      </trkpt>
      <trkpt lat="26.828129571971246" lon="100.21975306519437">
        <ele>2339.6427494183085</ele>
        <time>2026-10-02T03:11:14.302000Z</time>
      </trkpt>
      <trkpt lat="26.82842559732839" lon="100.21982013459161">
        <ele>2339.247777976958</ele>
        <time>2026-10-02T03:11:26.302000Z</time>
      </trkpt>
      <trkpt lat="26.828702626322652" lon="100.2198882054516">
        <ele>2339.847023398238</ele>
        <time>2026-10-02T03:11:38.302000Z</time>
      </trkpt>
      <trkpt lat="26.82897872102946" lon="100.22002034914766">
        <ele>2339.858281841956</ele>
        <time>2026-10-02T03:11:53.302000Z</time>
      </trkpt>
      <trkpt lat="26.829223717323384" lon="100.22005237938264">
        <ele>2339.5238623578007</ele>
        <time>2026-10-02T03:12:05.302000Z</time>
      </trkpt>
      <trkpt lat="26.829522781199973" lon="100.22015849223862">
        <ele>2338.88730000763</ele>
        <time>2026-10-02T03:12:20.302000Z</time>
      </trkpt>
      <trkpt lat="26.829810864621784" lon="100.22028262530473">
        <ele>2338.3987868097697</ele>
        <time>2026-10-02T03:12:35.302000Z</time>
      </trkpt>
      <trkpt lat="26.830071976879207" lon="100.22043178661208">
        <ele>2339.5221819035</ele>
        <time>2026-10-02T03:12:50.302000Z</time>
      </trkpt>
      <trkpt lat="26.830329064742976" lon="100.22055692035181">
        <ele>2339.479243858714</ele>
        <time>2026-10-02T03:13:05.402000Z</time>
      </trkpt>
      <trkpt lat="26.83060316255715" lon="100.22069506758535">
        <ele>2338.9785181539537</ele>
        <time>2026-10-02T03:13:20.402000Z</time>
      </trkpt>
      <trkpt lat="26.83089627883508" lon="100.22085523804498">
        <ele>2338.0445113696037</ele>
        <time>2026-10-02T03:13:35.402000Z</time>
      </trkpt>
      <trkpt lat="26.831157373166242" lon="100.22098937968973">
        <ele>2338.765257869669</ele>
        <time>2026-10-02T03:13:47.402000Z</time>
      </trkpt>
      <trkpt lat="26.831393440881858" lon="100.2210934883241">
        <ele>2338.08771837071</ele>
        <time>2026-10-02T03:13:59.402000Z</time>
      </trkpt>
      <trkpt lat="26.831393440881858" lon="100.2210934883241">
        <ele>2338.08771837071</ele>
        <time>2026-10-02T03:14:02.002000Z</time>
      </trkpt>
    </trkseg>
  </trk>
</gpx>