<?xml version="1.0" encoding="UTF-8"?>
<gpx xmlns="http://www.topografix.com/GPX/1/1" xmlns:gpxtpx="http://www.garmin.com/xmlschemas/TrackPointExtension/v1" xmlns:xsi="http://www.w3.org/2001/XMLSchema-instance" xsi:schemaLocation="http://www.topografix.com/GPX/1/1 http://www.topografix.com/GPX/1/1/gpx.xsd" version="1.1" creator="gpx.py -- https://github.com/tkrajina/gpxpy">
  <trk>
    <name>gpx from keep</name>
    <type>Run</type>
    <trkseg>
      <trkpt lat="26.823394731962434" lon="100.22020870393543">
        <ele>2351.8221279101986</ele>
        <time>2026-08-01T03:50:07.633000Z</time>
      </trkpt>
      <trkpt lat="26.823353082214627" lon="100.22054808674135">
        <ele>2350.4597684549963</ele>
        <time>2026-08-01T03:50:19.633000Z</time>
      </trkpt>
      <trkpt lat="26.82332839034051" lon="100.22085142503232">
        <ele>2349.39637969704</ele>
        <time>2026-08-01T03:50:31.633000Z</time>
      </trkpt>
      <trkpt lat="26.823294525978262" lon="100.22098257083691">
        <ele>2349.3934811053364</ele>
        <time>2026-08-01T03:50:37.633000Z</time>
      </trkpt>
      <trkpt lat="26.823257591000434" lon="100.22104263794942">
        <ele>2349.501521502676</ele>
        <time>2026-08-01T03:50:40.633000Z</time>
      </trkpt>
      <trkpt lat="26.82328374786079" lon="100.22120481530986">
        <ele>2344.674725657253</ele>
        <time>2026-08-01T03:50:46.633000Z</time>
      </trkpt>
      <trkpt lat="26.823252027063685" lon="100.22148412044298">
        <ele>2344.390712295078</ele>
        <time>2026-08-01T03:50:58.633000Z</time>
      </trkpt>
      <trkpt lat="26.82319714449768" lon="100.22159624319237">
        <ele>2344.943619536966</ele>
        <time>2026-08-01T03:51:04.633000Z</time>
      </trkpt>
      <trkpt lat="26.822896252099365" lon="100.2216623220999">
        <ele>2346.3643281140157</ele>
        <time>2026-08-01T03:51:19.633000Z</time>
      </trkpt>
      <trkpt lat="26.82277930879234" lon="100.22170336926776">
        <ele>2345.758492226258</ele>
        <time>2026-08-01T03:51:25.633000Z</time>
      </trkpt>
      <trkpt lat="26.822725302918446" lon="100.22168935554373">
        <ele>2346.445657613205</ele>
        <time>2026-08-01T03:51:28.633000Z</time>
      </trkpt>
      <trkpt lat="26.822584358137146" lon="100.2217253978941">
        <ele>2348.1598374678515</ele>
        <time>2026-08-01T03:51:40.633000Z</time>
      </trkpt>
      <trkpt lat="26.822478456777656" lon="100.22181149303493">
        <ele>2350.499343303047</ele>
        <time>2026-08-01T03:51:52.633000Z</time>
      </trkpt>
      <trkpt lat="26.822157527875245" lon="100.2218375290487">
        <ele>2353.9611779410006</ele>
        <time>2026-08-01T03:52:16.633000Z</time>
      </trkpt>
      <trkpt lat="26.82211160407243" lon="100.22190960734073">
        <ele>2354.0142310940464</ele>
        <time>2026-08-01T03:52:22.633000Z</time>
      </trkpt>
      <trkpt lat="26.82208971229755" lon="100.22201872429626">
        <ele>2353.8310986499937</ele>
        <time>2026-08-01T03:52:28.633000Z</time>
      </trkpt>
      <trkpt lat="26.822052747396366" lon="100.2220497582554">
        <ele>2353.2794773880755</ele>
        <time>2026-08-01T03:52:31.633000Z</time>
      </trkpt>
      <trkpt lat="26.821908751602372" lon="100.22203274378971">
        <ele>2353.0536488816783</ele>
        <time>2026-08-01T03:52:43.633000Z</time>
      </trkpt>
      <trkpt lat="26.82160086850157" lon="100.22210883243328">
        <ele>2355.8608215824506</ele>
        <time>2026-08-01T03:53:07.633000Z</time>
      </trkpt>
      <trkpt lat="26.82138491649607" lon="100.22212685701199">
        <ele>2357.145477204289</ele>
        <time>2026-08-01T03:53:25.633000Z</time>
      </trkpt>
      <trkpt lat="26.821319979374053" lon="100.22218291805996">
        <ele>2356.306257673532</ele>
        <time>2026-08-01T03:53:31.633000Z</time>
      </trkpt>
      <trkpt lat="26.82130003193126" lon="100.2222349736229">
        <ele>2355.6902223367024</ele>
        <time>2026-08-01T03:53:34.633000Z</time>
      </trkpt>
      <trkpt lat="26.82122414379566" lon="100.22234108746456">
        <ele>2354.378717024203</ele>
        <time>2026-08-01T03:53:40.633000Z</time>
      </trkpt>
      <trkpt lat="26.821201221196894" lon="100.22241917013538">
        <ele>2353.833666989509</ele>
        <time>2026-08-01T03:53:43.633000Z</time>
      </trkpt>
      <trkpt lat="26.821109342248945" lon="100.22253329202931">
        <ele>2353.151074137457</ele>
        <time>2026-08-01T03:53:49.633000Z</time>
      </trkpt>
      <trkpt lat="26.821005415556634" lon="100.22259535948253">
        <ele>2353.2977737228384</ele>
        <time>2026-08-01T03:53:55.633000Z</time>
      </trkpt>
      <trkpt lat="26.820882453740946" lon="100.2226173855587">
        <ele>2352.7200116754802</ele>
        <time>2026-08-01T03:54:01.633000Z</time>
      </trkpt>
      <trkpt lat="26.820613648792232" lon="100.22278456611312">
        <ele>2352.4122736735367</ele>
        <time>2026-08-01T03:54:16.633000Z</time>
      </trkpt>
      <trkpt lat="26.820368866470226" lon="100.22298077490166">
        <ele>2354.116735637366</ele>
        <time>2026-08-01T03:54:31.633000Z</time>
      </trkpt>
      <trkpt lat="26.82011314990643" lon="100.22324805503736">
        <ele>2355.114092219183</ele>
        <time>2026-08-01T03:54:52.633000Z</time>
      </trkpt>
      <trkpt lat="26.819971390201303" lon="100.22348830232852">
        <ele>2355.9643995185884</ele>
        <time>2026-08-01T03:55:10.733000Z</time>
      </trkpt>
      <trkpt lat="26.820015412315126" lon="100.22351933253698">
        <ele>2356.609445674316</ele>
        <time>2026-08-01T03:55:13.733000Z</time>
      </trkpt>
      <trkpt lat="26.82028938005783" lon="100.22352633268224">
        <ele>2354.595478464128</ele>
        <time>2026-08-01T03:55:31.733000Z</time>
      </trkpt>
      <trkpt lat="26.820351371303477" lon="100.22352633111593">
        <ele>2353.8294230893302</ele>
        <time>2026-08-01T03:55:37.733000Z</time>
      </trkpt>
      <trkpt lat="26.820279378731588" lon="100.22352332990626">
        <ele>2354.025863402515</ele>
        <time>2026-08-01T03:55:52.733000Z</time>
      </trkpt>
      <trkpt lat="26.820027388706833" lon="100.22349530798923">
        <ele>2355.1838337798545</ele>
        <time>2026-08-01T03:56:04.733000Z</time>
      </trkpt>
      <trkpt lat="26.819942451792826" lon="100.22355136667342">
        <ele>2356.0782178711283</ele>
        <time>2026-08-01T03:56:10.733000Z</time>
      </trkpt>
      <trkpt lat="26.819902503882208" lon="100.2236024190698">
        <ele>2356.0601609468067</ele>
        <time>2026-08-01T03:56:13.733000Z</time>
      </trkpt>
      <trkpt lat="26.819880559707016" lon="100.223660477945">
        <ele>2355.9904303558574</ele>
        <time>2026-08-01T03:56:16.733000Z</time>
      </trkpt>
      <trkpt lat="26.819886844162788" lon="100.22397679329798">
        <ele>2356.487631582155</ele>
        <time>2026-08-01T03:56:31.733000Z</time>
      </trkpt>
      <trkpt lat="26.819891122899513" lon="100.22429010197256">
        <ele>2357.209120940843</ele>
        <time>2026-08-01T03:56:46.733000Z</time>
      </trkpt>
      <trkpt lat="26.81989327558141" lon="100.22446327098812">
        <ele>2358.0571746187898</ele>
        <time>2026-08-01T03:56:55.733000Z</time>
      </trkpt>
      <trkpt lat="26.819930361841806" lon="100.22456737113983">
        <ele>2357.270685321849</ele>
        <time>2026-08-01T03:57:01.733000Z</time>
      </trkpt>
      <trkpt lat="26.819992447711623" lon="100.22467547411124">
        <ele>2358.624987621374</ele>
        <time>2026-08-01T03:57:07.733000Z</time>
      </trkpt>
      <trkpt lat="26.8201007260223" lon="100.22501379566467">
        <ele>2357.2271976612737</ele>
        <time>2026-08-01T03:57:25.733000Z</time>
      </trkpt>
      <trkpt lat="26.820229020609943" lon="100.2253791376984">
        <ele>2357.734831823988</ele>
        <time>2026-08-01T03:57:46.833000Z</time>
      </trkpt>
      <trkpt lat="26.820366248128472" lon="100.22567140676209">
        <ele>2355.1135823349764</ele>
        <time>2026-08-01T03:58:01.833000Z</time>
      </trkpt>
      <trkpt lat="26.82047738984713" lon="100.22585957767902">
        <ele>2353.323786176204</ele>
        <time>2026-08-01T03:58:10.833000Z</time>
      </trkpt>
      <trkpt lat="26.820705542739752" lon="100.2260827762121">
        <ele>2351.4174613759287</ele>
        <time>2026-08-01T03:58:28.833000Z</time>
      </trkpt>
      <trkpt lat="26.82089069179047" lon="100.22629596487123">
        <ele>2353.643445555305</ele>
        <time>2026-08-01T03:58:43.833000Z</time>
      </trkpt>
      <trkpt lat="26.820969843735007" lon="100.22649614280358">
        <ele>2355.035748390943</ele>
        <time>2026-08-01T03:58:55.833000Z</time>
      </trkpt>
      <trkpt lat="26.82096196067588" lon="100.2266392706992">
        <ele>2357.182822059</ele>
        <time>2026-08-01T03:59:07.833000Z</time>
      </trkpt>
      <trkpt lat="26.820896044165643" lon="100.2267313540966">
        <ele>2357.8732377751285</ele>
        <time>2026-08-01T03:59:19.833000Z</time>
      </trkpt>
      <trkpt lat="26.820836174511683" lon="100.22688348992257">
        <ele>2362.4577114310855</ele>
        <time>2026-08-01T03:59:37.833000Z</time>
      </trkpt>
      <trkpt lat="26.820655390114094" lon="100.22712270385318">
        <ele>2363.8286828050227</ele>
        <time>2026-08-01T04:00:07.833000Z</time>
      </trkpt>
      <trkpt lat="26.820622451627997" lon="100.22719476731969">
        <ele>2365.1521701096617</ele>
        <time>2026-08-01T04:00:13.833000Z</time>
      </trkpt>
      <trkpt lat="26.820483641524763" lon="100.22741195837017">
        <ele>2366.5894107996637</ele>
        <time>2026-08-01T04:00:37.833000Z</time>
      </trkpt>
      <trkpt lat="26.82040189194562" lon="100.22772022345637">
        <ele>2366.8513136942734</ele>
        <time>2026-08-01T04:01:04.833000Z</time>
      </trkpt>
      <trkpt lat="26.820414090823295" lon="100.22798244395206">
        <ele>2367.2182851140224</ele>
        <time>2026-08-01T04:01:19.833000Z</time>
      </trkpt>
      <trkpt lat="26.82055630198589" lon="100.22828869482193">
        <ele>2366.778757926303</ele>
        <time>2026-08-01T04:01:40.833000Z</time>
      </trkpt>
      <trkpt lat="26.820686449309193" lon="100.22851087382904">
        <ele>2365.037337121476</ele>
        <time>2026-08-01T04:01:55.833000Z</time>
      </trkpt>
      <trkpt lat="26.820717504216507" lon="100.22859093825772">
        <ele>2364.152622212419</ele>
        <time>2026-08-01T04:02:01.933000Z</time>
      </trkpt>
      <trkpt lat="26.82089360234463" lon="100.22875806912771">
        <ele>2359.7880666529554</ele>
        <time>2026-08-01T04:02:16.933000Z</time>
      </trkpt>
      <trkpt lat="26.821150688699895" lon="100.22892619764815">
        <ele>2359.7429450445734</ele>
        <time>2026-08-01T04:02:31.933000Z</time>
      </trkpt>
      <trkpt lat="26.8213117123562" lon="100.22899024472187">
        <ele>2359.9174967860326</ele>
        <time>2026-08-01T04:02:40.933000Z</time>
      </trkpt>
      <trkpt lat="26.821396803707177" lon="100.22913335624409">
        <ele>2360.101381992449</ele>
        <time>2026-08-01T04:02:49.933000Z</time>
      </trkpt>
      <trkpt lat="26.82144191719198" lon="100.22930048682177">
        <ele>2359.1505552654066</ele>
        <time>2026-08-01T04:02:58.933000Z</time>
      </trkpt>
      <trkpt lat="26.821497987655608" lon="100.22941057155894">
        <ele>2358.11945242137</ele>
        <time>2026-08-01T04:03:04.933000Z</time>
      </trkpt>
      <trkpt lat="26.82151403152383" lon="100.22947562183514">
        <ele>2358.247381278942</ele>
        <time>2026-08-01T04:03:07.933000Z</time>
      </trkpt>
      <trkpt lat="26.821602135466645" lon="100.2296407475065">
        <ele>2355.330775143658</ele>
        <time>2026-08-01T04:03:16.933000Z</time>
      </trkpt>
      <trkpt lat="26.82175523545334" lon="100.22981487733556">
        <ele>2353.056195129076</ele>
        <time>2026-08-01T04:03:25.933000Z</time>
      </trkpt>
      <trkpt lat="26.821937372277283" lon="100.23005005137725">
        <ele>2353.776718666005</ele>
        <time>2026-08-01T04:03:37.933000Z</time>
      </trkpt>
      <trkpt lat="26.8221695210424" lon="100.23031624505036">
        <ele>2353.07075051997</ele>
        <time>2026-08-01T04:03:52.933000Z</time>
      </trkpt>
      <trkpt lat="26.822355681196168" lon="100.23059344511296">
        <ele>2350.6837325153065</ele>
        <time>2026-08-01T04:04:07.933000Z</time>
      </trkpt>
      <trkpt lat="26.822447778638537" lon="100.23075956401696">
        <ele>2349.4435704320317</ele>
        <time>2026-08-01T04:04:16.933000Z</time>
      </trkpt>
      <trkpt lat="26.822531964018438" lon="100.23105977815918">
        <ele>2346.826385606535</ele>
        <time>2026-08-01T04:04:31.933000Z</time>
      </trkpt>
      <trkpt lat="26.82266115833611" lon="100.2313890078909">
        <ele>2346.1150177422696</ele>
        <time>2026-08-01T04:04:46.933000Z</time>
      </trkpt>
      <trkpt lat="26.822739334043444" lon="100.23168321041412">
        <ele>2345.36753444639</ele>
        <time>2026-08-01T04:05:01.933000Z</time>
      </trkpt>
      <trkpt lat="26.822807467716558" lon="100.23191236554905">
        <ele>2345.486619864389</ele>
        <time>2026-08-01T04:05:13.933000Z</time>
      </trkpt>
      <trkpt lat="26.822827574417243" lon="100.23208948481717">
        <ele>2345.576917997009</ele>
        <time>2026-08-01T04:05:22.933000Z</time>
      </trkpt>
      <trkpt lat="26.822854598834198" lon="100.23213551505506">
        <ele>2345.8240591262734</ele>
        <time>2026-08-01T04:05:25.933000Z</time>
      </trkpt>
      <trkpt lat="26.82303459568599" lon="100.23217253532408">
        <ele>2346.6493452404416</ele>
        <time>2026-08-01T04:05:34.933000Z</time>
      </trkpt>
      <trkpt lat="26.823244554453098" lon="100.23215451796878">
        <ele>2347.8160010550355</ele>
        <time>2026-08-01T04:05:46.933000Z</time>
      </trkpt>
      <trkpt lat="26.823360554308852" lon="100.2321815331313">
        <ele>2345.318773748351</ele>
        <time>2026-08-01T04:05:52.933000Z</time>
      </trkpt>
      <trkpt lat="26.823372584996164" lon="100.23223456824637">
        <ele>2345.3390142920753</ele>
        <time>2026-08-01T04:05:55.933000Z</time>
      </trkpt>
      <trkpt lat="26.82331769439282" lon="100.23240168048302">
        <ele>2344.0586656979563</ele>
        <time>2026-08-01T04:06:04.933000Z</time>
      </trkpt>
      <trkpt lat="26.82329088220951" lon="100.23270888197315">
        <ele>2343.5923146746604</ele>
        <time>2026-08-01T04:06:19.933000Z</time>
      </trkpt>
      <trkpt lat="26.823294060561793" lon="100.23301307694875">
        <ele>2342.395084468891</ele>
        <time>2026-08-01T04:06:35.033000Z</time>
      </trkpt>
      <trkpt lat="26.823274210258692" lon="100.23326723752129">
        <ele>2343.413209516886</ele>
        <time>2026-08-01T04:06:53.033000Z</time>
      </trkpt>
      <trkpt lat="26.823283247302157" lon="100.23333427907627">
        <ele>2342.1372287513236</ele>
        <time>2026-08-01T04:06:59.033000Z</time>
      </trkpt>
      <trkpt lat="26.823201445000667" lon="100.23366348363561">
        <ele>2342.701768115553</ele>
        <time>2026-08-01T04:07:23.033000Z</time>
      </trkpt>
      <trkpt lat="26.823186490656244" lon="100.2337415313686">
        <ele>2341.3934361959423</ele>
        <time>2026-08-01T04:07:29.033000Z</time>
      </trkpt>
      <trkpt lat="26.82318854194298" lon="100.23383458745269">
        <ele>2341.257537534169</ele>
        <time>2026-08-01T04:07:35.033000Z</time>
      </trkpt>
      <trkpt lat="26.823078591416756" lon="100.23389562685098">
        <ele>2340.8110503012967</ele>
        <time>2026-08-01T04:07:47.033000Z</time>
      </trkpt>
      <trkpt lat="26.82298565966405" lon="100.23399568890586">
        <ele>2344.527709357342</ele>
        <time>2026-08-01T04:07:56.033000Z</time>
      </trkpt>
      <trkpt lat="26.822947730503106" lon="100.23411576097287">
        <ele>2342.1346316491095</ele>
        <time>2026-08-01T04:08:02.033000Z</time>
      </trkpt>
      <trkpt lat="26.822857761853932" lon="100.23414978328066">
        <ele>2342.386259982409</ele>
        <time>2026-08-01T04:08:08.033000Z</time>
      </trkpt>
      <trkpt lat="26.822741763323155" lon="100.23412176970413">
        <ele>2344.4685121095645</ele>
        <time>2026-08-01T04:08:14.033000Z</time>
      </trkpt>
      <trkpt lat="26.822559797001833" lon="100.2341357825446">
        <ele>2347.1428550392975</ele>
        <time>2026-08-01T04:08:23.033000Z</time>
      </trkpt>
      <trkpt lat="26.82240980546333" lon="100.23411177217014">
        <ele>2350.604661930359</ele>
        <time>2026-08-01T04:08:32.033000Z</time>
      </trkpt>
      <trkpt lat="26.82233782336137" lon="100.23412578224429">
        <ele>2350.9466216476394</ele>
        <time>2026-08-01T04:08:38.033000Z</time>
      </trkpt>
      <trkpt lat="26.822282825260523" lon="100.23411477714123">
        <ele>2351.0355629173905</ele>
        <time>2026-08-01T04:08:44.033000Z</time>
      </trkpt>
      <trkpt lat="26.82223381488169" lon="100.23408275947038">
        <ele>2352.329124753289</ele>
        <time>2026-08-01T04:08:50.033000Z</time>
      </trkpt>
      <trkpt lat="26.822162847839618" lon="100.23412478606464">
        <ele>2355.907540439848</ele>
        <time>2026-08-01T04:08:56.033000Z</time>
      </trkpt>
    </trkseg>
  </trk>
</gpx>