<?xml version="1.0" encoding="UTF-8"?>
<gpx xmlns="http://www.topografix.com/GPX/1/1" xmlns:gpxtpx="http://www.garmin.com/xmlschemas/TrackPointExtension/v1" xmlns:xsi="http://www.w3.org/2001/XMLSchema-instance" xsi:schemaLocation="http://www.topografix.com/GPX/1/1 http://www.topografix.com/GPX/1/1/gpx.xsd" version="1.1" creator="gpx.py -- https://github.com/tkrajina/gpxpy">
  <trk>
    <name>gpx from keep</name>
    <type>Run</type>
    <trkseg>
      <trkpt lat="26.823448677194378" lon="100.22016265044766">
        <ele>2356.2903520110995</ele>
        <time>2026-07-31T02:21:32.508000Z</time>
      </trkpt>
      <trkpt lat="26.823502649984928" lon="100.22014362753077">
        <ele>2353.779822314158</ele>
        <time>2026-07-31T02:21:35.508000Z</time>
      </trkpt>
      <trkpt lat="26.823838610715526" lon="100.22015262924207">
        <ele>2349.0165528637804</ele>
        <time>2026-07-31T02:21:47.508000Z</time>
      </trkpt>
      <trkpt lat="26.824136551272563" lon="100.22013660355115">
        <ele>2347.517384641153</ele>
        <time>2026-07-31T02:22:02.508000Z</time>
      </trkpt>
      <trkpt lat="26.824460529911892" lon="100.22016162371625">
        <ele>2348.2448720563784</ele>
        <time>2026-07-31T02:22:17.508000Z</time>
      </trkpt>
      <trkpt lat="26.8248115565671" lon="100.22023770091468">
        <ele>2349.003660797262</ele>
        <time>2026-07-31T02:22:35.508000Z</time>
      </trkpt>
      <trkpt lat="26.824881587162057" lon="100.22027774436346">
        <ele>2348.7695084373368</ele>
        <time>2026-07-31T02:22:38.508000Z</time>
      </trkpt>
      <trkpt lat="26.824886931903947" lon="100.22061912736858">
        <ele>2343.4619336317883</ele>
        <time>2026-07-31T02:22:53.508000Z</time>
      </trkpt>
      <trkpt lat="26.824869288206735" lon="100.22097251996769">
        <ele>2341.1258216228334</ele>
        <time>2026-07-31T02:23:08.508000Z</time>
      </trkpt>
      <trkpt lat="26.824887589914837" lon="100.22127985684303">
        <ele>2337.9006886261295</ele>
        <time>2026-07-31T02:23:23.608000Z</time>
      </trkpt>
      <trkpt lat="26.824909649774085" lon="100.22134392617342">
        <ele>2339.6808075505737</ele>
        <time>2026-07-31T02:23:26.508000Z</time>
      </trkpt>
      <trkpt lat="26.824976665609867" lon="100.22136995282776">
        <ele>2339.9537353817823</ele>
        <time>2026-07-31T02:23:29.508000Z</time>
      </trkpt>
      <trkpt lat="26.825014708229272" lon="100.22141900522513">
        <ele>2339.100766216733</ele>
        <time>2026-07-31T02:23:32.508000Z</time>
      </trkpt>
      <trkpt lat="26.824998053311727" lon="100.22177038528358">
        <ele>2339.6345432047</ele>
        <time>2026-07-31T02:23:47.608000Z</time>
      </trkpt>
      <trkpt lat="26.82503617462257" lon="100.22190152484046">
        <ele>2338.563568119443</ele>
        <time>2026-07-31T02:23:56.608000Z</time>
      </trkpt>
      <trkpt lat="26.82502523509454" lon="100.22196259033338">
        <ele>2338.2796031766266</ele>
        <time>2026-07-31T02:23:59.508000Z</time>
      </trkpt>
      <trkpt lat="26.825041404817714" lon="100.22214178050008">
        <ele>2337.752335235946</ele>
        <time>2026-07-31T02:24:08.608000Z</time>
      </trkpt>
      <trkpt lat="26.825060466182" lon="100.22220885104478">
        <ele>2337.3950376613843</ele>
        <time>2026-07-31T02:24:14.608000Z</time>
      </trkpt>
      <trkpt lat="26.82505254372561" lon="100.22228893583421">
        <ele>2337.592672751781</ele>
        <time>2026-07-31T02:24:29.608000Z</time>
      </trkpt>
      <trkpt lat="26.82505861046325" lon="100.22236001055417">
        <ele>2336.882237617803</ele>
        <time>2026-07-31T02:24:32.608000Z</time>
      </trkpt>
      <trkpt lat="26.825042924863602" lon="100.22269035648561">
        <ele>2337.7715645396684</ele>
        <time>2026-07-31T02:24:47.608000Z</time>
      </trkpt>
      <trkpt lat="26.82503526515943" lon="100.22305373206282">
        <ele>2337.5716250515693</ele>
        <time>2026-07-31T02:25:05.608000Z</time>
      </trkpt>
      <trkpt lat="26.825043445295307" lon="100.22324993248661">
        <ele>2335.3710091388</ele>
        <time>2026-07-31T02:25:14.608000Z</time>
      </trkpt>
      <trkpt lat="26.82505772467016" lon="100.22355724347172">
        <ele>2335.8431431222484</ele>
        <time>2026-07-31T02:25:29.608000Z</time>
      </trkpt>
      <trkpt lat="26.825065013640124" lon="100.22387756402915">
        <ele>2335.404849501949</ele>
        <time>2026-07-31T02:25:44.608000Z</time>
      </trkpt>
      <trkpt lat="26.82507229829892" lon="100.2241968797225">
        <ele>2336.777991825698</ele>
        <time>2026-07-31T02:25:59.608000Z</time>
      </trkpt>
      <trkpt lat="26.825066577040612" lon="100.22451118701497">
        <ele>2335.904591317494</ele>
        <time>2026-07-31T02:26:14.608000Z</time>
      </trkpt>
      <trkpt lat="26.825081857230128" lon="100.22483449865614">
        <ele>2337.6200644938035</ele>
        <time>2026-07-31T02:26:29.608000Z</time>
      </trkpt>
      <trkpt lat="26.82509212776255" lon="100.22514979884997">
        <ele>2337.685230955821</ele>
        <time>2026-07-31T02:26:44.608000Z</time>
      </trkpt>
      <trkpt lat="26.825089434082606" lon="100.22550913669352">
        <ele>2336.6730260087616</ele>
        <time>2026-07-31T02:27:02.608000Z</time>
      </trkpt>
      <trkpt lat="26.825091704424324" lon="100.22583143537491">
        <ele>2337.9729256245655</ele>
        <time>2026-07-31T02:27:17.708000Z</time>
      </trkpt>
      <trkpt lat="26.82509302650853" lon="100.22622079089348">
        <ele>2335.822458434666</ele>
        <time>2026-07-31T02:27:38.708000Z</time>
      </trkpt>
      <trkpt lat="26.825114225368704" lon="100.22646801307381">
        <ele>2340.9498522871904</ele>
        <time>2026-07-31T02:27:50.608000Z</time>
      </trkpt>
      <trkpt lat="26.825071387945172" lon="100.22666118652906">
        <ele>2338.113067151767</ele>
        <time>2026-07-31T02:28:02.708000Z</time>
      </trkpt>
      <trkpt lat="26.82500150751342" lon="100.22679730888719">
        <ele>2338.2964663817174</ele>
        <time>2026-07-31T02:28:08.708000Z</time>
      </trkpt>
      <trkpt lat="26.824970611997045" lon="100.22692241987072">
        <ele>2337.9624555997175</ele>
        <time>2026-07-31T02:28:14.708000Z</time>
      </trkpt>
      <trkpt lat="26.82497087412775" lon="100.22725370873376">
        <ele>2336.391664414957</ele>
        <time>2026-07-31T02:28:32.708000Z</time>
      </trkpt>
      <trkpt lat="26.824973918450006" lon="100.22731075796901">
        <ele>2336.3336534705095</ele>
        <time>2026-07-31T02:28:35.708000Z</time>
      </trkpt>
      <trkpt lat="26.824891065677917" lon="100.22748390894685">
        <ele>2336.4387214453973</ele>
        <time>2026-07-31T02:28:44.708000Z</time>
      </trkpt>
      <trkpt lat="26.824871260530607" lon="100.22773212082957">
        <ele>2337.0845752516184</ele>
        <time>2026-07-31T02:28:56.708000Z</time>
      </trkpt>
      <trkpt lat="26.82482645535998" lon="100.227978329248">
        <ele>2336.7900787947556</ele>
        <time>2026-07-31T02:29:11.708000Z</time>
      </trkpt>
      <trkpt lat="26.824834558901888" lon="100.22811644428243">
        <ele>2337.455350231822</ele>
        <time>2026-07-31T02:29:17.708000Z</time>
      </trkpt>
      <trkpt lat="26.82480066788398" lon="100.22825455962494">
        <ele>2336.836836909264</ele>
        <time>2026-07-31T02:29:23.708000Z</time>
      </trkpt>
      <trkpt lat="26.82479971155877" lon="100.2283126075423">
        <ele>2336.3307353233736</ele>
        <time>2026-07-31T02:29:26.708000Z</time>
      </trkpt>
      <trkpt lat="26.824826752542506" lon="100.22837265626463">
        <ele>2335.165359420852</ele>
        <time>2026-07-31T02:29:29.708000Z</time>
      </trkpt>
      <trkpt lat="26.824887771306337" lon="100.22840968512004">
        <ele>2332.773403056264</ele>
        <time>2026-07-31T02:29:32.708000Z</time>
      </trkpt>
      <trkpt lat="26.82501673836285" lon="100.2283906662638">
        <ele>2334.3857756407406</ele>
        <time>2026-07-31T02:29:38.708000Z</time>
      </trkpt>
      <trkpt lat="26.825296775065187" lon="100.22849474442046">
        <ele>2338.8173653524877</ele>
        <time>2026-07-31T02:29:53.708000Z</time>
      </trkpt>
      <trkpt lat="26.82558381177556" lon="100.2286008235989">
        <ele>2342.8553261950833</ele>
        <time>2026-07-31T02:30:11.708000Z</time>
      </trkpt>
      <trkpt lat="26.825851835339293" lon="100.22868588581431">
        <ele>2343.403819343097</ele>
        <time>2026-07-31T02:30:26.708000Z</time>
      </trkpt>
      <trkpt lat="26.825909823909157" lon="100.22868188111131">
        <ele>2343.1485038878204</ele>
        <time>2026-07-31T02:30:32.708000Z</time>
      </trkpt>
      <trkpt lat="26.825854955941164" lon="100.22885101881782">
        <ele>2341.9138172182306</ele>
        <time>2026-07-31T02:30:41.708000Z</time>
      </trkpt>
      <trkpt lat="26.8258530029261" lon="100.22891507019591">
        <ele>2341.169960427099</ele>
        <time>2026-07-31T02:30:44.708000Z</time>
      </trkpt>
      <trkpt lat="26.825921075794156" lon="100.22902915950438">
        <ele>2340.0740271723926</ele>
        <time>2026-07-31T02:30:50.708000Z</time>
      </trkpt>
      <trkpt lat="26.825856334572222" lon="100.2293764350251">
        <ele>2340.103790748769</ele>
        <time>2026-07-31T02:31:08.708000Z</time>
      </trkpt>
      <trkpt lat="26.82594533009661" lon="100.22938844216546">
        <ele>2340.0099534932433</ele>
        <time>2026-07-31T02:31:14.708000Z</time>
      </trkpt>
      <trkpt lat="26.825995305684597" lon="100.22936442212725">
        <ele>2339.767694896305</ele>
        <time>2026-07-31T02:31:17.708000Z</time>
      </trkpt>
      <trkpt lat="26.826040311207073" lon="100.22938143429467">
        <ele>2339.4500709896406</ele>
        <time>2026-07-31T02:31:20.708000Z</time>
      </trkpt>
      <trkpt lat="26.826101360546094" lon="100.22946349675955">
        <ele>2338.858489407728</ele>
        <time>2026-07-31T02:31:26.708000Z</time>
      </trkpt>
      <trkpt lat="26.826276370314787" lon="100.22951353123986">
        <ele>2337.7325083774554</ele>
        <time>2026-07-31T02:31:35.708000Z</time>
      </trkpt>
      <trkpt lat="26.826520362778503" lon="100.22955355612874">
        <ele>2336.8498409130175</ele>
        <time>2026-07-31T02:31:50.708000Z</time>
      </trkpt>
      <trkpt lat="26.82665631523631" lon="100.22951452243059">
        <ele>2336.434702199848</ele>
        <time>2026-07-31T02:31:59.708000Z</time>
      </trkpt>
      <trkpt lat="26.826777209457482" lon="100.22939042273997">
        <ele>2336.114713464812</ele>
        <time>2026-07-31T02:32:08.708000Z</time>
      </trkpt>
      <trkpt lat="26.82684597697021" lon="100.22908017672133">
        <ele>2335.055317418762</ele>
        <time>2026-07-31T02:32:26.708000Z</time>
      </trkpt>
      <trkpt lat="26.826963865358397" lon="100.2289500701663">
        <ele>2335.1207697583486</ele>
        <time>2026-07-31T02:32:35.708000Z</time>
      </trkpt>
      <trkpt lat="26.827041719468248" lon="100.22876592044743">
        <ele>2335.7173786472895</ele>
        <time>2026-07-31T02:32:47.708000Z</time>
      </trkpt>
      <trkpt lat="26.82703445485957" lon="100.22840662848242">
        <ele>2334.96636011612</ele>
        <time>2026-07-31T02:33:05.708000Z</time>
      </trkpt>
      <trkpt lat="26.826982211337874" lon="100.22807235341716">
        <ele>2336.7236373874453</ele>
        <time>2026-07-31T02:33:23.708000Z</time>
      </trkpt>
      <trkpt lat="26.826971950050822" lon="100.227728064416">
        <ele>2336.6845356945846</ele>
        <time>2026-07-31T02:33:41.708000Z</time>
      </trkpt>
      <trkpt lat="26.82692371525028" lon="100.22741579925501">
        <ele>2336.7273083665204</ele>
        <time>2026-07-31T02:33:56.708000Z</time>
      </trkpt>
      <trkpt lat="26.826936461768007" lon="100.22709552175748">
        <ele>2337.1153720575358</ele>
        <time>2026-07-31T02:34:11.708000Z</time>
      </trkpt>
      <trkpt lat="26.826975206542443" lon="100.22678224579137">
        <ele>2336.632222621863</ele>
        <time>2026-07-31T02:34:26.708000Z</time>
      </trkpt>
      <trkpt lat="26.826995007584667" lon="100.22653902916676">
        <ele>2335.609146821947</ele>
        <time>2026-07-31T02:34:38.708000Z</time>
      </trkpt>
      <trkpt lat="26.827046848521206" lon="100.22635286087599">
        <ele>2335.87332671664</ele>
        <time>2026-07-31T02:34:47.708000Z</time>
      </trkpt>
      <trkpt lat="26.827059741725517" lon="100.22622474485735">
        <ele>2336.136629044286</ele>
        <time>2026-07-31T02:34:53.708000Z</time>
      </trkpt>
      <trkpt lat="26.82719550193236" lon="100.22595849897178">
        <ele>2336.7370408299103</ele>
        <time>2026-07-31T02:35:08.708000Z</time>
      </trkpt>
      <trkpt lat="26.82733222846706" lon="100.22565521600004">
        <ele>2336.148919491006</ele>
        <time>2026-07-31T02:35:26.708000Z</time>
      </trkpt>
      <trkpt lat="26.827496968145677" lon="100.22537595132698">
        <ele>2336.804475778224</ele>
        <time>2026-07-31T02:35:44.708000Z</time>
      </trkpt>
      <trkpt lat="26.827657685102242" lon="100.22507266095229">
        <ele>2337.661002763042</ele>
        <time>2026-07-31T02:36:02.708000Z</time>
      </trkpt>
      <trkpt lat="26.827712576895397" lon="100.22495654902026">
        <ele>2337.594296912251</ele>
        <time>2026-07-31T02:36:08.708000Z</time>
      </trkpt>
      <trkpt lat="26.827708520346462" lon="100.22489048599599">
        <ele>2337.3820911473763</ele>
        <time>2026-07-31T02:36:11.708000Z</time>
      </trkpt>
      <trkpt lat="26.827607389169682" lon="100.22472232711216">
        <ele>2336.24075997874</ele>
        <time>2026-07-31T02:36:20.708000Z</time>
      </trkpt>
      <trkpt lat="26.827577279011127" lon="100.2245912012404">
        <ele>2337.4241108173205</ele>
        <time>2026-07-31T02:36:26.708000Z</time>
      </trkpt>
      <trkpt lat="26.827581167655556" lon="100.22446507872486">
        <ele>2338.4119858379495</ele>
        <time>2026-07-31T02:36:32.708000Z</time>
      </trkpt>
      <trkpt lat="26.82765204408994" lon="100.22433695195386">
        <ele>2338.476615957422</ele>
        <time>2026-07-31T02:36:38.708000Z</time>
      </trkpt>
      <trkpt lat="26.827866928891407" lon="100.22424285434462">
        <ele>2338.0627125088545</ele>
        <time>2026-07-31T02:36:50.708000Z</time>
      </trkpt>
      <trkpt lat="26.828027930798207" lon="100.22427187875097">
        <ele>2339.6682039414586</ele>
        <time>2026-07-31T02:36:59.708000Z</time>
      </trkpt>
      <trkpt lat="26.828129895250616" lon="100.2242488535941">
        <ele>2338.8564087241716</ele>
        <time>2026-07-31T02:37:05.708000Z</time>
      </trkpt>
      <trkpt lat="26.8281978139805" lon="100.22416877318028">
        <ele>2338.4732944393995</ele>
        <time>2026-07-31T02:37:11.708000Z</time>
      </trkpt>
      <trkpt lat="26.828308547577006" lon="100.22388949402155">
        <ele>2338.375128536293</ele>
        <time>2026-07-31T02:37:26.708000Z</time>
      </trkpt>
      <trkpt lat="26.828449265005027" lon="100.22360020108877">
        <ele>2337.3557277158343</ele>
        <time>2026-07-31T02:37:41.708000Z</time>
      </trkpt>
      <trkpt lat="26.828564993465967" lon="100.22332191682362">
        <ele>2338.4380176656523</ele>
        <time>2026-07-31T02:37:56.808000Z</time>
      </trkpt>
      <trkpt lat="26.82868270697683" lon="100.22303061623339">
        <ele>2338.8276180651674</ele>
        <time>2026-07-31T02:38:11.808000Z</time>
      </trkpt>
      <trkpt lat="26.828809427593484" lon="100.22275132470219">
        <ele>2338.8848561916043</ele>
        <time>2026-07-31T02:38:26.808000Z</time>
      </trkpt>
      <trkpt lat="26.828923132401954" lon="100.22245601379592">
        <ele>2337.956397319352</ele>
        <time>2026-07-31T02:38:41.808000Z</time>
      </trkpt>
      <trkpt lat="26.82894782365408" lon="100.22213567536517">
        <ele>2338.4620592963097</ele>
        <time>2026-07-31T02:38:56.808000Z</time>
      </trkpt>
      <trkpt lat="26.829087498279133" lon="100.22181933451454">
        <ele>2338.477218321697</ele>
        <time>2026-07-31T02:39:14.808000Z</time>
      </trkpt>
      <trkpt lat="26.829209182103753" lon="100.22151300126885">
        <ele>2338.6706448383616</ele>
        <time>2026-07-31T02:39:32.808000Z</time>
      </trkpt>
      <trkpt lat="26.82931288730196" lon="100.2212286891236">
        <ele>2339.2520256016205</ele>
        <time>2026-07-31T02:39:47.808000Z</time>
      </trkpt>
      <trkpt lat="26.829418588580754" lon="100.22094337285625">
        <ele>2338.755560655842</ele>
        <time>2026-07-31T02:40:02.808000Z</time>
      </trkpt>
      <trkpt lat="26.8295692996112" lon="100.22067707367059">
        <ele>2338.988889028618</ele>
        <time>2026-07-31T02:40:17.808000Z</time>
      </trkpt>
      <trkpt lat="26.829747996035938" lon="100.22040276219099">
        <ele>2338.6457649505683</ele>
        <time>2026-07-31T02:40:35.808000Z</time>
      </trkpt>
      <trkpt lat="26.829779932345012" lon="100.22034469605549">
        <ele>2339.0016356123865</ele>
        <time>2026-07-31T02:40:38.808000Z</time>
      </trkpt>
      <trkpt lat="26.829837899253075" lon="100.22032066752102">
        <ele>2338.701039206071</ele>
        <time>2026-07-31T02:40:41.808000Z</time>
      </trkpt>
      <trkpt lat="26.829984953417647" lon="100.22039574831801">
        <ele>2338.499715774</ele>
        <time>2026-07-31T02:40:50.808000Z</time>
      </trkpt>
      <trkpt lat="26.830020985543605" lon="100.22043278902638">
        <ele>2338.8163806014645</ele>
        <time>2026-07-31T02:40:53.808000Z</time>
      </trkpt>
      <trkpt lat="26.829927315321594" lon="100.2207461414818">
        <ele>2340.491630634929</ele>
        <time>2026-07-31T02:41:08.808000Z</time>
      </trkpt>
      <trkpt lat="26.829787528384795" lon="100.22093835799555">
        <ele>2339.7345430773244</ele>
        <time>2026-07-31T02:41:20.808000Z</time>
      </trkpt>
      <trkpt lat="26.82965481640272" lon="100.22120865856598">
        <ele>2339.1356314925997</ele>
        <time>2026-07-31T02:41:35.808000Z</time>
      </trkpt>
      <trkpt lat="26.829537140924778" lon="100.2215210016506">
        <ele>2340.862185379607</ele>
        <time>2026-07-31T02:41:53.808000Z</time>
      </trkpt>
      <trkpt lat="26.82941542313811" lon="100.22179229722883">
        <ele>2340.5888567911434</ele>
        <time>2026-07-31T02:42:08.808000Z</time>
      </trkpt>
      <trkpt lat="26.82935459373032" lon="100.22195947766279">
        <ele>2340.9058840768084</ele>
        <time>2026-07-31T02:42:17.808000Z</time>
      </trkpt>
      <trkpt lat="26.829321806164316" lon="100.22217570834344">
        <ele>2339.081720750365</ele>
        <time>2026-07-31T02:42:29.808000Z</time>
      </trkpt>
      <trkpt lat="26.82931810473658" lon="100.22248903842954">
        <ele>2338.7780269793143</ele>
        <time>2026-07-31T02:42:44.808000Z</time>
      </trkpt>
      <trkpt lat="26.8292153839449" lon="100.22276933312965">
        <ele>2339.023306085365</ele>
        <time>2026-07-31T02:42:59.808000Z</time>
      </trkpt>
      <trkpt lat="26.829070649176348" lon="100.22303060642726">
        <ele>2340.1020541711164</ele>
        <time>2026-07-31T02:43:14.808000Z</time>
      </trkpt>
      <trkpt lat="26.8289249619341" lon="100.22334593212885">
        <ele>2340.187546299275</ele>
        <time>2026-07-31T02:43:32.808000Z</time>
      </trkpt>
      <trkpt lat="26.828802243422366" lon="100.2236342263765">
        <ele>2341.009062543688</ele>
        <time>2026-07-31T02:43:47.808000Z</time>
      </trkpt>
      <trkpt lat="26.828761579081625" lon="100.2239995918859">
        <ele>2340.4915432214293</ele>
        <time>2026-07-31T02:44:05.808000Z</time>
      </trkpt>
      <trkpt lat="26.828760637451378" lon="100.22406465628772">
        <ele>2340.10435939767</ele>
        <time>2026-07-31T02:44:08.808000Z</time>
      </trkpt>
      <trkpt lat="26.828636771031064" lon="100.22419378670797">
        <ele>2340.490763848201</ele>
        <time>2026-07-31T02:44:17.808000Z</time>
      </trkpt>
      <trkpt lat="26.828584973818685" lon="100.22441400364085">
        <ele>2339.366001212807</ele>
        <time>2026-07-31T02:44:29.808000Z</time>
      </trkpt>
      <trkpt lat="26.828436185891462" lon="100.22463021730908">
        <ele>2339.1791921181334</ele>
        <time>2026-07-31T02:44:41.908000Z</time>
      </trkpt>
      <trkpt lat="26.82833524812897" lon="100.22468427205816">
        <ele>2338.310236271653</ele>
        <time>2026-07-31T02:44:47.908000Z</time>
      </trkpt>
      <trkpt lat="26.828222527260507" lon="100.22498656477694">
        <ele>2338.4408262711313</ele>
        <time>2026-07-31T02:45:02.808000Z</time>
      </trkpt>
      <trkpt lat="26.828091708457443" lon="100.22517474676603">
        <ele>2339.5787263065968</ele>
        <time>2026-07-31T02:45:14.908000Z</time>
      </trkpt>
      <trkpt lat="26.82792785585789" lon="100.22531888685151">
        <ele>2340.020135636701</ele>
        <time>2026-07-31T02:45:26.908000Z</time>
      </trkpt>
      <trkpt lat="26.82775613719733" lon="100.22562117370714">
        <ele>2340.5387401327152</ele>
        <time>2026-07-31T02:45:44.908000Z</time>
      </trkpt>
      <trkpt lat="26.827641435244434" lon="100.22595748679349">
        <ele>2340.8511714216875</ele>
        <time>2026-07-31T02:46:02.908000Z</time>
      </trkpt>
      <trkpt lat="26.827533724295915" lon="100.22628879081455">
        <ele>2340.6938368454416</ele>
        <time>2026-07-31T02:46:20.908000Z</time>
      </trkpt>
      <trkpt lat="26.827446908461965" lon="100.22649898195971">
        <ele>2340.2610850294354</ele>
        <time>2026-07-31T02:46:32.908000Z</time>
      </trkpt>
      <trkpt lat="26.82734805662116" lon="100.22666413171522">
        <ele>2341.953372296422</ele>
        <time>2026-07-31T02:46:41.908000Z</time>
      </trkpt>
      <trkpt lat="26.827279264165632" lon="100.22691035103234">
        <ele>2340.3785920708565</ele>
        <time>2026-07-31T02:46:53.908000Z</time>
      </trkpt>
      <trkpt lat="26.827271517383657" lon="100.22722862898725">
        <ele>2340.0704562819965</ele>
        <time>2026-07-31T02:47:08.908000Z</time>
      </trkpt>
      <trkpt lat="26.827289760944407" lon="100.22754389976099">
        <ele>2339.5050043871997</ele>
        <time>2026-07-31T02:47:23.908000Z</time>
      </trkpt>
      <trkpt lat="26.827323017974884" lon="100.22788418730859">
        <ele>2338.5340532305036</ele>
        <time>2026-07-31T02:47:41.908000Z</time>
      </trkpt>
      <trkpt lat="26.827424257185296" lon="100.22821946444549">
        <ele>2338.395263525928</ele>
        <time>2026-07-31T02:47:59.908000Z</time>
      </trkpt>
      <trkpt lat="26.82747151304622" lon="100.22857175236112">
        <ele>2337.929891177394</ele>
        <time>2026-07-31T02:48:17.908000Z</time>
      </trkpt>
      <trkpt lat="26.82746768081857" lon="100.22879893629653">
        <ele>2340.1295676084123</ele>
        <time>2026-07-31T02:48:29.908000Z</time>
      </trkpt>
      <trkpt lat="26.827348953341204" lon="100.2291502195251">
        <ele>2338.9223489234205</ele>
        <time>2026-07-31T02:48:51.008000Z</time>
      </trkpt>
      <trkpt lat="26.82731805196121" lon="100.22928132363664">
        <ele>2338.7183817859686</ele>
        <time>2026-07-31T02:48:56.908000Z</time>
      </trkpt>
      <trkpt lat="26.827316221572087" lon="100.22951950966451">
        <ele>2339.280876516861</ele>
        <time>2026-07-31T02:49:08.908000Z</time>
      </trkpt>
      <trkpt lat="26.827256339620703" lon="100.22967463108174">
        <ele>2339.7397825069374</ele>
        <time>2026-07-31T02:49:17.908000Z</time>
      </trkpt>
      <trkpt lat="26.827441499810348" lon="100.22994383222485">
        <ele>2339.4271894560693</ele>
        <time>2026-07-31T02:49:35.908000Z</time>
      </trkpt>
      <trkpt lat="26.827480521712083" lon="100.2299838615973">
        <ele>2339.6892088801874</ele>
        <time>2026-07-31T02:49:38.908000Z</time>
      </trkpt>
      <trkpt lat="26.82749755438785" lon="100.23003489977967">
        <ele>2339.940354331553</ele>
        <time>2026-07-31T02:49:41.908000Z</time>
      </trkpt>
      <trkpt lat="26.827483590176623" lon="100.2300839371316">
        <ele>2340.1088933969877</ele>
        <time>2026-07-31T02:49:44.908000Z</time>
      </trkpt>
      <trkpt lat="26.82742462361082" lon="100.23011996574121">
        <ele>2340.0744247485995</ele>
        <time>2026-07-31T02:49:50.908000Z</time>
      </trkpt>
      <trkpt lat="26.827162605206432" lon="100.2300369097419">
        <ele>2340.488465770807</ele>
        <time>2026-07-31T02:50:05.908000Z</time>
      </trkpt>
      <trkpt lat="26.82687257261615" lon="100.22992783441737">
        <ele>2341.8000538084316</ele>
        <time>2026-07-31T02:50:23.908000Z</time>
      </trkpt>
      <trkpt lat="26.826552534877212" lon="100.22980574942929">
        <ele>2342.7015540520374</ele>
        <time>2026-07-31T02:50:44.908000Z</time>
      </trkpt>
      <trkpt lat="26.82630449157358" lon="100.22969166818912">
        <ele>2344.4001872854337</ele>
        <time>2026-07-31T02:51:02.908000Z</time>
      </trkpt>
    </trkseg>
  </trk>
</gpx>