<?xml version="1.0" encoding="UTF-8"?>
<gpx xmlns="http://www.topografix.com/GPX/1/1" xmlns:gpxtpx="http://www.garmin.com/xmlschemas/TrackPointExtension/v1" xmlns:xsi="http://www.w3.org/2001/XMLSchema-instance" xsi:schemaLocation="http://www.topografix.com/GPX/1/1 http://www.topografix.com/GPX/1/1/gpx.xsd" version="1.1" creator="gpx.py -- https://github.com/tkrajina/gpxpy">
  <trk>
    <name>gpx from keep</name>
    <type>Run</type>
    <trkseg>
      <trkpt lat="26.824870930199033" lon="100.22061512330357">
        <ele>2342.601971341655</ele>
        <time>2026-09-24T03:35:10.540000Z</time>
      </trkpt>
      <trkpt lat="26.82488722376055" lon="100.22091045096745">
        <ele>2340.2791758392664</ele>
        <time>2026-09-24T03:35:22.540000Z</time>
      </trkpt>
      <trkpt lat="26.824897597336566" lon="100.2212888664271">
        <ele>2338.668261043481</ele>
        <time>2026-09-24T03:35:37.540000Z</time>
      </trkpt>
      <trkpt lat="26.82488991236427" lon="100.22160921444724">
        <ele>2337.9519160147743</ele>
        <time>2026-09-24T03:35:58.540000Z</time>
      </trkpt>
      <trkpt lat="26.824896247106807" lon="100.22195558611773">
        <ele>2335.2319165937874</ele>
        <time>2026-09-24T03:36:28.640000Z</time>
      </trkpt>
      <trkpt lat="26.82489555034862" lon="100.22227192184779">
        <ele>2335.7286195308516</ele>
        <time>2026-09-24T03:36:52.640000Z</time>
      </trkpt>
      <trkpt lat="26.824897910200864" lon="100.22265232056951">
        <ele>2335.487595782012</ele>
        <time>2026-09-24T03:37:22.640000Z</time>
      </trkpt>
      <trkpt lat="26.824894242002927" lon="100.22300668730215">
        <ele>2335.032241143989</ele>
        <time>2026-09-24T03:37:52.640000Z</time>
      </trkpt>
      <trkpt lat="26.824906527824787" lon="100.22331800521562">
        <ele>2335.9518565039753</ele>
        <time>2026-09-24T03:38:16.640000Z</time>
      </trkpt>
      <trkpt lat="26.824892850554512" lon="100.22366936033802">
        <ele>2335.889283112122</ele>
        <time>2026-09-24T03:38:46.640000Z</time>
      </trkpt>
      <trkpt lat="26.824900130254054" lon="100.22398067060912">
        <ele>2334.5549777436527</ele>
        <time>2026-09-24T03:39:10.640000Z</time>
      </trkpt>
      <trkpt lat="26.824900421037906" lon="100.22430699209166">
        <ele>2333.7519387429224</ele>
        <time>2026-09-24T03:39:34.640000Z</time>
      </trkpt>
      <trkpt lat="26.824911746021385" lon="100.22467835275066">
        <ele>2334.298464981251</ele>
        <time>2026-09-24T03:40:04.640000Z</time>
      </trkpt>
      <trkpt lat="26.824950005507613" lon="100.22498364457982">
        <ele>2335.7101754025607</ele>
        <time>2026-09-24T03:40:28.640000Z</time>
      </trkpt>
      <trkpt lat="26.824953312122712" lon="100.2253419836214">
        <ele>2335.907602640753</ele>
        <time>2026-09-24T03:40:58.640000Z</time>
      </trkpt>
      <trkpt lat="26.82494662339834" lon="100.22570932632294">
        <ele>2337.270541480057</ele>
        <time>2026-09-24T03:41:28.640000Z</time>
      </trkpt>
      <trkpt lat="26.824936884179674" lon="100.22602061276521">
        <ele>2336.097093809325</ele>
        <time>2026-09-24T03:41:52.640000Z</time>
      </trkpt>
      <trkpt lat="26.824898139330095" lon="100.22632388897566">
        <ele>2334.298561061533</ele>
        <time>2026-09-24T03:42:04.640000Z</time>
      </trkpt>
      <trkpt lat="26.824924211492522" lon="100.22641697207983">
        <ele>2334.098882819806</ele>
        <time>2026-09-24T03:42:07.640000Z</time>
      </trkpt>
      <trkpt lat="26.82485150444818" lon="100.22676628524938">
        <ele>2333.769241955865</ele>
        <time>2026-09-24T03:42:22.640000Z</time>
      </trkpt>
      <trkpt lat="26.824846643580887" lon="100.22693943794089">
        <ele>2334.8860567225383</ele>
        <time>2026-09-24T03:42:28.640000Z</time>
      </trkpt>
      <trkpt lat="26.824785943426356" lon="100.22730776012182">
        <ele>2334.628359741882</ele>
        <time>2026-09-24T03:42:43.640000Z</time>
      </trkpt>
      <trkpt lat="26.82470219866259" lon="100.22762002993292">
        <ele>2333.415587947455</ele>
        <time>2026-09-24T03:42:58.640000Z</time>
      </trkpt>
      <trkpt lat="26.82463346663661" lon="100.22795631567791">
        <ele>2332.832390604601</ele>
        <time>2026-09-24T03:43:16.640000Z</time>
      </trkpt>
      <trkpt lat="26.824622644810027" lon="100.22818951028631">
        <ele>2334.5511791749245</ele>
        <time>2026-09-24T03:43:25.640000Z</time>
      </trkpt>
      <trkpt lat="26.8246056826666" lon="100.22823654965529">
        <ele>2334.8340602114113</ele>
        <time>2026-09-24T03:43:28.640000Z</time>
      </trkpt>
      <trkpt lat="26.824582885584178" lon="100.22850376979063">
        <ele>2333.146076713602</ele>
        <time>2026-09-24T03:43:40.640000Z</time>
      </trkpt>
      <trkpt lat="26.824468138912025" lon="100.22882503291324">
        <ele>2335.657459069829</ele>
        <time>2026-09-24T03:44:07.640000Z</time>
      </trkpt>
      <trkpt lat="26.824446186664286" lon="100.22888608245601">
        <ele>2335.274085420975</ele>
        <time>2026-09-24T03:44:13.640000Z</time>
      </trkpt>
      <trkpt lat="26.82443834096072" lon="100.22909725096672">
        <ele>2336.2704560133247</ele>
        <time>2026-09-24T03:44:28.640000Z</time>
      </trkpt>
      <trkpt lat="26.82433651017478" lon="100.2293124232167">
        <ele>2337.6457119170095</ele>
        <time>2026-09-24T03:44:46.640000Z</time>
      </trkpt>
      <trkpt lat="26.824296644010918" lon="100.22949256486346">
        <ele>2339.066667165498</ele>
        <time>2026-09-24T03:44:58.640000Z</time>
      </trkpt>
      <trkpt lat="26.824196833034026" lon="100.22974075903393">
        <ele>2337.2641228449274</ele>
        <time>2026-09-24T03:45:16.640000Z</time>
      </trkpt>
      <trkpt lat="26.824109054008815" lon="100.23004098979673">
        <ele>2336.3747505740494</ele>
        <time>2026-09-24T03:45:37.740000Z</time>
      </trkpt>
      <trkpt lat="26.824004261358542" lon="100.23032220324036">
        <ele>2337.3519205485973</ele>
        <time>2026-09-24T03:46:04.740000Z</time>
      </trkpt>
      <trkpt lat="26.823886477806905" lon="100.23061842483197">
        <ele>2336.411371745454</ele>
        <time>2026-09-24T03:46:34.740000Z</time>
      </trkpt>
      <trkpt lat="26.823792690953535" lon="100.23091964589196">
        <ele>2335.5680376392597</ele>
        <time>2026-09-24T03:46:58.740000Z</time>
      </trkpt>
      <trkpt lat="26.823748789682867" lon="100.23106074818664">
        <ele>2337.092006273697</ele>
        <time>2026-09-24T03:47:10.740000Z</time>
      </trkpt>
      <trkpt lat="26.82368886407718" lon="100.23116182168592">
        <ele>2336.4124886970058</ele>
        <time>2026-09-24T03:47:19.740000Z</time>
      </trkpt>
      <trkpt lat="26.82366691195045" lon="100.23123087118228">
        <ele>2336.662389962276</ele>
        <time>2026-09-24T03:47:25.740000Z</time>
      </trkpt>
      <trkpt lat="26.823671949959827" lon="100.23129091345754">
        <ele>2338.557550583956</ele>
        <time>2026-09-24T03:47:28.740000Z</time>
      </trkpt>
      <trkpt lat="26.823639031796045" lon="100.2314109986551">
        <ele>2340.4826283546695</ele>
        <time>2026-09-24T03:47:40.740000Z</time>
      </trkpt>
      <trkpt lat="26.82351825414673" lon="100.23173422588975">
        <ele>2339.9688921018183</ele>
        <time>2026-09-24T03:48:10.740000Z</time>
      </trkpt>
      <trkpt lat="26.823433429237753" lon="100.2319954060902">
        <ele>2337.836774045438</ele>
        <time>2026-09-24T03:48:31.740000Z</time>
      </trkpt>
      <trkpt lat="26.823425486592345" lon="100.23208646772198">
        <ele>2337.592595030468</ele>
        <time>2026-09-24T03:48:37.740000Z</time>
      </trkpt>
      <trkpt lat="26.823370599319734" lon="100.23225758363108">
        <ele>2337.1542502619855</ele>
        <time>2026-09-24T03:48:49.740000Z</time>
      </trkpt>
      <trkpt lat="26.823313820554024" lon="100.23261081770954">
        <ele>2337.04544778599</ele>
        <time>2026-09-24T03:49:13.740000Z</time>
      </trkpt>
      <trkpt lat="26.82331200538911" lon="100.23292301914367">
        <ele>2336.737443060019</ele>
        <time>2026-09-24T03:49:37.740000Z</time>
      </trkpt>
      <trkpt lat="26.823303191737818" lon="100.23324222115295">
        <ele>2337.780156335067</ele>
        <time>2026-09-24T03:49:58.740000Z</time>
      </trkpt>
      <trkpt lat="26.823306270219796" lon="100.23338030707595">
        <ele>2335.9078973320657</ele>
        <time>2026-09-24T03:50:07.740000Z</time>
      </trkpt>
      <trkpt lat="26.823253396048163" lon="100.23358943716725">
        <ele>2335.8141991614916</ele>
        <time>2026-09-24T03:50:22.740000Z</time>
      </trkpt>
      <trkpt lat="26.823261464277163" lon="100.23371351250796">
        <ele>2335.7990511133517</ele>
        <time>2026-09-24T03:50:34.740000Z</time>
      </trkpt>
      <trkpt lat="26.823233500011263" lon="100.23377054772658">
        <ele>2335.1913286764984</ele>
        <time>2026-09-24T03:50:40.740000Z</time>
      </trkpt>
      <trkpt lat="26.823126578457142" lon="100.23388461904791">
        <ele>2333.450012446464</ele>
        <time>2026-09-24T03:50:52.740000Z</time>
      </trkpt>
      <trkpt lat="26.823041546473817" lon="100.23380457308845">
        <ele>2331.5229508828083</ele>
        <time>2026-09-24T03:51:04.740000Z</time>
      </trkpt>
      <trkpt lat="26.82300752139199" lon="100.2337505413278">
        <ele>2330.80911005371</ele>
        <time>2026-09-24T03:51:10.740000Z</time>
      </trkpt>
      <trkpt lat="26.82285649289498" lon="100.23366049050429">
        <ele>2330.7856289226197</ele>
        <time>2026-09-24T03:51:22.740000Z</time>
      </trkpt>
      <trkpt lat="26.822794705280177" lon="100.23364590655468">
        <ele>2330.781447679525</ele>
        <time>2026-09-24T03:51:28.740000Z</time>
      </trkpt>
    </trkseg>
  </trk>
</gpx>