<?xml version="1.0" encoding="UTF-8"?>
<gpx xmlns="http://www.topografix.com/GPX/1/1" xmlns:gpxtpx="http://www.garmin.com/xmlschemas/TrackPointExtension/v1" xmlns:xsi="http://www.w3.org/2001/XMLSchema-instance" xsi:schemaLocation="http://www.topografix.com/GPX/1/1 http://www.topografix.com/GPX/1/1/gpx.xsd" version="1.1" creator="gpx.py -- https://github.com/tkrajina/gpxpy">
  <trk>
    <name>gpx from keep</name>
    <type>Run</type>
    <trkseg>
      <trkpt lat="26.823456628984303" lon="100.22011659804659">
        <ele>2349.52037021704</ele>
        <time>2026-08-08T00:12:50.453000Z</time>
      </trkpt>
      <trkpt lat="26.823729662222444" lon="100.22018767167687">
        <ele>2355.528084680336</ele>
        <time>2026-08-08T00:12:59.453000Z</time>
      </trkpt>
      <trkpt lat="26.823861604325753" lon="100.22014962525729">
        <ele>2354.420907540334</ele>
        <time>2026-08-08T00:13:05.453000Z</time>
      </trkpt>
      <trkpt lat="26.824165556282594" lon="100.22014561302998">
        <ele>2356.375140249437</ele>
        <time>2026-08-08T00:13:20.453000Z</time>
      </trkpt>
      <trkpt lat="26.824426525639034" lon="100.22015261436908">
        <ele>2358.1554666352536</ele>
        <time>2026-08-08T00:13:32.453000Z</time>
      </trkpt>
      <trkpt lat="26.82471855681573" lon="100.22022468855823">
        <ele>2356.808727230192</ele>
        <time>2026-08-08T00:13:47.453000Z</time>
      </trkpt>
      <trkpt lat="26.82483656517013" lon="100.22024971385424">
        <ele>2355.13987391028</ele>
        <time>2026-08-08T00:13:53.453000Z</time>
      </trkpt>
      <trkpt lat="26.82487460650874" lon="100.22029576487027">
        <ele>2354.4763088707705</ele>
        <time>2026-08-08T00:13:56.453000Z</time>
      </trkpt>
      <trkpt lat="26.82485274076135" lon="100.22042491077843">
        <ele>2353.5581290740674</ele>
        <time>2026-08-08T00:14:02.453000Z</time>
      </trkpt>
      <trkpt lat="26.82486209133389" lon="100.22077430074982">
        <ele>2350.4334753654944</ele>
        <time>2026-08-08T00:14:17.453000Z</time>
      </trkpt>
      <trkpt lat="26.82486241747161" lon="100.22110166231097">
        <ele>2349.064862739577</ele>
        <time>2026-08-08T00:14:32.453000Z</time>
      </trkpt>
      <trkpt lat="26.82487856063184" lon="100.22124882316508">
        <ele>2348.926444897289</ele>
        <time>2026-08-08T00:14:38.453000Z</time>
      </trkpt>
      <trkpt lat="26.82486970672563" lon="100.22139598385665">
        <ele>2348.7329137418906</ele>
        <time>2026-08-08T00:14:44.453000Z</time>
      </trkpt>
      <trkpt lat="26.824877039838675" lon="100.22173835392115">
        <ele>2347.9909790422535</ele>
        <time>2026-08-08T00:14:59.453000Z</time>
      </trkpt>
      <trkpt lat="26.824879382345284" lon="100.222093733609">
        <ele>2347.5026594496185</ele>
        <time>2026-08-08T00:15:14.453000Z</time>
      </trkpt>
      <trkpt lat="26.8249036881179" lon="100.22241807549518">
        <ele>2348.7595334503626</ele>
        <time>2026-08-08T00:15:29.453000Z</time>
      </trkpt>
      <trkpt lat="26.824913874902197" lon="100.22261728366145">
        <ele>2347.904207086691</ele>
        <time>2026-08-08T00:15:38.453000Z</time>
      </trkpt>
      <trkpt lat="26.824876195293637" lon="100.22295363316478">
        <ele>2347.601913178489</ele>
        <time>2026-08-08T00:15:53.453000Z</time>
      </trkpt>
      <trkpt lat="26.82486531400596" lon="100.22307976305544">
        <ele>2346.552776150697</ele>
        <time>2026-08-08T00:15:59.453000Z</time>
      </trkpt>
      <trkpt lat="26.82487460501323" lon="100.22339708627767">
        <ele>2346.314898695425</ele>
        <time>2026-08-08T00:16:14.453000Z</time>
      </trkpt>
      <trkpt lat="26.824886881366574" lon="100.22370239360465">
        <ele>2344.9253442404347</ele>
        <time>2026-08-08T00:16:29.453000Z</time>
      </trkpt>
      <trkpt lat="26.824874183341997" lon="100.22403572578686">
        <ele>2345.6939290533714</ele>
        <time>2026-08-08T00:16:47.553000Z</time>
      </trkpt>
      <trkpt lat="26.82488150698378" lon="100.22440108451825">
        <ele>2343.8094590934197</ele>
        <time>2026-08-08T00:17:05.553000Z</time>
      </trkpt>
      <trkpt lat="26.824905794042518" lon="100.2247324049995">
        <ele>2343.1612587858845</ele>
        <time>2026-08-08T00:17:20.553000Z</time>
      </trkpt>
      <trkpt lat="26.82493206592012" lon="100.2250507088747">
        <ele>2343.6569162953815</ele>
        <time>2026-08-08T00:17:35.553000Z</time>
      </trkpt>
      <trkpt lat="26.824923347121707" lon="100.22537801820765">
        <ele>2344.491596633653</ele>
        <time>2026-08-08T00:17:53.553000Z</time>
      </trkpt>
      <trkpt lat="26.824923622546788" lon="100.22570432227207">
        <ele>2344.0345961286434</ele>
        <time>2026-08-08T00:18:08.553000Z</time>
      </trkpt>
      <trkpt lat="26.824932782592178" lon="100.22589750012573">
        <ele>2344.24149988708</ele>
        <time>2026-08-08T00:18:17.553000Z</time>
      </trkpt>
      <trkpt lat="26.824905835590492" lon="100.22595655495927">
        <ele>2345.3854881545817</ele>
        <time>2026-08-08T00:18:23.553000Z</time>
      </trkpt>
      <trkpt lat="26.82490698194925" lon="100.22613371658088">
        <ele>2346.7765598476167</ele>
        <time>2026-08-08T00:18:32.553000Z</time>
      </trkpt>
      <trkpt lat="26.824921044956927" lon="100.226212787983">
        <ele>2346.9225930678163</ele>
        <time>2026-08-08T00:18:35.553000Z</time>
      </trkpt>
      <trkpt lat="26.82491223929964" lon="100.2264490011259">
        <ele>2345.9228224912968</ele>
        <time>2026-08-08T00:18:47.553000Z</time>
      </trkpt>
      <trkpt lat="26.824838506337557" lon="100.22676628557754">
        <ele>2345.5694187093422</ele>
        <time>2026-08-08T00:19:05.553000Z</time>
      </trkpt>
      <trkpt lat="26.82486771768094" lon="100.22703652244184">
        <ele>2352.2598447926266</ele>
        <time>2026-08-08T00:19:14.553000Z</time>
      </trkpt>
      <trkpt lat="26.824814873992043" lon="100.22722468753426">
        <ele>2350.6736274697723</ele>
        <time>2026-08-08T00:19:23.553000Z</time>
      </trkpt>
      <trkpt lat="26.824809943076453" lon="100.22731176297219">
        <ele>2350.2759944998616</ele>
        <time>2026-08-08T00:19:26.553000Z</time>
      </trkpt>
      <trkpt lat="26.824739227292294" lon="100.22766406644288">
        <ele>2347.4967291224198</ele>
        <time>2026-08-08T00:19:41.553000Z</time>
      </trkpt>
      <trkpt lat="26.824678344662033" lon="100.22780518745951">
        <ele>2346.5119274192484</ele>
        <time>2026-08-08T00:19:50.553000Z</time>
      </trkpt>
      <trkpt lat="26.824637598098967" lon="100.22813046090214">
        <ele>2343.744844403428</ele>
        <time>2026-08-08T00:20:05.553000Z</time>
      </trkpt>
      <trkpt lat="26.824579740503648" lon="100.22830860979484">
        <ele>2343.396194135197</ele>
        <time>2026-08-08T00:20:14.553000Z</time>
      </trkpt>
      <trkpt lat="26.824581860452835" lon="100.22846974201427">
        <ele>2340.727479140982</ele>
        <time>2026-08-08T00:20:20.553000Z</time>
      </trkpt>
      <trkpt lat="26.82447512911528" lon="100.22881302308228">
        <ele>2339.5874892386964</ele>
        <time>2026-08-08T00:20:38.553000Z</time>
      </trkpt>
      <trkpt lat="26.824365416384573" lon="100.2291873240599">
        <ele>2338.4634517262407</ele>
        <time>2026-08-08T00:20:59.553000Z</time>
      </trkpt>
      <trkpt lat="26.82425266666169" lon="100.22951558385056">
        <ele>2338.462620866553</ele>
        <time>2026-08-08T00:21:14.553000Z</time>
      </trkpt>
      <trkpt lat="26.824155889932474" lon="100.22981381601208">
        <ele>2343.6002571728736</ele>
        <time>2026-08-08T00:21:29.553000Z</time>
      </trkpt>
      <trkpt lat="26.82404711796996" lon="100.23012105169613">
        <ele>2345.5966835700538</ele>
        <time>2026-08-08T00:21:47.553000Z</time>
      </trkpt>
      <trkpt lat="26.823991234693604" lon="100.23028017226298">
        <ele>2344.3558567038253</ele>
        <time>2026-08-08T00:21:56.553000Z</time>
      </trkpt>
      <trkpt lat="26.823900449020773" lon="100.2305783951423">
        <ele>2341.10828823375</ele>
        <time>2026-08-08T00:22:11.553000Z</time>
      </trkpt>
      <trkpt lat="26.823772674753563" lon="100.23089062548563">
        <ele>2340.5726816650113</ele>
        <time>2026-08-08T00:22:26.553000Z</time>
      </trkpt>
      <trkpt lat="26.823667887210263" lon="100.23119284422752">
        <ele>2340.3016019383726</ele>
        <time>2026-08-08T00:22:44.653000Z</time>
      </trkpt>
      <trkpt lat="26.823547122895196" lon="100.23153308614826">
        <ele>2338.340572086728</ele>
        <time>2026-08-08T00:23:02.653000Z</time>
      </trkpt>
      <trkpt lat="26.823461321290623" lon="100.2318282917738">
        <ele>2339.673995783723</ele>
        <time>2026-08-08T00:23:17.653000Z</time>
      </trkpt>
      <trkpt lat="26.823378525957686" lon="100.2321395045295">
        <ele>2340.95492502481</ele>
        <time>2026-08-08T00:23:32.653000Z</time>
      </trkpt>
      <trkpt lat="26.82332472417547" lon="100.23245271393229">
        <ele>2341.016855083605</ele>
        <time>2026-08-08T00:23:47.653000Z</time>
      </trkpt>
      <trkpt lat="26.823293913187364" lon="100.23276191617525">
        <ele>2341.5171329353316</ele>
        <time>2026-08-08T00:24:02.653000Z</time>
      </trkpt>
      <trkpt lat="26.823295092407143" lon="100.23306811180831">
        <ele>2342.125186697312</ele>
        <time>2026-08-08T00:24:17.653000Z</time>
      </trkpt>
      <trkpt lat="26.823286212544843" lon="100.23327424159271">
        <ele>2342.889250497534</ele>
        <time>2026-08-08T00:24:26.653000Z</time>
      </trkpt>
      <trkpt lat="26.82328835724017" lon="100.23352939950547">
        <ele>2346.1344735341268</ele>
        <time>2026-08-08T00:24:38.653000Z</time>
      </trkpt>
      <trkpt lat="26.823257485446813" lon="100.23375053502713">
        <ele>2345.270113711596</ele>
        <time>2026-08-08T00:24:50.653000Z</time>
      </trkpt>
      <trkpt lat="26.823238515931507" lon="100.23380056571156">
        <ele>2345.3660590018862</ele>
        <time>2026-08-08T00:24:53.653000Z</time>
      </trkpt>
      <trkpt lat="26.823189533501935" lon="100.23381957839761">
        <ele>2344.974549185316</ele>
        <time>2026-08-08T00:24:56.653000Z</time>
      </trkpt>
      <trkpt lat="26.823137582935" lon="100.23389562536406">
        <ele>2344.7472131286645</ele>
        <time>2026-08-08T00:24:59.653000Z</time>
      </trkpt>
      <trkpt lat="26.82315261155804" lon="100.23395165847504">
        <ele>2345.026008145435</ele>
        <time>2026-08-08T00:25:02.653000Z</time>
      </trkpt>
      <trkpt lat="26.823293709468526" lon="100.23416878347096">
        <ele>2344.5897877764223</ele>
        <time>2026-08-08T00:25:14.653000Z</time>
      </trkpt>
      <trkpt lat="26.82332989183987" lon="100.23451998638095">
        <ele>2344.92997690145</ele>
        <time>2026-08-08T00:25:29.653000Z</time>
      </trkpt>
      <trkpt lat="26.823311052350057" lon="100.23482215814849">
        <ele>2345.0133577590914</ele>
        <time>2026-08-08T00:25:44.653000Z</time>
      </trkpt>
      <trkpt lat="26.823323208100454" lon="100.23513032864824">
        <ele>2345.568121009631</ele>
        <time>2026-08-08T00:25:59.653000Z</time>
      </trkpt>
      <trkpt lat="26.82332140968583" lon="100.23553454677122">
        <ele>2347.9660925979733</ele>
        <time>2026-08-08T00:26:20.653000Z</time>
      </trkpt>
      <trkpt lat="26.823316509777097" lon="100.235738654436">
        <ele>2345.6792562497694</ele>
        <time>2026-08-08T00:26:32.653000Z</time>
      </trkpt>
      <trkpt lat="26.82335761835105" lon="100.23597777718896">
        <ele>2344.7750066456197</ele>
        <time>2026-08-08T00:26:41.653000Z</time>
      </trkpt>
      <trkpt lat="26.823349652634164" lon="100.23604781319533">
        <ele>2344.8692332577843</ele>
        <time>2026-08-08T00:26:47.653000Z</time>
      </trkpt>
      <trkpt lat="26.823349652634164" lon="100.23604781319533">
        <ele>2344.8692332577843</ele>
        <time>2026-08-08T00:26:53.653000Z</time>
      </trkpt>
    </trkseg>
  </trk>
</gpx>