<?xml version="1.0" encoding="UTF-8"?>
<gpx xmlns="http://www.topografix.com/GPX/1/1" xmlns:gpxtpx="http://www.garmin.com/xmlschemas/TrackPointExtension/v1" xmlns:xsi="http://www.w3.org/2001/XMLSchema-instance" xsi:schemaLocation="http://www.topografix.com/GPX/1/1 http://www.topografix.com/GPX/1/1/gpx.xsd" version="1.1" creator="gpx.py -- https://github.com/tkrajina/gpxpy">
  <trk>
    <name>gpx from keep</name>
    <type>Run</type>
    <trkseg>
      <trkpt lat="26.823416652145177" lon="100.22013361835812">
        <ele>2345.1642843298614</ele>
        <time>2026-08-04T05:07:26.493000Z</time>
      </trkpt>
      <trkpt lat="26.823483660904806" lon="100.22015163708706">
        <ele>2343.4562714987724</ele>
        <time>2026-08-04T05:07:29.393000Z</time>
      </trkpt>
      <trkpt lat="26.823571643107307" lon="100.22014662918916">
        <ele>2342.3103836733194</ele>
        <time>2026-08-04T05:07:32.393000Z</time>
      </trkpt>
      <trkpt lat="26.82366265452057" lon="100.22017065410503">
        <ele>2342.1924207619213</ele>
        <time>2026-08-04T05:07:35.393000Z</time>
      </trkpt>
      <trkpt lat="26.82373864457615" lon="100.22017165331634">
        <ele>2342.197232606593</ele>
        <time>2026-08-04T05:07:38.393000Z</time>
      </trkpt>
      <trkpt lat="26.82379660757593" lon="100.22014362009438">
        <ele>2342.3186207995927</ele>
        <time>2026-08-04T05:07:41.393000Z</time>
      </trkpt>
      <trkpt lat="26.82410259197994" lon="100.22017164410939">
        <ele>2342.0761667693246</ele>
        <time>2026-08-04T05:07:56.493000Z</time>
      </trkpt>
      <trkpt lat="26.82438958209044" lon="100.2202026719742">
        <ele>2346.9445094208118</ele>
        <time>2026-08-04T05:08:08.393000Z</time>
      </trkpt>
      <trkpt lat="26.824689594678212" lon="100.22025772661746">
        <ele>2346.473053496787</ele>
        <time>2026-08-04T05:08:23.393000Z</time>
      </trkpt>
      <trkpt lat="26.824878570277797" lon="100.22026072522821">
        <ele>2345.7986983861315</ele>
        <time>2026-08-04T05:08:32.493000Z</time>
      </trkpt>
      <trkpt lat="26.82487922281465" lon="100.21992133992124">
        <ele>2340.989893093401</ele>
        <time>2026-08-04T05:08:47.493000Z</time>
      </trkpt>
      <trkpt lat="26.82486199170433" lon="100.21969508118626">
        <ele>2337.7793999097</ele>
        <time>2026-08-04T05:08:56.493000Z</time>
      </trkpt>
      <trkpt lat="26.82488064391012" lon="100.21936369780853">
        <ele>2330.8033049837895</ele>
        <time>2026-08-04T05:09:11.493000Z</time>
      </trkpt>
      <trkpt lat="26.824894287026243" lon="100.21902630357425">
        <ele>2331.6631380076865</ele>
        <time>2026-08-04T05:09:26.493000Z</time>
      </trkpt>
      <trkpt lat="26.824854964185" lon="100.21871693983823">
        <ele>2332.521274494862</ele>
        <time>2026-08-04T05:09:38.493000Z</time>
      </trkpt>
      <trkpt lat="26.82477585799529" lon="100.21860681117973">
        <ele>2332.6677818814837</ele>
        <time>2026-08-04T05:09:44.493000Z</time>
      </trkpt>
      <trkpt lat="26.824707498527115" lon="100.21826340272688">
        <ele>2332.2679504865578</ele>
        <time>2026-08-04T05:10:02.493000Z</time>
      </trkpt>
      <trkpt lat="26.824705362217824" lon="100.21813725105477">
        <ele>2334.5864881092357</ele>
        <time>2026-08-04T05:10:08.493000Z</time>
      </trkpt>
      <trkpt lat="26.82463708318551" lon="100.2178719318479">
        <ele>2334.800019714264</ele>
        <time>2026-08-04T05:10:23.493000Z</time>
      </trkpt>
      <trkpt lat="26.824647984071735" lon="100.21778282323109">
        <ele>2333.8691262205843</ele>
        <time>2026-08-04T05:10:26.493000Z</time>
      </trkpt>
      <trkpt lat="26.82458476876742" lon="100.2175785754501">
        <ele>2334.530704718241</ele>
        <time>2026-08-04T05:10:35.493000Z</time>
      </trkpt>
      <trkpt lat="26.824566637643592" lon="100.21745742730226">
        <ele>2335.4150822797324</ele>
        <time>2026-08-04T05:10:41.493000Z</time>
      </trkpt>
      <trkpt lat="26.824528548939757" lon="100.2173723235671">
        <ele>2333.652727487616</ele>
        <time>2026-08-04T05:10:47.493000Z</time>
      </trkpt>
      <trkpt lat="26.824482518972935" lon="100.2173392840166">
        <ele>2332.6580391490015</ele>
        <time>2026-08-04T05:10:50.493000Z</time>
      </trkpt>
      <trkpt lat="26.824328219002524" lon="100.21704992972629">
        <ele>2329.9464064720546</ele>
        <time>2026-08-04T05:11:05.493000Z</time>
      </trkpt>
      <trkpt lat="26.824215908114965" lon="100.21675856895865">
        <ele>2327.767088008436</ele>
        <time>2026-08-04T05:11:20.493000Z</time>
      </trkpt>
      <trkpt lat="26.82404157629355" lon="100.21644317646836">
        <ele>2327.6826847096086</ele>
        <time>2026-08-04T05:11:35.493000Z</time>
      </trkpt>
      <trkpt lat="26.82388625819238" lon="100.21614480176814">
        <ele>2329.252253215517</ele>
        <time>2026-08-04T05:11:50.493000Z</time>
      </trkpt>
      <trkpt lat="26.823774018956904" lon="100.21592252055969">
        <ele>2332.528200500679</ele>
        <time>2026-08-04T05:12:02.493000Z</time>
      </trkpt>
      <trkpt lat="26.823588780629194" lon="100.21569323047832">
        <ele>2331.2978752774084</ele>
        <time>2026-08-04T05:12:20.493000Z</time>
      </trkpt>
      <trkpt lat="26.823399526090665" lon="100.21545092182282">
        <ele>2335.044371475148</ele>
        <time>2026-08-04T05:12:35.493000Z</time>
      </trkpt>
      <trkpt lat="26.82325426108721" lon="100.21520660744892">
        <ele>2336.5809569307744</ele>
        <time>2026-08-04T05:12:50.493000Z</time>
      </trkpt>
      <trkpt lat="26.823262121047414" lon="100.21508845271289">
        <ele>2337.3055226959227</ele>
        <time>2026-08-04T05:12:56.493000Z</time>
      </trkpt>
      <trkpt lat="26.823232971727673" lon="100.21495828265492">
        <ele>2337.158479145331</ele>
        <time>2026-08-04T05:13:02.493000Z</time>
      </trkpt>
      <trkpt lat="26.823181840491827" lon="100.21484112974684">
        <ele>2337.2568162977727</ele>
        <time>2026-08-04T05:13:08.493000Z</time>
      </trkpt>
      <trkpt lat="26.82296056405952" lon="100.21458179236173">
        <ele>2335.3701554852723</ele>
        <time>2026-08-04T05:13:26.493000Z</time>
      </trkpt>
      <trkpt lat="26.822784311575834" lon="100.21434948768378">
        <ele>2337.2703461319793</ele>
        <time>2026-08-04T05:13:44.493000Z</time>
      </trkpt>
      <trkpt lat="26.822686105429582" lon="100.21416624505359">
        <ele>2340.536866193316</ele>
        <time>2026-08-04T05:13:53.493000Z</time>
      </trkpt>
      <trkpt lat="26.82261106188152" lon="100.21412118651013">
        <ele>2340.277109285473</ele>
        <time>2026-08-04T05:13:59.493000Z</time>
      </trkpt>
      <trkpt lat="26.822638987797017" lon="100.21406310779419">
        <ele>2340.309080875156</ele>
        <time>2026-08-04T05:14:05.493000Z</time>
      </trkpt>
      <trkpt lat="26.82287189389167" lon="100.21401303455043">
        <ele>2337.917703422601</ele>
        <time>2026-08-04T05:14:17.493000Z</time>
      </trkpt>
      <trkpt lat="26.82298080919781" lon="100.213955954922">
        <ele>2338.089289077333</ele>
        <time>2026-08-04T05:14:23.493000Z</time>
      </trkpt>
      <trkpt lat="26.823302721670494" lon="100.21392190085714">
        <ele>2337.960180536296</ele>
        <time>2026-08-04T05:14:41.593000Z</time>
      </trkpt>
      <trkpt lat="26.82362360501254" lon="100.21386381432835">
        <ele>2338.7232547557765</ele>
        <time>2026-08-04T05:14:59.593000Z</time>
      </trkpt>
      <trkpt lat="26.82391050402288" lon="100.21381474073836">
        <ele>2337.8183022169474</ele>
        <time>2026-08-04T05:15:14.593000Z</time>
      </trkpt>
      <trkpt lat="26.824177404565432" lon="100.2137646662199">
        <ele>2337.673862378492</ele>
        <time>2026-08-04T05:15:29.593000Z</time>
      </trkpt>
      <trkpt lat="26.82444430984672" lon="100.21371859704797">
        <ele>2338.908865262111</ele>
        <time>2026-08-04T05:15:44.593000Z</time>
      </trkpt>
      <trkpt lat="26.824735209075577" lon="100.21367052447945">
        <ele>2338.8203488744266</ele>
        <time>2026-08-04T05:15:59.593000Z</time>
      </trkpt>
      <trkpt lat="26.82501110789938" lon="100.21362044949386">
        <ele>2339.7607783113754</ele>
        <time>2026-08-04T05:16:14.593000Z</time>
      </trkpt>
      <trkpt lat="26.825302014180963" lon="100.21357838494163">
        <ele>2339.6058930949007</ele>
        <time>2026-08-04T05:16:29.593000Z</time>
      </trkpt>
      <trkpt lat="26.825585898089884" lon="100.21351729459926">
        <ele>2337.976018963212</ele>
        <time>2026-08-04T05:16:44.593000Z</time>
      </trkpt>
      <trkpt lat="26.825854802407783" lon="100.21347122500012">
        <ele>2338.4105003729446</ele>
        <time>2026-08-04T05:16:59.593000Z</time>
      </trkpt>
      <trkpt lat="26.826130712938063" lon="100.21343116335484">
        <ele>2337.7392347613245</ele>
        <time>2026-08-04T05:17:14.593000Z</time>
      </trkpt>
      <trkpt lat="26.826416605912836" lon="100.21337808361483">
        <ele>2337.5503483514885</ele>
        <time>2026-08-04T05:17:29.593000Z</time>
      </trkpt>
      <trkpt lat="26.826716494213418" lon="100.2133230006864">
        <ele>2339.181184660837</ele>
        <time>2026-08-04T05:17:44.593000Z</time>
      </trkpt>
      <trkpt lat="26.826913468922623" lon="100.21332599980049">
        <ele>2338.223715388462</ele>
        <time>2026-08-04T05:17:56.593000Z</time>
      </trkpt>
      <trkpt lat="26.827186394240144" lon="100.21329795449603">
        <ele>2338.336671949493</ele>
        <time>2026-08-04T05:18:08.593000Z</time>
      </trkpt>
      <trkpt lat="26.827507266774106" lon="100.21323285715822">
        <ele>2339.4498766742913</ele>
        <time>2026-08-04T05:18:23.593000Z</time>
      </trkpt>
      <trkpt lat="26.827807160722678" lon="100.21318278084202">
        <ele>2338.3388558322245</ele>
        <time>2026-08-04T05:18:38.593000Z</time>
      </trkpt>
      <trkpt lat="26.8280860502159" lon="100.21312669671615">
        <ele>2338.6269141395333</ele>
        <time>2026-08-04T05:18:53.593000Z</time>
      </trkpt>
      <trkpt lat="26.828369938806432" lon="100.21307061236045">
        <ele>2338.5213237406115</ele>
        <time>2026-08-04T05:19:08.593000Z</time>
      </trkpt>
      <trkpt lat="26.828682825398356" lon="100.21301652992696">
        <ele>2339.5152409611273</ele>
        <time>2026-08-04T05:19:23.593000Z</time>
      </trkpt>
      <trkpt lat="26.828969715694434" lon="100.21296244805744">
        <ele>2338.9242743511554</ele>
        <time>2026-08-04T05:19:38.593000Z</time>
      </trkpt>
      <trkpt lat="26.829249605635862" lon="100.21290736488606">
        <ele>2338.8261786724074</ele>
        <time>2026-08-04T05:19:53.593000Z</time>
      </trkpt>
      <trkpt lat="26.829557497452143" lon="100.21285728783357">
        <ele>2338.2028119394513</ele>
        <time>2026-08-04T05:20:11.593000Z</time>
      </trkpt>
      <trkpt lat="26.82983738085352" lon="100.21279719753598">
        <ele>2338.6792050215226</ele>
        <time>2026-08-04T05:20:26.593000Z</time>
      </trkpt>
      <trkpt lat="26.83014725833188" lon="100.21273610497012">
        <ele>2339.962024223959</ele>
        <time>2026-08-04T05:20:41.593000Z</time>
      </trkpt>
      <trkpt lat="26.830247219613113" lon="100.212717076026">
        <ele>2339.6290198068473</ele>
        <time>2026-08-04T05:20:47.593000Z</time>
      </trkpt>
      <trkpt lat="26.83034012946975" lon="100.21265598880727">
        <ele>2339.7065304796215</ele>
        <time>2026-08-04T05:20:53.593000Z</time>
      </trkpt>
      <trkpt lat="26.830503768900044" lon="100.21238761039359">
        <ele>2339.6508901288566</ele>
        <time>2026-08-04T05:21:08.693000Z</time>
      </trkpt>
      <trkpt lat="26.83068441002913" lon="100.21212423627439">
        <ele>2338.886909488221</ele>
        <time>2026-08-04T05:21:23.593000Z</time>
      </trkpt>
      <trkpt lat="26.830795153780546" lon="100.21193496653027">
        <ele>2339.1630471458807</ele>
        <time>2026-08-04T05:21:35.693000Z</time>
      </trkpt>
      <trkpt lat="26.830852960591532" lon="100.21178975949671">
        <ele>2339.481171623361</ele>
        <time>2026-08-04T05:21:44.693000Z</time>
      </trkpt>
      <trkpt lat="26.83097572760023" lon="100.21162151736637">
        <ele>2339.523726874731</ele>
        <time>2026-08-04T05:21:53.693000Z</time>
      </trkpt>
      <trkpt lat="26.831122356544828" lon="100.21134912476325">
        <ele>2339.141645984961</ele>
        <time>2026-08-04T05:22:08.693000Z</time>
      </trkpt>
      <trkpt lat="26.831303976823634" lon="100.2110757274821">
        <ele>2339.155276471131</ele>
        <time>2026-08-04T05:22:23.693000Z</time>
      </trkpt>
      <trkpt lat="26.831462577655895" lon="100.21078630520917">
        <ele>2339.7329182323133</ele>
        <time>2026-08-04T05:22:38.693000Z</time>
      </trkpt>
      <trkpt lat="26.831647152571033" lon="100.21048185773894">
        <ele>2338.486807253219</ele>
        <time>2026-08-04T05:22:53.693000Z</time>
      </trkpt>
      <trkpt lat="26.831798785283485" lon="100.21021946996427">
        <ele>2337.9777942177084</ele>
        <time>2026-08-04T05:23:08.693000Z</time>
      </trkpt>
      <trkpt lat="26.83195639664299" lon="100.20994305921701">
        <ele>2338.198774621995</ele>
        <time>2026-08-04T05:23:23.693000Z</time>
      </trkpt>
      <trkpt lat="26.832134018863144" lon="100.20967866344321">
        <ele>2337.414389542114</ele>
        <time>2026-08-04T05:23:38.693000Z</time>
      </trkpt>
      <trkpt lat="26.832273615477337" lon="100.20939223361368">
        <ele>2339.392264929222</ele>
        <time>2026-08-04T05:23:53.693000Z</time>
      </trkpt>
      <trkpt lat="26.832443233606433" lon="100.20912683208964">
        <ele>2338.3253072138946</ele>
        <time>2026-08-04T05:24:08.693000Z</time>
      </trkpt>
      <trkpt lat="26.83261482650609" lon="100.20884440268895">
        <ele>2340.2375398306226</ele>
        <time>2026-08-04T05:24:23.693000Z</time>
      </trkpt>
      <trkpt lat="26.832774435438544" lon="100.2085739894264">
        <ele>2340.7482127932153</ele>
        <time>2026-08-04T05:24:38.693000Z</time>
      </trkpt>
      <trkpt lat="26.83293004577049" lon="100.20830557712885">
        <ele>2339.8828792524455</ele>
        <time>2026-08-04T05:24:53.693000Z</time>
      </trkpt>
      <trkpt lat="26.83300088833003" lon="100.20819841169526">
        <ele>2340.053379770266</ele>
        <time>2026-08-04T05:24:59.693000Z</time>
      </trkpt>
      <trkpt lat="26.833175444825475" lon="100.20789494203612">
        <ele>2340.509633396405</ele>
        <time>2026-08-04T05:25:14.693000Z</time>
      </trkpt>
      <trkpt lat="26.833315052796202" lon="100.20762652473492">
        <ele>2341.1811801554773</ele>
        <time>2026-08-04T05:25:29.693000Z</time>
      </trkpt>
      <trkpt lat="26.833431784923956" lon="100.20744624268418">
        <ele>2341.44869103563</ele>
        <time>2026-08-04T05:25:38.693000Z</time>
      </trkpt>
      <trkpt lat="26.833480502883344" lon="100.2072489349159">
        <ele>2342.449717393582</ele>
        <time>2026-08-04T05:25:47.693000Z</time>
      </trkpt>
      <trkpt lat="26.833460328426877" lon="100.20712173721762">
        <ele>2341.73769250261</ele>
        <time>2026-08-04T05:25:53.693000Z</time>
      </trkpt>
      <trkpt lat="26.833348107293897" lon="100.20695147401521">
        <ele>2341.3509470716053</ele>
        <time>2026-08-04T05:26:02.693000Z</time>
      </trkpt>
      <trkpt lat="26.83316381329401" lon="100.20672211898354">
        <ele>2342.180299639114</ele>
        <time>2026-08-04T05:26:17.793000Z</time>
      </trkpt>
      <trkpt lat="26.832959441684313" lon="100.2064366743813">
        <ele>2342.1386428372443</ele>
        <time>2026-08-04T05:26:35.693000Z</time>
      </trkpt>
      <trkpt lat="26.832784113391405" lon="100.206186282359">
        <ele>2342.2423007614684</ele>
        <time>2026-08-04T05:26:50.793000Z</time>
      </trkpt>
      <trkpt lat="26.832611807341863" lon="100.20595291561465">
        <ele>2340.827430111202</ele>
        <time>2026-08-04T05:27:05.793000Z</time>
      </trkpt>
      <trkpt lat="26.83241543754006" lon="100.20567347418528">
        <ele>2340.3832351678047</ele>
        <time>2026-08-04T05:27:23.793000Z</time>
      </trkpt>
      <trkpt lat="26.83224113309631" lon="100.20544310894738">
        <ele>2340.68659358905</ele>
        <time>2026-08-04T05:27:38.793000Z</time>
      </trkpt>
      <trkpt lat="26.83205284247041" lon="100.20522175713283">
        <ele>2340.0805612592803</ele>
        <time>2026-08-04T05:27:53.793000Z</time>
      </trkpt>
      <trkpt lat="26.831855454616104" lon="100.20493329539227">
        <ele>2340.631806767026</ele>
        <time>2026-08-04T05:28:11.793000Z</time>
      </trkpt>
      <trkpt lat="26.831622049702172" lon="100.204630809409">
        <ele>2339.4396593482993</ele>
        <time>2026-08-04T05:28:29.793000Z</time>
      </trkpt>
      <trkpt lat="26.831462713547207" lon="100.20438441090093">
        <ele>2339.7680060745006</ele>
        <time>2026-08-04T05:28:44.793000Z</time>
      </trkpt>
      <trkpt lat="26.831300377841714" lon="100.20413901245954">
        <ele>2339.648207485117</ele>
        <time>2026-08-04T05:28:59.793000Z</time>
      </trkpt>
      <trkpt lat="26.831263233048638" lon="100.20403684532">
        <ele>2340.3493608082395</ele>
        <time>2026-08-04T05:29:05.793000Z</time>
      </trkpt>
      <trkpt lat="26.831250019325548" lon="100.20389060457143">
        <ele>2340.634224343945</ele>
        <time>2026-08-04T05:29:17.793000Z</time>
      </trkpt>
      <trkpt lat="26.831282943317646" lon="100.20384252434522">
        <ele>2340.645975513159</ele>
        <time>2026-08-04T05:29:23.793000Z</time>
      </trkpt>
      <trkpt lat="26.831389175630168" lon="100.2040107992195">
        <ele>2339.2502211062083</ele>
        <time>2026-08-04T05:29:35.793000Z</time>
      </trkpt>
      <trkpt lat="26.831595487766887" lon="100.20424417767325">
        <ele>2338.164134497486</ele>
        <time>2026-08-04T05:29:50.793000Z</time>
      </trkpt>
      <trkpt lat="26.83178782266019" lon="100.20449257955882">
        <ele>2337.4075321547066</ele>
        <time>2026-08-04T05:30:05.793000Z</time>
      </trkpt>
      <trkpt lat="26.831975172841087" lon="100.20475199781268">
        <ele>2337.5864547204533</ele>
        <time>2026-08-04T05:30:20.793000Z</time>
      </trkpt>
      <trkpt lat="26.832167538028063" lon="100.20502343355548">
        <ele>2338.0893161882495</ele>
        <time>2026-08-04T05:30:35.793000Z</time>
      </trkpt>
      <trkpt lat="26.83236885520862" lon="100.20526381696114">
        <ele>2338.7185412182334</ele>
        <time>2026-08-04T05:30:50.793000Z</time>
      </trkpt>
      <trkpt lat="26.8324099183493" lon="100.20531189342906">
        <ele>2338.9212396922344</ele>
        <time>2026-08-04T05:30:53.793000Z</time>
      </trkpt>
      <trkpt lat="26.832458052514852" lon="100.20541005026017">
        <ele>2337.3224424532154</ele>
        <time>2026-08-04T05:30:59.793000Z</time>
      </trkpt>
      <trkpt lat="26.83267140143995" lon="100.20567547087516">
        <ele>2340.913869323758</ele>
        <time>2026-08-04T05:31:17.793000Z</time>
      </trkpt>
      <trkpt lat="26.832855738713835" lon="100.20593087428142">
        <ele>2340.467545918074</ele>
        <time>2026-08-04T05:31:32.893000Z</time>
      </trkpt>
      <trkpt lat="26.833035040938476" lon="100.20616223781394">
        <ele>2339.2060359455268</ele>
        <time>2026-08-04T05:31:47.893000Z</time>
      </trkpt>
      <trkpt lat="26.83322135773993" lon="100.20640561864694">
        <ele>2338.174680619974</ele>
        <time>2026-08-04T05:32:02.893000Z</time>
      </trkpt>
      <trkpt lat="26.833412670845856" lon="100.20664799608296">
        <ele>2337.5540171982757</ele>
        <time>2026-08-04T05:32:17.893000Z</time>
      </trkpt>
      <trkpt lat="26.833540955536595" lon="100.20686433262304">
        <ele>2337.9771010559307</ele>
        <time>2026-08-04T05:32:29.893000Z</time>
      </trkpt>
      <trkpt lat="26.8336981827464" lon="100.20704360919518">
        <ele>2336.8612051727696</ele>
        <time>2026-08-04T05:32:41.893000Z</time>
      </trkpt>
      <trkpt lat="26.833757357066666" lon="100.20717481243469">
        <ele>2336.406595434339</ele>
        <time>2026-08-04T05:32:47.893000Z</time>
      </trkpt>
      <trkpt lat="26.833770457062545" lon="100.20724792597888">
        <ele>2336.765796063381</ele>
        <time>2026-08-04T05:32:50.893000Z</time>
      </trkpt>
      <trkpt lat="26.83373070852238" lon="100.20742420090329">
        <ele>2338.7202349647387</ele>
        <time>2026-08-04T05:32:59.893000Z</time>
      </trkpt>
      <trkpt lat="26.833681849510906" lon="100.20752035117059">
        <ele>2338.616127668249</ele>
        <time>2026-08-04T05:33:05.893000Z</time>
      </trkpt>
      <trkpt lat="26.83364907511757" lon="100.20767959822925">
        <ele>2337.7298367366575</ele>
        <time>2026-08-04T05:33:14.893000Z</time>
      </trkpt>
      <trkpt lat="26.83345654104915" lon="100.20799609026245">
        <ele>2338.5754086441007</ele>
        <time>2026-08-04T05:33:32.893000Z</time>
      </trkpt>
      <trkpt lat="26.833279967673683" lon="100.20828754072657">
        <ele>2337.719320022879</ele>
        <time>2026-08-04T05:33:50.893000Z</time>
      </trkpt>
      <trkpt lat="26.833092374662648" lon="100.20856496766362">
        <ele>2338.752110189491</ele>
        <time>2026-08-04T05:34:05.893000Z</time>
      </trkpt>
      <trkpt lat="26.832908818255373" lon="100.20887143601367">
        <ele>2338.7557716461884</ele>
        <time>2026-08-04T05:34:23.893000Z</time>
      </trkpt>
      <trkpt lat="26.832757193871114" lon="100.20913283312542">
        <ele>2339.2030109264256</ele>
        <time>2026-08-04T05:34:38.893000Z</time>
      </trkpt>
      <trkpt lat="26.832586593313344" lon="100.20941125405545">
        <ele>2338.7891934531835</ele>
        <time>2026-08-04T05:34:53.893000Z</time>
      </trkpt>
      <trkpt lat="26.832412007242628" lon="100.20970169055066">
        <ele>2338.037011566318</ele>
        <time>2026-08-04T05:35:08.893000Z</time>
      </trkpt>
      <trkpt lat="26.832264402854026" lon="100.20998311048454">
        <ele>2337.5957967284953</ele>
        <time>2026-08-04T05:35:23.893000Z</time>
      </trkpt>
      <trkpt lat="26.832159632934584" lon="100.21014535197298">
        <ele>2336.7529548942407</ele>
        <time>2026-08-04T05:35:32.893000Z</time>
      </trkpt>
      <trkpt lat="26.832046017340364" lon="100.2104247642625">
        <ele>2336.293934193587</ele>
        <time>2026-08-04T05:35:47.993000Z</time>
      </trkpt>
      <trkpt lat="26.83187343071799" lon="100.21072120034232">
        <ele>2338.224498132635</ele>
        <time>2026-08-04T05:36:05.993000Z</time>
      </trkpt>
      <trkpt lat="26.831706791491527" lon="100.21097957861033">
        <ele>2337.5382838509113</ele>
        <time>2026-08-04T05:36:23.993000Z</time>
      </trkpt>
      <trkpt lat="26.831544194906993" lon="100.21127300497315">
        <ele>2341.72641636919</ele>
        <time>2026-08-04T05:36:41.993000Z</time>
      </trkpt>
      <trkpt lat="26.831383603287104" lon="100.211572437128">
        <ele>2342.3706389984236</ele>
        <time>2026-08-04T05:36:56.993000Z</time>
      </trkpt>
      <trkpt lat="26.831212950845998" lon="100.21182480003806">
        <ele>2341.9268176558367</ele>
        <time>2026-08-04T05:37:11.993000Z</time>
      </trkpt>
      <trkpt lat="26.831112164360427" lon="100.21198102355575">
        <ele>2342.219050691381</ele>
        <time>2026-08-04T05:37:20.993000Z</time>
      </trkpt>
      <trkpt lat="26.8310813109589" lon="100.21209318249495">
        <ele>2341.6839318730367</ele>
        <time>2026-08-04T05:37:26.993000Z</time>
      </trkpt>
      <trkpt lat="26.830912716102603" lon="100.2123946098188">
        <ele>2334.8960912498196</ele>
        <time>2026-08-04T05:37:41.993000Z</time>
      </trkpt>
      <trkpt lat="26.830736078636704" lon="100.21266298850288">
        <ele>2338.1713629882915</ele>
        <time>2026-08-04T05:37:59.993000Z</time>
      </trkpt>
      <trkpt lat="26.830522427271877" lon="100.212917346426">
        <ele>2337.1914299213527</ele>
        <time>2026-08-04T05:38:17.993000Z</time>
      </trkpt>
      <trkpt lat="26.830246673317102" lon="100.21308258128356">
        <ele>2335.5094247444213</ele>
        <time>2026-08-04T05:38:35.993000Z</time>
      </trkpt>
      <trkpt lat="26.830049779549807" lon="100.2131446716696">
        <ele>2334.403586105457</ele>
        <time>2026-08-04T05:38:44.993000Z</time>
      </trkpt>
      <trkpt lat="26.829874763762586" lon="100.21311062929902">
        <ele>2337.2820109392446</ele>
        <time>2026-08-04T05:38:53.993000Z</time>
      </trkpt>
      <trkpt lat="26.82958386542151" lon="100.21315770137944">
        <ele>2337.446827862432</ele>
        <time>2026-08-04T05:39:08.993000Z</time>
      </trkpt>
      <trkpt lat="26.829320068914065" lon="100.21329089076593">
        <ele>2334.538441901116</ele>
        <time>2026-08-04T05:39:23.993000Z</time>
      </trkpt>
      <trkpt lat="26.829215151045034" lon="100.21334496743839">
        <ele>2334.2453213600716</ele>
        <time>2026-08-04T05:39:29.993000Z</time>
      </trkpt>
      <trkpt lat="26.828939232778506" lon="100.2133780196199">
        <ele>2334.972735250001</ele>
        <time>2026-08-04T05:39:44.993000Z</time>
      </trkpt>
      <trkpt lat="26.82855131387626" lon="100.21339705545839">
        <ele>2335.483060188543</ele>
        <time>2026-08-04T05:40:06.093000Z</time>
      </trkpt>
      <trkpt lat="26.828236393819402" lon="100.2134241003705">
        <ele>2336.115070865775</ele>
        <time>2026-08-04T05:40:24.093000Z</time>
      </trkpt>
      <trkpt lat="26.828019401443562" lon="100.2134040785272">
        <ele>2334.911686909009</ele>
        <time>2026-08-04T05:40:36.093000Z</time>
      </trkpt>
      <trkpt lat="26.82774551565176" lon="100.21346416747963">
        <ele>2334.503795117604</ele>
        <time>2026-08-04T05:40:51.093000Z</time>
      </trkpt>
      <trkpt lat="26.82740862674424" lon="100.21351424427198">
        <ele>2336.0815310318367</ele>
        <time>2026-08-04T05:41:09.093000Z</time>
      </trkpt>
      <trkpt lat="26.827270694861912" lon="100.2135533009458">
        <ele>2336.219310012778</ele>
        <time>2026-08-04T05:41:15.093000Z</time>
      </trkpt>
      <trkpt lat="26.826943793206766" lon="100.2135943650857">
        <ele>2336.7981121647103</ele>
        <time>2026-08-04T05:41:33.093000Z</time>
      </trkpt>
      <trkpt lat="26.826585960655756" lon="100.21368850199367">
        <ele>2336.5323993269913</ele>
        <time>2026-08-04T05:41:51.093000Z</time>
      </trkpt>
      <trkpt lat="26.826458290789066" lon="100.21394485188756">
        <ele>2335.723124967718</ele>
        <time>2026-08-04T05:42:06.093000Z</time>
      </trkpt>
      <trkpt lat="26.826212445550855" lon="100.2140429902516">
        <ele>2333.9015546406254</ele>
        <time>2026-08-04T05:42:21.093000Z</time>
      </trkpt>
      <trkpt lat="26.82588646787841" lon="100.21402197023184">
        <ele>2335.495090452215</ele>
        <time>2026-08-04T05:42:39.093000Z</time>
      </trkpt>
      <trkpt lat="26.825668471903818" lon="100.213998944763">
        <ele>2335.58079072933</ele>
        <time>2026-08-04T05:42:51.093000Z</time>
      </trkpt>
      <trkpt lat="26.825380433957974" lon="100.21393286302195">
        <ele>2336.9619009935423</ele>
        <time>2026-08-04T05:43:06.093000Z</time>
      </trkpt>
      <trkpt lat="26.825097477614378" lon="100.21393487289828">
        <ele>2336.4541715079285</ele>
        <time>2026-08-04T05:43:21.093000Z</time>
      </trkpt>
      <trkpt lat="26.82481455756475" lon="100.21396692326255">
        <ele>2335.191452370392</ele>
        <time>2026-08-04T05:43:36.093000Z</time>
      </trkpt>
      <trkpt lat="26.824628626970814" lon="100.21400197517707">
        <ele>2335.8895076966487</ele>
        <time>2026-08-04T05:43:45.093000Z</time>
      </trkpt>
      <trkpt lat="26.82444086205946" lon="100.21417421129833">
        <ele>2337.4864829074913</ele>
        <time>2026-08-04T05:43:57.093000Z</time>
      </trkpt>
      <trkpt lat="26.824131964652484" lon="100.21422228352074">
        <ele>2336.6676742777922</ele>
        <time>2026-08-04T05:44:15.093000Z</time>
      </trkpt>
      <trkpt lat="26.824030999730507" lon="100.2142393088671">
        <ele>2336.2290352156924</ele>
        <time>2026-08-04T05:44:21.093000Z</time>
      </trkpt>
      <trkpt lat="26.82397399472711" lon="100.21422829556957">
        <ele>2336.2797421883192</ele>
        <time>2026-08-04T05:44:24.093000Z</time>
      </trkpt>
      <trkpt lat="26.823852898890785" lon="100.21413417249065">
        <ele>2335.654203507686</ele>
        <time>2026-08-04T05:44:33.093000Z</time>
      </trkpt>
      <trkpt lat="26.823543001518917" lon="100.214182244802">
        <ele>2335.5679714404696</ele>
        <time>2026-08-04T05:44:51.093000Z</time>
      </trkpt>
      <trkpt lat="26.823384056965125" lon="100.21420928505349">
        <ele>2335.3665890145144</ele>
        <time>2026-08-04T05:45:00.093000Z</time>
      </trkpt>
      <trkpt lat="26.82337116113114" lon="100.21429439925173">
        <ele>2335.070643841848</ele>
        <time>2026-08-04T05:45:06.093000Z</time>
      </trkpt>
      <trkpt lat="26.823395236957012" lon="100.2143604868928">
        <ele>2334.948630586389</ele>
        <time>2026-08-04T05:45:09.093000Z</time>
      </trkpt>
      <trkpt lat="26.823383393275606" lon="100.21448965926464">
        <ele>2334.4323180818574</ele>
        <time>2026-08-04T05:45:15.093000Z</time>
      </trkpt>
      <trkpt lat="26.8233225263325" lon="100.21459379912679">
        <ele>2333.9755837740445</ele>
        <time>2026-08-04T05:45:21.093000Z</time>
      </trkpt>
      <trkpt lat="26.823062549405574" lon="100.21458178977625">
        <ele>2334.3897903738803</ele>
        <time>2026-08-04T05:45:36.093000Z</time>
      </trkpt>
      <trkpt lat="26.823060666540314" lon="100.21467991987049">
        <ele>2334.799885430598</ele>
        <time>2026-08-04T05:45:42.093000Z</time>
      </trkpt>
      <trkpt lat="26.823260928655717" lon="100.21492523849945">
        <ele>2333.6456070487866</ele>
        <time>2026-08-04T05:46:00.093000Z</time>
      </trkpt>
      <trkpt lat="26.82334202930726" lon="100.21502036141868">
        <ele>2333.6980610343726</ele>
        <time>2026-08-04T05:46:06.093000Z</time>
      </trkpt>
      <trkpt lat="26.823419184416228" lon="100.21516154439082">
        <ele>2333.905738842561</ele>
        <time>2026-08-04T05:46:15.093000Z</time>
      </trkpt>
      <trkpt lat="26.823604435771934" lon="100.21539884901668">
        <ele>2332.7968644858684</ele>
        <time>2026-08-04T05:46:30.093000Z</time>
      </trkpt>
      <trkpt lat="26.823795684551474" lon="100.21563615158512">
        <ele>2333.2713928925446</ele>
        <time>2026-08-04T05:46:45.093000Z</time>
      </trkpt>
      <trkpt lat="26.8239889925133" lon="100.21592652024563">
        <ele>2334.374042031542</ele>
        <time>2026-08-04T05:47:03.093000Z</time>
      </trkpt>
      <trkpt lat="26.824147261733916" lon="100.2161808410587">
        <ele>2335.3617792343166</ele>
        <time>2026-08-04T05:47:18.093000Z</time>
      </trkpt>
      <trkpt lat="26.824194386527942" lon="100.2162959862023">
        <ele>2335.5476490068313</ele>
        <time>2026-08-04T05:47:24.093000Z</time>
      </trkpt>
      <trkpt lat="26.82430259425173" lon="100.21649223182213">
        <ele>2335.791478930743</ele>
        <time>2026-08-04T05:47:36.093000Z</time>
      </trkpt>
      <trkpt lat="26.82430259425173" lon="100.21649223182213">
        <ele>2335.791478930743</ele>
        <time>2026-08-04T05:47:41.993000Z</time>
      </trkpt>
    </trkseg>
  </trk>
</gpx>