<?xml version="1.0" encoding="UTF-8"?>
<gpx xmlns="http://www.topografix.com/GPX/1/1" xmlns:gpxtpx="http://www.garmin.com/xmlschemas/TrackPointExtension/v1" xmlns:xsi="http://www.w3.org/2001/XMLSchema-instance" xsi:schemaLocation="http://www.topografix.com/GPX/1/1 http://www.topografix.com/GPX/1/1/gpx.xsd" version="1.1" creator="gpx.py -- https://github.com/tkrajina/gpxpy">
  <trk>
    <name>gpx from keep</name>
    <type>Run</type>
    <trkseg>
      <trkpt lat="26.823417566967002" lon="100.22005052400525">
        <ele>2340.107894288376</ele>
        <time>2026-08-22T03:35:33.158000Z</time>
      </trkpt>
      <trkpt lat="26.82341383419682" lon="100.220311819884">
        <ele>2340.236724883208</ele>
        <time>2026-08-22T03:35:42.058000Z</time>
      </trkpt>
      <trkpt lat="26.823350959054167" lon="100.22042594989098">
        <ele>2339.8255909792933</ele>
        <time>2026-08-22T03:35:48.058000Z</time>
      </trkpt>
      <trkpt lat="26.823320314384365" lon="100.2207743397449">
        <ele>2340.7331038718935</ele>
        <time>2026-08-22T03:36:03.058000Z</time>
      </trkpt>
      <trkpt lat="26.82327866441987" lon="100.22111972215201">
        <ele>2340.206857137905</ele>
        <time>2026-08-22T03:36:18.158000Z</time>
      </trkpt>
      <trkpt lat="26.823300796785134" lon="100.22125687181715">
        <ele>2339.4768474306857</ele>
        <time>2026-08-22T03:36:24.158000Z</time>
      </trkpt>
      <trkpt lat="26.82326304408918" lon="100.22150314078515">
        <ele>2338.8143515088714</ele>
        <time>2026-08-22T03:36:36.158000Z</time>
      </trkpt>
      <trkpt lat="26.82324010608453" lon="100.22156320639587">
        <ele>2338.746060593664</ele>
        <time>2026-08-22T03:36:39.158000Z</time>
      </trkpt>
      <trkpt lat="26.823207148914992" lon="100.22160224942787">
        <ele>2338.7280426862358</ele>
        <time>2026-08-22T03:36:42.158000Z</time>
      </trkpt>
      <trkpt lat="26.822939230338797" lon="100.22164630374326">
        <ele>2338.4170065867456</ele>
        <time>2026-08-22T03:36:57.158000Z</time>
      </trkpt>
      <trkpt lat="26.822668311091057" lon="100.22168935698467">
        <ele>2339.612632910324</ele>
        <time>2026-08-22T03:37:12.158000Z</time>
      </trkpt>
      <trkpt lat="26.822374464879275" lon="100.2218044881482">
        <ele>2339.959678231319</ele>
        <time>2026-08-22T03:37:30.158000Z</time>
      </trkpt>
      <trkpt lat="26.822191518175217" lon="100.2218325228259">
        <ele>2342.9603481591357</ele>
        <time>2026-08-22T03:37:39.158000Z</time>
      </trkpt>
      <trkpt lat="26.822122581244628" lon="100.2218875835158">
        <ele>2342.781049261134</ele>
        <time>2026-08-22T03:37:45.158000Z</time>
      </trkpt>
      <trkpt lat="26.822093693437022" lon="100.22199970393706">
        <ele>2342.0447806629977</ele>
        <time>2026-08-22T03:37:51.158000Z</time>
      </trkpt>
      <trkpt lat="26.821993736587515" lon="100.22202973844503">
        <ele>2341.7220215053153</ele>
        <time>2026-08-22T03:37:57.158000Z</time>
      </trkpt>
      <trkpt lat="26.82193673125188" lon="100.2220157249658">
        <ele>2342.177911313198</ele>
        <time>2026-08-22T03:38:00.158000Z</time>
      </trkpt>
      <trkpt lat="26.821679863006437" lon="100.22211483681096">
        <ele>2343.193751177693</ele>
        <time>2026-08-22T03:38:15.158000Z</time>
      </trkpt>
      <trkpt lat="26.821485939497595" lon="100.22216589584299">
        <ele>2341.539302760383</ele>
        <time>2026-08-22T03:38:27.158000Z</time>
      </trkpt>
      <trkpt lat="26.821372913408002" lon="100.22212185200559">
        <ele>2345.163948924949</ele>
        <time>2026-08-22T03:38:33.158000Z</time>
      </trkpt>
      <trkpt lat="26.82124009198887" lon="100.22228903220788">
        <ele>2343.6059054216003</ele>
        <time>2026-08-22T03:38:45.158000Z</time>
      </trkpt>
      <trkpt lat="26.82119721037258" lon="100.22240715762207">
        <ele>2342.8464167267557</ele>
        <time>2026-08-22T03:38:51.158000Z</time>
      </trkpt>
      <trkpt lat="26.821147298065462" lon="100.22249224812198">
        <ele>2342.3824665626353</ele>
        <time>2026-08-22T03:38:57.158000Z</time>
      </trkpt>
      <trkpt lat="26.821020405881047" lon="100.222587350747">
        <ele>2342.4745105027328</ele>
        <time>2026-08-22T03:39:06.158000Z</time>
      </trkpt>
      <trkpt lat="26.820755544217842" lon="100.22269446901309">
        <ele>2343.2848424200797</ele>
        <time>2026-08-22T03:39:21.158000Z</time>
      </trkpt>
      <trkpt lat="26.820512751021525" lon="100.22287866600925">
        <ele>2343.451889004762</ele>
        <time>2026-08-22T03:39:42.158000Z</time>
      </trkpt>
      <trkpt lat="26.82047782033916" lon="100.22294773813749">
        <ele>2344.0522876352534</ele>
        <time>2026-08-22T03:40:06.158000Z</time>
      </trkpt>
      <trkpt lat="26.820276005866607" lon="100.22311691698249">
        <ele>2347.0662979071717</ele>
        <time>2026-08-22T03:40:21.158000Z</time>
      </trkpt>
      <trkpt lat="26.82019305829877" lon="100.22316096413788">
        <ele>2348.8415515642705</ele>
        <time>2026-08-22T03:40:27.158000Z</time>
      </trkpt>
      <trkpt lat="26.820045315722922" lon="100.22341822960306">
        <ele>2350.5901857086446</ele>
        <time>2026-08-22T03:40:45.158000Z</time>
      </trkpt>
      <trkpt lat="26.81993652547156" lon="100.22363144738652">
        <ele>2351.096842568706</ele>
        <time>2026-08-22T03:40:57.158000Z</time>
      </trkpt>
      <trkpt lat="26.81991382689352" lon="100.22396177772502">
        <ele>2352.1662571277657</ele>
        <time>2026-08-22T03:41:12.158000Z</time>
      </trkpt>
      <trkpt lat="26.81991811732323" lon="100.22428809932943">
        <ele>2352.5476543702</ele>
        <time>2026-08-22T03:41:27.158000Z</time>
      </trkpt>
      <trkpt lat="26.81993729492793" lon="100.22449229810586">
        <ele>2352.582450971016</ele>
        <time>2026-08-22T03:41:36.158000Z</time>
      </trkpt>
      <trkpt lat="26.820036479940846" lon="100.22471951546157">
        <ele>2351.9313872755697</ele>
        <time>2026-08-22T03:41:48.158000Z</time>
      </trkpt>
      <trkpt lat="26.820058573497352" lon="100.2248306216959">
        <ele>2351.5218717933144</ele>
        <time>2026-08-22T03:41:54.158000Z</time>
      </trkpt>
      <trkpt lat="26.82018881517806" lon="100.22513190562236">
        <ele>2350.297244684178</ele>
        <time>2026-08-22T03:42:09.158000Z</time>
      </trkpt>
      <trkpt lat="26.8202970483954" lon="100.22542317725672">
        <ele>2349.4153836959385</ele>
        <time>2026-08-22T03:42:24.158000Z</time>
      </trkpt>
      <trkpt lat="26.82038024026703" lon="100.225664399914">
        <ele>2347.8009279042576</ele>
        <time>2026-08-22T03:42:36.158000Z</time>
      </trkpt>
      <trkpt lat="26.820559405758637" lon="100.22589260596128">
        <ele>2346.468315097883</ele>
        <time>2026-08-22T03:42:51.158000Z</time>
      </trkpt>
      <trkpt lat="26.820681511396568" lon="100.22604073848913">
        <ele>2346.130795279326</ele>
        <time>2026-08-22T03:43:00.158000Z</time>
      </trkpt>
      <trkpt lat="26.820766643716137" lon="100.2262158955958">
        <ele>2345.7509747108</ele>
        <time>2026-08-22T03:43:09.158000Z</time>
      </trkpt>
      <trkpt lat="26.820926738225932" lon="100.22635902080701">
        <ele>2345.284519542632</ele>
        <time>2026-08-22T03:43:21.158000Z</time>
      </trkpt>
      <trkpt lat="26.820982867056063" lon="100.22652717022487">
        <ele>2345.993536347948</ele>
        <time>2026-08-22T03:43:30.158000Z</time>
      </trkpt>
      <trkpt lat="26.820955997823948" lon="100.22668431086925">
        <ele>2349.9221814767698</ele>
        <time>2026-08-22T03:43:39.158000Z</time>
      </trkpt>
      <trkpt lat="26.820830235189042" lon="100.22695855601391">
        <ele>2353.516365512751</ele>
        <time>2026-08-22T03:43:57.158000Z</time>
      </trkpt>
      <trkpt lat="26.82066644067185" lon="100.22718876099756">
        <ele>2357.3104270479334</ele>
        <time>2026-08-22T03:44:15.158000Z</time>
      </trkpt>
      <trkpt lat="26.820592499960668" lon="100.22725081665156">
        <ele>2358.278893924148</ele>
        <time>2026-08-22T03:44:21.158000Z</time>
      </trkpt>
      <trkpt lat="26.82045877806304" lon="100.2275831054869">
        <ele>2360.0501915524706</ele>
        <time>2026-08-22T03:44:39.158000Z</time>
      </trkpt>
      <trkpt lat="26.820408912505716" lon="100.2277482470055">
        <ele>2361.0419566845635</ele>
        <time>2026-08-22T03:44:48.158000Z</time>
      </trkpt>
      <trkpt lat="26.820412997864615" lon="100.22786034149904">
        <ele>2361.469805617415</ele>
        <time>2026-08-22T03:44:54.158000Z</time>
      </trkpt>
      <trkpt lat="26.820542241567473" lon="100.22820562652235">
        <ele>2361.4329130627134</ele>
        <time>2026-08-22T03:45:12.158000Z</time>
      </trkpt>
      <trkpt lat="26.820685424182464" lon="100.22847684606293">
        <ele>2360.3225017674235</ele>
        <time>2026-08-22T03:45:27.258000Z</time>
      </trkpt>
      <trkpt lat="26.82087058430479" lon="100.22872904629033">
        <ele>2358.9624237672438</ele>
        <time>2026-08-22T03:45:42.258000Z</time>
      </trkpt>
      <trkpt lat="26.821128669965105" lon="100.22889617417754">
        <ele>2357.739721039368</ele>
        <time>2026-08-22T03:45:57.258000Z</time>
      </trkpt>
      <trkpt lat="26.821254677570533" lon="100.22893119902542">
        <ele>2356.7059782351193</ele>
        <time>2026-08-22T03:46:03.258000Z</time>
      </trkpt>
      <trkpt lat="26.82134472435063" lon="100.22901326222632">
        <ele>2355.9076293317626</ele>
        <time>2026-08-22T03:46:09.258000Z</time>
      </trkpt>
      <trkpt lat="26.821457922778315" lon="100.22931149505487">
        <ele>2353.9777312520537</ele>
        <time>2026-08-22T03:46:24.258000Z</time>
      </trkpt>
      <trkpt lat="26.821547081298895" lon="100.22955268082056">
        <ele>2351.7807839579236</ele>
        <time>2026-08-22T03:46:36.258000Z</time>
      </trkpt>
      <trkpt lat="26.821732248483098" lon="100.22982888861951">
        <ele>2348.435497876151</ele>
        <time>2026-08-22T03:46:51.258000Z</time>
      </trkpt>
      <trkpt lat="26.821825330983685" lon="100.2299669913634">
        <ele>2347.7826561828665</ele>
        <time>2026-08-22T03:47:00.258000Z</time>
      </trkpt>
      <trkpt lat="26.822057460077144" lon="100.23020316346168">
        <ele>2345.92885298262</ele>
        <time>2026-08-22T03:47:15.258000Z</time>
      </trkpt>
      <trkpt lat="26.822189545997407" lon="100.23035727504697">
        <ele>2344.9617340341115</ele>
        <time>2026-08-22T03:47:24.258000Z</time>
      </trkpt>
      <trkpt lat="26.822246622277895" lon="100.2304823661832">
        <ele>2343.6078731568837</ele>
        <time>2026-08-22T03:47:30.258000Z</time>
      </trkpt>
      <trkpt lat="26.822418776817877" lon="100.23075055820432">
        <ele>2341.2023644271076</ele>
        <time>2026-08-22T03:47:45.258000Z</time>
      </trkpt>
      <trkpt lat="26.82251685798894" lon="100.23089466004373">
        <ele>2341.2067524227864</ele>
        <time>2026-08-22T03:47:54.258000Z</time>
      </trkpt>
      <trkpt lat="26.822559931909264" lon="100.23101674667892">
        <ele>2341.305788660217</ele>
        <time>2026-08-22T03:48:00.258000Z</time>
      </trkpt>
      <trkpt lat="26.82263312125611" lon="100.23132496361782">
        <ele>2340.5691968214364</ele>
        <time>2026-08-22T03:48:15.258000Z</time>
      </trkpt>
      <trkpt lat="26.822704189285737" lon="100.23144704742569">
        <ele>2340.900654119794</ele>
        <time>2026-08-22T03:48:24.258000Z</time>
      </trkpt>
      <trkpt lat="26.822791376903695" lon="100.2317632641397">
        <ele>2340.0993889760957</ele>
        <time>2026-08-22T03:48:42.258000Z</time>
      </trkpt>
      <trkpt lat="26.822864571570236" lon="100.23209348657639">
        <ele>2339.5368580158874</ele>
        <time>2026-08-22T03:49:00.258000Z</time>
      </trkpt>
      <trkpt lat="26.82289359139318" lon="100.23213251205809">
        <ele>2339.564568046212</ele>
        <time>2026-08-22T03:49:03.258000Z</time>
      </trkpt>
      <trkpt lat="26.82299359973772" lon="100.2321695343484">
        <ele>2339.817870720069</ele>
        <time>2026-08-22T03:49:09.258000Z</time>
      </trkpt>
      <trkpt lat="26.823318553615206" lon="100.23217052682497">
        <ele>2337.475919519141</ele>
        <time>2026-08-22T03:49:27.258000Z</time>
      </trkpt>
      <trkpt lat="26.823372559929066" lon="100.23219354085789">
        <ele>2336.114654820454</ele>
        <time>2026-08-22T03:49:30.258000Z</time>
      </trkpt>
      <trkpt lat="26.82337059688013" lon="100.23225358096579">
        <ele>2336.1390037616484</ele>
        <time>2026-08-22T03:49:33.258000Z</time>
      </trkpt>
      <trkpt lat="26.823295811195226" lon="100.23259080511836">
        <ele>2336.65331555096</ele>
        <time>2026-08-22T03:49:51.258000Z</time>
      </trkpt>
      <trkpt lat="26.823297999198548" lon="100.23290901054544">
        <ele>2336.4162212811</ele>
        <time>2026-08-22T03:50:06.258000Z</time>
      </trkpt>
      <trkpt lat="26.82330815418649" lon="100.23317818087833">
        <ele>2336.716885959978</ele>
        <time>2026-08-22T03:50:18.258000Z</time>
      </trkpt>
      <trkpt lat="26.823286191312466" lon="100.23323721845087">
        <ele>2337.144934179021</ele>
        <time>2026-08-22T03:50:21.258000Z</time>
      </trkpt>
      <trkpt lat="26.82324339242966" lon="100.23358043191179">
        <ele>2336.8459703699314</ele>
        <time>2026-08-22T03:50:39.258000Z</time>
      </trkpt>
      <trkpt lat="26.82323145799906" lon="100.23369450173004">
        <ele>2336.4442388815933</ele>
        <time>2026-08-22T03:50:45.258000Z</time>
      </trkpt>
      <trkpt lat="26.823182531741192" lon="100.23381457556201">
        <ele>2336.6708612442567</ele>
        <time>2026-08-22T03:50:57.258000Z</time>
      </trkpt>
    </trkseg>
  </trk>
</gpx>